No errors
No warnings
512 ms
data source=metars
4668 results
raw_text,station_id,observation_time,latitude,longitude,temp_c,dewpoint_c,wind_dir_degrees,wind_speed_kt,wind_gust_kt,visibility_statute_mi,altim_in_hg,sea_level_pressure_mb,corrected,auto,auto_station,maintenance_indicator_on,no_signal,lightning_sensor_off,freezing_rain_sensor_off,present_weather_sensor_off,wx_string,sky_cover,cloud_base_ft_agl,sky_cover,cloud_base_ft_agl,sky_cover,cloud_base_ft_agl,sky_cover,cloud_base_ft_agl,flight_category,three_hr_pressure_tendency_mb,maxT_c,minT_c,maxT24hr_c,minT24hr_c,precip_in,pcp3hr_in,pcp6hr_in,pcp24hr_in,snow_in,vert_vis_ft,metar_type,elevation_m
CYRQ 280722Z AUTO 07016G26KT 4SM -RA -UP BR OVC010 00/M00 A2985 RMK SLP112,CYRQ,2018-10-28T07:22:00Z,46.35,-72.68,0.0,0.0,70,16,26,4.0,29.84941,1011.2,,TRUE,,,,,,,-RA BR UP,OVC,1000,,,,,,,MVFR,,,,,,,,,,,,SPECI,61.0
EKYT 280722Z 01004KT 9999 -SHRASN SCT032 BKN065 02/01 Q1023 R08L/520195,EKYT,2018-10-28T07:22:00Z,57.1,9.87,2.0,1.0,10,4,,6.21,30.206694,,,,,,,,,,-SHRA -SHSN,SCT,3200,BKN,6500,,,,,VFR,,,,,,,,,,,,METAR,3.0
KKLS 280722Z AUTO 06003KT 9SM RA FEW004 SCT013 OVC070 15/14 A2980 RMK AO2 P0004,KKLS,2018-10-28T07:22:00Z,46.12,-122.9,15.0,14.0,60,3,,9.0,29.799213,,,TRUE,TRUE,,,,,,RA,FEW,400,SCT,1300,OVC,7000,,,VFR,,,,,,0.04,,,,,,SPECI,5.0
PAKP 280722Z AUTO 02006KT 3SM -SN BR OVC028 M11/M12 A2959 RMK AO2 P0000 FZRANO,PAKP,2018-10-28T07:22:00Z,68.13,-151.73,-11.0,-12.0,20,6,,3.0,29.589567,,,TRUE,TRUE,,,,TRUE,,-SN BR,OVC,2800,,,,,,,MVFR,,,,,,0.005,,,,,,SPECI,642.0
PAHP 280722Z AUTO 34014KT 10SM FEW013 SCT021 OVC055 M01/M03 A3005 RMK AO2 SNE13 P0000 FZRANO,PAHP,2018-10-28T07:22:00Z,61.52,-166.15,-1.0,-3.0,340,14,,10.0,30.050198,,,TRUE,TRUE,,,,TRUE,,,FEW,1300,SCT,2100,OVC,5500,,,VFR,,,,,,0.005,,,,,,SPECI,5.0
KSRC 280721Z AUTO 00000KT 2 1/2SM BR FEW002 08/ A3001 RMK AO2,KSRC,2018-10-28T07:21:00Z,35.22,-91.73,8.0,,0,0,,2.5,30.008858,,,TRUE,TRUE,,,,,,BR,FEW,200,,,,,,,IFR,,,,,,,,,,,,SPECI,80.0
KLPC 280721Z AUTO 09003KT 1SM BR OVC003 14/13 A3001 RMK AO2,KLPC,2018-10-28T07:21:00Z,34.67,-120.47,14.0,13.0,90,3,,1.0,30.008858,,,TRUE,TRUE,,,,,,BR,OVC,300,,,,,,,LIFR,,,,,,,,,,,,SPECI,27.0
KAWO 280721Z AUTO 18009G20KT 10SM -RA OVC022 12/11 A2974 RMK AO2 WSHFT 0701 P0000,KAWO,2018-10-28T07:21:00Z,48.17,-122.17,12.0,11.0,180,9,20,10.0,29.740158,,,TRUE,TRUE,,,,,,-RA,OVC,2200,,,,,,,MVFR,,,,,,0.005,,,,,,SPECI,42.0
PAPO 280721Z AUTO 31013KT 7SM -SN SCT020 BKN028 OVC048 M02/M05 A2995 RMK AO2 P0000 FZRANO,PAPO,2018-10-28T07:21:00Z,68.35,-166.8,-2.0,-5.0,310,13,,7.0,29.949802,,,TRUE,TRUE,,,,TRUE,,-SN,SCT,2000,BKN,2800,OVC,4800,,,MVFR,,,,,,0.005,,,,,,SPECI,6.0
CYYW 280721Z AUTO 15005KT 9SM OVC008 04/04 A2981 RMK SLP107,CYYW,2018-10-28T07:21:00Z,50.3,-88.9,4.0,4.0,150,5,,9.0,29.811024,1010.7,,TRUE,,,,,,,,OVC,800,,,,,,,IFR,,,,,,,,,,,,SPECI,351.0
KBGM 280721Z AUTO 29005KT 3/4SM BR VV003 02/02 A2963 RMK AO2 T00220022,KBGM,2018-10-28T07:21:00Z,42.22,-75.98,2.2,2.2,290,5,,0.75,29.630905,,,TRUE,TRUE,,,,,,BR,OVX,0,,,,,,,LIFR,,,,,,,,,,,300,SPECI,490.0
KGRB 280721Z AUTO 14004KT 7SM BKN025 OVC055 07/05 A2977 RMK AO2 T00670050,KGRB,2018-10-28T07:21:00Z,44.48,-88.13,6.7,5.0,140,4,,7.0,29.769686,,,TRUE,TRUE,,,,,,,BKN,2500,OVC,5500,,,,,MVFR,,,,,,,,,,,,SPECI,208.0
KEPH 280721Z AUTO 35011KT 7SM RA BKN023 BKN028 OVC035 09/08 A2987 RMK AO2 P0003 T00940083,KEPH,2018-10-28T07:21:00Z,47.3,-119.52,9.4,8.3,350,11,,7.0,29.870079,,,TRUE,TRUE,,,,,,RA,BKN,2300,BKN,2800,OVC,3500,,,MVFR,,,,,,0.03,,,,,,SPECI,383.0
KHSP 280721Z AUTO 28019G24KT 10SM OVC004 03/03 A2976 RMK AO2,KHSP,2018-10-28T07:21:00Z,37.95,-79.82,3.0,3.0,280,19,24,10.0,29.760826,,,TRUE,TRUE,,,,,,,OVC,400,,,,,,,LIFR,,,,,,,,,,,,METAR,1156.0
KMPO 280721Z AUTO 27006KT 5SM BR BKN003 BKN009 OVC015 03/03 A2964 RMK AO2 P0001 T00280028 $,KMPO,2018-10-28T07:21:00Z,41.13,-75.38,2.8,2.8,270,6,,5.0,29.639763,,,TRUE,TRUE,TRUE,,,,,BR,BKN,300,BKN,900,OVC,1500,,,LIFR,,,,,,0.01,,,,,,SPECI,577.0
KSYR 280721Z 30003KT 6SM RA BR FEW006 OVC012 02/02 A2969 RMK AO2 P0009 T00220017 $,KSYR,2018-10-28T07:21:00Z,43.12,-76.1,2.2,1.7,300,3,,6.0,29.68996,,,,TRUE,TRUE,,,,,RA BR,FEW,600,OVC,1200,,,,,MVFR,,,,,,0.09,,,,,,SPECI,127.0
KRMG 280721Z AUTO 00000KT 8SM SCT001 07/06 A3007 RMK AO2 T00670056 PWINO $,KRMG,2018-10-28T07:21:00Z,34.35,-85.17,6.7,5.6,0,0,,8.0,30.070866,,,TRUE,TRUE,TRUE,,,,TRUE,,SCT,100,,,,,,,VFR,,,,,,,,,,,,SPECI,193.0
KPEO 280721Z AUTO 00000KT 7SM SCT007 OVC013 04/02 A2968 RMK AO2 T00390022,KPEO,2018-10-28T07:21:00Z,42.65,-77.05,3.9,2.2,0,0,,7.0,29.681103,,,TRUE,TRUE,,,,,,,SCT,700,OVC,1300,,,,,MVFR,,,,,,,,,,,,SPECI,256.0
EFIV 280720Z AUTO 32006KT 260V340 CAVOK M05/M07 Q1021,EFIV,2018-10-28T07:20:00Z,68.62,27.42,-5.0,-7.0,320,6,,6.21,30.147638,,,TRUE,,,,,,,,CAVOK,,,,,,,,VFR,,,,,,,,,,,,METAR,148.0
EFMA 280720Z AUTO 03010KT 9999 FEW040 01/M05 Q1022,EFMA,2018-10-28T07:20:00Z,60.12,19.88,1.0,-5.0,30,10,,6.21,30.177166,,,TRUE,,,,,,,,FEW,4000,,,,,,,VFR,,,,,,,,,,,,METAR,6.0
EFRO 280720Z AUTO 33010KT CAVOK M08/M09 Q1023,EFRO,2018-10-28T07:20:00Z,66.57,25.82,-8.0,-9.0,330,10,,6.21,30.206694,,,TRUE,,,,,,,,CAVOK,,,,,,,,VFR,,,,,,,,,,,,METAR,201.0
EFOU 280720Z AUTO 01005KT 340V040 9999 BKN005/// M05/M05 Q1024,EFOU,2018-10-28T07:20:00Z,64.92,25.37,-5.0,-5.0,10,5,,6.21,30.236221,,,TRUE,,,,,,,,BKN,500,,,,,,,IFR,,,,,,,,,,,,METAR,15.0
EFVA 280720Z AUTO 35006KT CAVOK M05/M07 Q1024,EFVA,2018-10-28T07:20:00Z,63.03,21.77,-5.0,-7.0,350,6,,6.21,30.236221,,,TRUE,,,,,,,,CAVOK,,,,,,,,VFR,,,,,,,,,,,,METAR,4.0
EFTU 280720Z AUTO 01006KT 330V060 CAVOK M01/M04 Q1020,EFTU,2018-10-28T07:20:00Z,60.52,22.27,-1.0,-4.0,10,6,,6.21,30.11811,,,TRUE,,,,,,,,CAVOK,,,,,,,,VFR,,,,,,,,,,,,METAR,59.0
EFTP 280720Z AUTO 03012G25KT 9999 FEW017 M01/M04 Q1021,EFTP,2018-10-28T07:20:00Z,61.42,23.62,-1.0,-4.0,30,12,25,6.21,30.147638,,,TRUE,,,,,,,,FEW,1700,,,,,,,VFR,,,,,,,,,,,,METAR,112.0
EFHK 280720Z 36012KT 9999 FEW020 M00/M04 Q1018 NOSIG,EFHK,2018-10-28T07:20:00Z,60.32,24.97,0.0,-4.0,360,12,,6.21,30.059055,,,,,,TRUE,,,,,FEW,2000,,,,,,,VFR,,,,,,,,,,,,METAR,56.0
ENZV 280720Z VRB03KT CAVOK M04/M06 Q1026 NOSIG,ENZV,2018-10-28T07:20:00Z,58.87,5.62,-4.0,-6.0,0,3,,6.21,30.295275,,,,,,TRUE,,,,,CAVOK,,,,,,,,VFR,,,,,,,,,,,,METAR,9.0
ENVA 280720Z 13009KT 9999 FEW020 M06/M07 Q1030 NOSIG RMK WIND 670FT 16010KT,ENVA,2018-10-28T07:20:00Z,63.47,10.92,-6.0,-7.0,130,9,,6.21,30.413385,,,,,,TRUE,,,,,FEW,2000,,,,,,,VFR,,,,,,,,,,,,METAR,17.0
ENOL 280720Z 13008KT 9999 FEW010 SCT090 M01/M02 Q1029 NOSIG,ENOL,2018-10-28T07:20:00Z,63.7,9.58,-1.0,-2.0,130,8,,6.21,30.383858,,,,,,TRUE,,,,,FEW,1000,SCT,9000,,,,,VFR,,,,,,,,,,,,METAR,7.0
ENGM 280720Z 02008KT 9999 FEW038 M02/M08 Q1026 NOSIG,ENGM,2018-10-28T07:20:00Z,60.2,11.1,-2.0,-8.0,20,8,,6.21,30.295275,,,,,,TRUE,,,,,FEW,3800,,,,,,,VFR,,,,,,,,,,,,METAR,204.0
ENDU 280720Z AUTO 00000KT 9999 NCD M12/M14 Q1026 RMK WIND 1100FT 21008KT WIND 2200FT 20008KT,ENDU,2018-10-28T07:20:00Z,69.03,18.55,-12.0,-14.0,0,0,,6.21,30.295275,,,TRUE,,,,,,,,CLR,,,,,,,,VFR,,,-0.8,,,,,,,,,METAR,79.0
ENBO 280720Z 09015KT 9999 FEW020CB M03/M06 Q1027 NOSIG,ENBO,2018-10-28T07:20:00Z,67.27,14.37,-3.0,-6.0,90,15,,6.21,30.324802,,,,,,TRUE,,,,,FEW,2000,,,,,,,VFR,,,,,,,,,,,,METAR,13.0
ENBR 280720Z VRB02KT CAVOK M01/M08 Q1026 NOSIG RMK WIND 1200FT 13008KT,ENBR,2018-10-28T07:20:00Z,60.28,5.22,-1.0,-8.0,0,2,,6.21,30.295275,,,,,,TRUE,,,,,CAVOK,,,,,,,,VFR,,,,,,,,,,,,METAR,50.0
ENAN 280720Z 00000KT 9999 VCSH FEW012CB SCT049 M02/M04 Q1025,ENAN,2018-10-28T07:20:00Z,69.28,16.13,-2.0,-4.0,0,0,,6.21,30.265747,,,,,,,,,,VCSH,FEW,1200,SCT,4900,,,,,VFR,,,,,,,,,,,,METAR,14.0
MMMD 280720Z RTD 07004KT 7SM SCT030 BKN070 25/21 A3004 RMK 8/530,MMMD,2018-10-28T07:20:00Z,20.95,-89.65,25.0,21.0,70,4,,7.0,30.041338,,,,,,,,,,,SCT,3000,BKN,7000,,,,,VFR,,,,,,,,,,,,METAR,10.0
EYVI 280720Z 30009KT 270V330 9999 OVC015 03/00 Q1012 NOSIG,EYVI,2018-10-28T07:20:00Z,54.63,25.28,3.0,0.0,300,9,,6.21,29.88189,,,,,,TRUE,,,,,OVC,1500,,,,,,,MVFR,,,,,,,,,,,,METAR,197.0
EYPA 280720Z 04005KT CAVOK 03/01 Q1017,EYPA,2018-10-28T07:20:00Z,55.97,21.08,3.0,1.0,40,5,,6.21,30.029528,,,,,,,,,,,CAVOK,,,,,,,,VFR,,,,,,,,,,,,METAR,10.0
ENTO 280720Z 36010KT 9999 SCT033 M01/M07 Q1026,ENTO,2018-10-28T07:20:00Z,59.2,10.27,-1.0,-7.0,360,10,,6.21,30.295275,,,,,,,,,,,SCT,3300,,,,,,,VFR,,,,,,,,,,,,METAR,88.0
ENTC 280720Z 22011KT 9999 FEW010 SCT057 M01/M02 Q1025 RMK WIND 2600FT /////KT,ENTC,2018-10-28T07:20:00Z,69.68,18.92,-1.0,-2.0,220,11,,6.21,30.265747,,,,,,,,,,,FEW,1000,SCT,5700,,,,,VFR,,,,,,,,,,,,METAR,10.0
ENRY 280720Z 36008KT 9999 FEW038 M02/M07 Q1027,ENRY,2018-10-28T07:20:00Z,59.37,10.77,-2.0,-7.0,360,8,,6.21,30.324802,,,,,,,,,,,FEW,3800,,,,,,,VFR,,,,,,,,,,,,METAR,53.0
ENHD 280720Z 10008KT CAVOK 01/M05 Q1026,ENHD,2018-10-28T07:20:00Z,59.35,5.22,1.0,-5.0,100,8,,6.21,30.295275,,,,,,,,,,,CAVOK,,,,,,,,VFR,,,,,,,,,,,,METAR,24.0
ENCN 280720Z 03009KT 9999 FEW030 M00/M07 Q1026,ENCN,2018-10-28T07:20:00Z,58.2,8.07,0.0,-7.0,30,9,,6.21,30.295275,,,,,,,,,,,FEW,3000,,,,,,,VFR,,,,,,,,,,,,METAR,17.0
ENAL 280720Z 11005KT 070V140 CAVOK M00/M03 Q1028,ENAL,2018-10-28T07:20:00Z,62.57,6.12,0.0,-3.0,110,5,,6.21,30.35433,,,,,,,,,,,CAVOK,,,,,,,,VFR,,,,,,,,,,,,METAR,22.0
EYSA 280720Z 34010KT 9999 VCSH BKN010 BKN020CB 03/02 Q1014 GRN NOSIG,EYSA,2018-10-28T07:20:00Z,55.9,23.4,3.0,2.0,340,10,,6.21,29.940945,,,,,,TRUE,,,,VCSH,BKN,1000,BKN,2000,,,,,MVFR,,,,,,,,,,,,METAR,135.0
KTGI 280720Z AUTO 24013KT 10SM BKN015 OVC019 14/12 A2975 RMK AO1,KTGI,2018-10-28T07:20:00Z,37.82,-75.98,14.0,12.0,240,13,,10.0,29.749016,,,TRUE,TRUE,,,,,,,BKN,1500,OVC,1900,,,,,MVFR,,,,,,,,,,,,METAR,2.0
KSQL 280720Z AUTO 28004KT 10SM CLR 17/13 A3008 RMK AO2,KSQL,2018-10-28T07:20:00Z,37.52,-122.25,17.0,13.0,280,4,,10.0,30.079725,,,TRUE,TRUE,,,,,,,CLR,,,,,,,,VFR,,,,,,,,,,,,METAR,1.0
KMNV 280720Z AUTO 00000KT 1/4SM FG BKN045 05/05 A3005 RMK A01,KMNV,2018-10-28T07:20:00Z,35.55,-84.38,5.0,5.0,0,0,,0.25,30.050198,,,TRUE,TRUE,,,,,,FG,BKN,4500,,,,,,,LIFR,,,,,,,,,,,,METAR,314.0
KHSD 280720Z AUTO 20011KT 10SM CLR 18/11 A2997 RMK A01,KHSD,2018-10-28T07:20:00Z,35.6,-97.72,18.0,11.0,200,11,,10.0,29.970472,,,TRUE,TRUE,,,,,,,CLR,,,,,,,,VFR,,,,,,,,,,,,METAR,364.0
KHAF 280720Z AUTO 34007KT 1SM BR OVC003 14/14 A3009 RMK AO2,KHAF,2018-10-28T07:20:00Z,37.52,-122.5,14.0,14.0,340,7,,1.0,30.088583,,,TRUE,TRUE,,,,,,BR,OVC,300,,,,,,,LIFR,,,,,,,,,,,,METAR,21.0
KGOO 280720Z AUTO 12004KT 10SM CLR 17/05 A3012 RMK AO1,KGOO,2018-10-28T07:20:00Z,39.22,-121.0,17.0,5.0,120,4,,10.0,30.121063,,,TRUE,TRUE,,,,,,,CLR,,,,,,,,VFR,,,,,,,,,,,,METAR,962.0
KFYM 280720Z AUTO 00000KT 4SM BR CLR 06/06 A3004 RMK A01,KFYM,2018-10-28T07:20:00Z,35.07,-86.57,6.0,6.0,0,0,,4.0,30.041338,,,TRUE,TRUE,,,,,,BR,CLR,,,,,,,,MVFR,,,,,,,,,,,,METAR,300.0
KEDU 280720Z AUTO 18005KT 10SM CLR 16/13 A3000 RMK AO1,KEDU,2018-10-28T07:20:00Z,38.53,-121.78,16.0,13.0,180,5,,10.0,30.0,,,TRUE,TRUE,,,,,,,CLR,,,,,,,,VFR,,,,,,,,,,,,METAR,21.0
K4I3 280720Z AUTO 28006KT 10SM BKN011 OVC020 05/05 A2986 RMK AO2,K4I3,2018-10-28T07:20:00Z,40.33,-82.53,5.0,5.0,280,6,,10.0,29.861221,,,TRUE,TRUE,,,,,,,BKN,1100,OVC,2000,,,,,MVFR,,,,,,,,,,,,METAR,363.0
CYDL 280720Z AUTO VRB02KT 5/8SM BR BKN002 M05/M05 A2969 RMK VIS VRB 1/4-3 ICG SLP083,CYDL,2018-10-28T07:20:00Z,58.42,-130.02,-5.0,-5.0,0,2,,0.63,29.68996,1008.3,,TRUE,,,,,,,BR,BKN,200,,,,,,,LIFR,,,,,,,,,,,,SPECI,816.0
CYKF 280720Z AUTO 30003KT 3SM -SN OVC007 00/00 A2976 RMK SLP090,CYKF,2018-10-28T07:20:00Z,43.47,-80.38,0.0,0.0,300,3,,3.0,29.760826,1009.0,,TRUE,,,,,,,-SN,OVC,700,,,,,,,IFR,,,,,,,,,,,,SPECI,317.0
EETN 280720Z 03009KT 360V060 9999 -SN FEW015 BKN025 02/M02 Q1016 R08/290195 TEMPO 3000 SNRA,EETN,2018-10-28T07:20:00Z,59.4,24.82,2.0,-2.0,30,9,,6.21,30.0,,,,,,,,,,-SN,FEW,1500,BKN,2500,,,,,MVFR,,,,,,,,,,,,METAR,40.0
PKWA 280720Z AUTO 07006KT 10SM CLR 27/25 A2978 RMK AO2 T02700252,PKWA,2018-10-28T07:20:00Z,8.72,167.72,27.0,25.2,70,6,,10.0,29.778543,,,TRUE,TRUE,,,,,,,CLR,,,,,,,,VFR,,,,,,,,,,,,METAR,8.0
EYKA 280720Z 30005KT 250V350 9999 OVC022 04/01 Q1014,EYKA,2018-10-28T07:20:00Z,54.97,24.08,4.0,1.0,300,5,,6.21,29.940945,,,,,,,,,,,OVC,2200,,,,,,,MVFR,,,,,,,,,,,,METAR,77.0
EKVG 280720Z AUTO 20010KT 9999NDV -SHRA BKN024/// 04/01 Q1027,EKVG,2018-10-28T07:20:00Z,62.07,-7.3,4.0,1.0,200,10,,,30.324802,,,TRUE,,,,,,,-SHRA,BKN,2400,,,,,,,,,,,,,,,,,,,METAR,85.0
EVRA 280720Z 02013KT 9999 SCT018CB BKN023 BKN026 04/01 Q1014 R36/290195 NOSIG,EVRA,2018-10-28T07:20:00Z,56.92,23.97,4.0,1.0,20,13,,6.21,29.940945,,,,,,TRUE,,,,,SCT,1800,BKN,2300,BKN,2600,,,MVFR,,,,,,,,,,,,METAR,10.0
VNKT 280720Z 12004KT 9999 FEW020 24/07 Q1022 NOSIG,VNKT,2018-10-28T07:20:00Z,27.68,85.37,24.0,7.0,120,4,,6.21,30.177166,,,,,,TRUE,,,,,FEW,2000,,,,,,,VFR,,,,,,,,,,,,METAR,1337.0
KEMK 280720Z AUTO 28006KT 10SM 24/17 A3014 RMK A01,KEMK,2018-10-28T07:20:00Z,27.82,-94.32,24.0,17.0,280,6,,10.0,30.138779,,,TRUE,TRUE,,,,,,,,,,,,,,,,,,,,,,,,,,,METAR,26.0
KWBF 280720Z AUTO 00000KT 10SM CLR 24/15 A3014 RMK A01,KWBF,2018-10-28T07:20:00Z,,,24.0,15.0,0,0,,10.0,30.138779,,,TRUE,TRUE,,,,,,,CLR,,,,,,,,VFR,,,,,,,,,,,,METAR,
KCVW 280720Z AUTO 23004KT 10SM CLR 22/20 A3010 RMK A01,KCVW,2018-10-28T07:20:00Z,29.78,-93.3,22.0,20.0,230,4,,10.0,30.100393,,,TRUE,TRUE,,,,,,,CLR,,,,,,,,VFR,,,,,,,,,,,,METAR,1.0
LLBG 280720Z 10010KT CAVOK 24/M01 Q1023 NOSIG,LLBG,2018-10-28T07:20:00Z,32.0,34.88,24.0,-1.0,100,10,,6.21,30.206694,,,,,,TRUE,,,,,CAVOK,,,,,,,,VFR,,,,,,,,,,,,METAR,49.0
KPHD 280720Z AUTO 28006G14KT 10SM OVC011 07/05 A2982 RMK AO2 T00670050,KPHD,2018-10-28T07:20:00Z,40.47,-81.42,6.7,5.0,280,6,14,10.0,29.819881,,,TRUE,TRUE,,,,,,,OVC,1100,,,,,,,MVFR,,,,,,,,,,,,SPECI,272.0
KELN 280720Z AUTO 30003KT 4SM RA BR OVC031 08/06 A2986 RMK AO2 P0004 T00830061 $,KELN,2018-10-28T07:20:00Z,47.03,-120.53,8.3,6.1,300,3,,4.0,29.861221,,,TRUE,TRUE,TRUE,,,,,RA BR,OVC,3100,,,,,,,MVFR,,,,,,0.04,,,,,,SPECI,519.0
KDSV 280720Z AUTO 31005KT 4SM BR OVC006 04/03 A2970 RMK AO2 CIG 005V009 T00390028,KDSV,2018-10-28T07:20:00Z,42.57,-77.72,3.9,2.8,310,5,,4.0,29.698818,,,TRUE,TRUE,,,,,,BR,OVC,600,,,,,,,IFR,,,,,,,,,,,,SPECI,198.0
EVLA 280720Z 00000KT 9999 NSC 04/02 Q1016,EVLA,2018-10-28T07:20:00Z,56.52,21.1,4.0,2.0,0,0,,6.21,30.0,,,,,,,,,,,CLR,,,,,,,,VFR,,,,,,,,,,,,METAR,4.0
EVVA 280720Z AUTO 03005KT CAVOK 04/01 Q1016,EVVA,2018-10-28T07:20:00Z,57.35,21.55,4.0,1.0,30,5,,6.21,30.0,,,TRUE,,,,,,,,CAVOK,,,,,,,,VFR,,,,,,,,,,,,METAR,6.0
KQFX 280720Z AUTO 21002KT 9999 FEW047 BKN065 BKN150 11/09 A2967 RMK A02 TSNO,KQFX,2018-10-28T07:20:00Z,,,11.0,9.0,210,2,,6.21,29.66929,,,TRUE,TRUE,,,TRUE,,,,FEW,4700,BKN,6500,BKN,15000,,,VFR,,,,,,,,,,,,METAR,
KQFW 280720Z AUTO 14002KT 9999 OVC028 08/08 A2971 RMK A02 TSNO,KQFW,2018-10-28T07:20:00Z,,,8.0,8.0,140,2,,6.21,29.71063,,,TRUE,TRUE,,,TRUE,,,,OVC,2800,,,,,,,MVFR,,,,,,,,,,,,METAR,
KQFV 280720Z AUTO 30005G14KT 9999 OVC027 08/05 A2969 RMK A02 TSNO,KQFV,2018-10-28T07:20:00Z,,,8.0,5.0,300,5,14,6.21,29.68996,,,TRUE,TRUE,,,TRUE,,,,OVC,2700,,,,,,,MVFR,,,,,,,,,,,,METAR,
KQFT 280720Z AUTO 15001KT 9999 FEW050 BKN070 BKN110 11/07 A2969 RMK A02 TSNO,KQFT,2018-10-28T07:20:00Z,,,11.0,7.0,150,1,,6.21,29.68996,,,TRUE,TRUE,,,TRUE,,,,FEW,5000,BKN,7000,BKN,11000,,,VFR,,,,,,,,,,,,METAR,
KQFB 280720Z AUTO 24002G13KT 9999 SCT080 18/06 A2980 RMK A02 TSNO,KQFB,2018-10-28T07:20:00Z,,,18.0,6.0,240,2,13,6.21,29.799213,,,TRUE,TRUE,,,TRUE,,,,SCT,8000,,,,,,,VFR,,,,,,,,,,,,METAR,
KQEY 280720Z AUTO 28011G25KT 4800 SHRA OVC028 10/08 A2950 RMK A02 TSNO,KQEY,2018-10-28T07:20:00Z,,,10.0,8.0,280,11,25,2.98,29.500984,,,TRUE,TRUE,,,TRUE,,,SHRA,OVC,2800,,,,,,,IFR,,,,,,,,,,,,METAR,
KQEW 280720Z AUTO 25008G15KT 4800 // OVC046 10/09 A2977 RMK A02 TSNO,KQEW,2018-10-28T07:20:00Z,,,10.0,9.0,250,8,15,2.98,29.769686,,,TRUE,TRUE,,,TRUE,,,,OVC,4600,,,,,,,IFR,,,,,,,,,,,,METAR,
KQEV 280720Z AUTO 24004G13KT 9999 FEW043 BKN110 12/09 A2970 RMK A02 TSNO,KQEV,2018-10-28T07:20:00Z,,,12.0,9.0,240,4,13,6.21,29.698818,,,TRUE,TRUE,,,TRUE,,,,FEW,4300,BKN,11000,,,,,VFR,,,,,,,,,,,,METAR,
KQER 280720Z AUTO 32005G15KT 9999 OVC018 07/04 A2966 RMK A02 TSNO,KQER,2018-10-28T07:20:00Z,,,7.0,4.0,320,5,15,6.21,29.660433,,,TRUE,TRUE,,,TRUE,,,,OVC,1800,,,,,,,MVFR,,,,,,,,,,,,METAR,
KQEN 280720Z AUTO 26004KT 9999 BKN008 04/05 A2961 RMK A02 TSNO,KQEN,2018-10-28T07:20:00Z,,,4.0,5.0,260,4,,6.21,29.610237,,,TRUE,TRUE,,,TRUE,,,,BKN,800,,,,,,,IFR,,,,,,,,,,,,METAR,
KQEL 280720Z AUTO 22003KT 9999 OVC049 10/06 A2975 RMK A02 TSNO,KQEL,2018-10-28T07:20:00Z,,,10.0,6.0,220,3,,6.21,29.749016,,,TRUE,TRUE,,,TRUE,,,,OVC,4900,,,,,,,VFR,,,,,,,,,,,,METAR,
LSZA 280720Z 36005KT 330V040 5000 RA BR FEW004 SCT025 BKN038 10/09 Q0997 NOSIG,LSZA,2018-10-28T07:20:00Z,46.0,8.92,10.0,9.0,360,5,,3.11,29.438976,,,,,,TRUE,,,,RA BR,FEW,400,SCT,2500,BKN,3800,,,MVFR,,,,,,,,,,,,METAR,276.0
LSZB 280720Z 33005KT 280V030 9999 BKN013 03/01 Q1001 NOSIG,LSZB,2018-10-28T07:20:00Z,46.92,7.5,3.0,1.0,330,5,,6.21,29.557087,,,,,,TRUE,,,,,BKN,1300,,,,,,,MVFR,,,,,,,,,,,,METAR,505.0
LSGG 280720Z 03011KT 9999 -RA FEW010 BKN013 04/03 Q1001 TEMPO RA,LSGG,2018-10-28T07:20:00Z,46.25,6.12,4.0,3.0,30,11,,6.21,29.557087,,,,,,,,,,-RA,FEW,1000,BKN,1300,,,,,MVFR,,,,,,,,,,,,METAR,416.0
LSZH 280720Z 05007KT 010V100 5000 -RA FEW006 SCT009 BKN014 03/01 Q1002 TEMPO 4000,LSZH,2018-10-28T07:20:00Z,47.48,8.53,3.0,1.0,50,7,,3.11,29.586615,,,,,,,,,,-RA,FEW,600,SCT,900,BKN,1400,,,MVFR,,,,,,,,,,,,METAR,432.0
LSZL 280720Z AUTO 07007KT 8000NDV +RA FEW031 SCT037 09/08 Q0998 RMK,LSZL,2018-10-28T07:20:00Z,46.17,8.88,9.0,8.0,70,7,,,29.468504,,,TRUE,,,,,,,+RA,FEW,3100,SCT,3700,,,,,,,,,,,,,,,,,METAR,600.0
LSZC 280720Z AUTO 32008KT 260V360 9999 OVC011 04/02 Q1001 REDZ,LSZC,2018-10-28T07:20:00Z,46.97,8.38,4.0,2.0,320,8,,6.21,29.557087,,,TRUE,,,,,,,,OVC,1100,,,,,,,MVFR,,,,,,,,,,,,METAR,450.0
LSZS 280720Z VRB01KT 1400 SN OVC016 00/00 Q1001 R/SNOCLO RMK B,LSZS,2018-10-28T07:20:00Z,46.53,9.88,0.0,0.0,0,1,,0.87,29.557087,,,,,,,,,,SN SN,OVC,1600,,,,,,,LIFR,,,,,,,,,,,,METAR,1706.0
LSZR 280720Z AUTO 04011KT 9999 BKN017 04/02 Q1002,LSZR,2018-10-28T07:20:00Z,47.48,9.57,4.0,2.0,40,11,,6.21,29.586615,,,TRUE,,,,,,,,BKN,1700,,,,,,,MVFR,,,,,,,,,,,,METAR,398.0
LSZG 280720Z 07012KT 9999 -RA BKN017 04/02 Q1002 NOSIG,LSZG,2018-10-28T07:20:00Z,47.17,7.42,4.0,2.0,70,12,,6.21,29.586615,,,,,,TRUE,,,,-RA,BKN,1700,,,,,,,MVFR,,,,,,,,,,,,METAR,430.0
LSGS 280720Z 26003KT 210V290 8000 -RA SCT010 OVC040 06/04 Q0999,LSGS,2018-10-28T07:20:00Z,46.22,7.32,6.0,4.0,260,3,,4.97,29.498032,,,,,,,,,,-RA,SCT,1000,OVC,4000,,,,,MVFR,,,,,,,,,,,,METAR,481.0
LSGC 280720Z 06005KT 030V110 1500 SN VV009 M00/M01 Q1000,LSGC,2018-10-28T07:20:00Z,47.08,6.8,0.0,-1.0,60,5,,0.93,29.52756,,,,,,,,,,SN,OVX,0,,,,,,,LIFR,,,,,,,,,,,900,METAR,1027.0
EKKA 280720Z AUTO 36002KT 9999NDV FEW035/// M03/M03 Q1022,EKKA,2018-10-28T07:20:00Z,56.3,9.12,-3.0,-3.0,360,2,,,30.177166,,,TRUE,,,,,,,,FEW,3500,,,,,,,,,,,,,,,,,,,METAR,52.0
EKSP 280720Z 08001KT 9999 FEW032 M02/M03 Q1021,EKSP,2018-10-28T07:20:00Z,55.22,9.27,-2.0,-3.0,80,1,,6.21,30.147638,,,,,,,,,,,FEW,3200,,,,,,,VFR,,,,,,,,,,,,METAR,40.0
ESNX 280720Z AUTO 30005KT 9999 NCD M09/M10 Q1025,ESNX,2018-10-28T07:20:00Z,65.58,19.28,-9.0,-10.0,300,5,,6.21,30.265747,,,TRUE,,,,,,,,CLR,,,,,,,,VFR,,,,,,,,,,,,METAR,379.0
ENRO 280720Z 33003KT 9999 OVC033 M07/M07 Q1025,ENRO,2018-10-28T07:20:00Z,62.57,11.33,-7.0,-7.0,330,3,,6.21,30.265747,,,,,,,,,,,OVC,3300,,,,,,,VFR,,,,,,,,,,,,METAR,626.0
ESNL 280720Z AUTO 00000KT 9999 NCD M11/M13 Q1027,ESNL,2018-10-28T07:20:00Z,64.55,18.72,-11.0,-13.0,0,0,,6.21,30.324802,,,TRUE,,,,,,,,CLR,,,,,,,,VFR,,,,,,,,,,,,METAR,214.0
ESUT 280720Z AUTO 00000KT 0250 R33/0500N FZFG VV003 M13/M14 Q1026,ESUT,2018-10-28T07:20:00Z,65.8,15.08,-13.0,-14.0,0,0,,0.16,30.295275,,,TRUE,,,,,,,FZFG,OVX,0,,,,,,,LIFR,,,,,,,,,,,300,METAR,463.0
KSLH 280720Z AUTO 00000KT 7SM UP SCT031 BKN039 OVC046 02/02 A2984 RMK AO2,KSLH,2018-10-28T07:20:00Z,45.65,-84.52,2.0,2.0,0,0,,7.0,29.840551,,,TRUE,TRUE,,,,,,UP,SCT,3100,BKN,3900,OVC,4600,,,VFR,,,,,,,,,,,,METAR,195.0
LATI 280720Z 17004KT 9999 FEW070 SCT140 20/14 Q1016 NOSIG,LATI,2018-10-28T07:20:00Z,41.42,19.72,20.0,14.0,170,4,,6.21,30.0,,,,,,TRUE,,,,,FEW,7000,SCT,14000,,,,,VFR,,,,,,,,,,,,METAR,90.0
KHBI 280720Z AUTO 21005KT 10SM CLR 06/06 A2993 RMK AO2 T00630060,KHBI,2018-10-28T07:20:00Z,35.65,-79.9,6.3,6.0,210,5,,10.0,29.929134,,,TRUE,TRUE,,,,,,,CLR,,,,,,,,VFR,,,,,,,,,,,,SPECI,205.0
KELM 280719Z AUTO 23005KT 8SM SCT004 BKN010 OVC024 04/03 A2967 RMK AO2 T00440033,KELM,2018-10-28T07:19:00Z,42.15,-76.9,4.4,3.3,230,5,,8.0,29.66929,,,TRUE,TRUE,,,,,,,SCT,400,BKN,1000,OVC,2400,,,MVFR,,,,,,,,,,,,METAR,302.0
KCEC 280719Z AUTO 24012KT 2 1/2SM RA BR FEW003 SCT009 OVC014 15/14 A3003 RMK AO2 P0013 T01500144 $,KCEC,2018-10-28T07:19:00Z,41.77,-124.22,15.0,14.4,240,12,,2.5,30.029528,,,TRUE,TRUE,TRUE,,,,,RA BR,FEW,300,SCT,900,OVC,1400,,,IFR,,,,,,0.13,,,,,,METAR,17.0
KCRP 280719Z 18004KT 8SM R13/2000V2400FT FEW000 FEW002 17/17 A3013 RMK AO2 VIS W-NW 1 1/2 PFRG FG FEW000 T01670167 $,KCRP,2018-10-28T07:19:00Z,27.77,-97.5,16.7,16.7,180,4,,8.0,30.129921,,,,TRUE,TRUE,,,,,,FEW,0,FEW,200,,,,,VFR,,,,,,,,,,,,METAR,14.0
KAAO 280719Z AUTO 25007KT 10SM CLR 16/09 A2992 RMK AO2 PK WND 32031/0700 WSHFT 0659 T01610094,KAAO,2018-10-28T07:19:00Z,37.75,-97.22,16.1,9.4,250,7,,10.0,29.920275,,,TRUE,TRUE,,,,,,,CLR,,,,,,,,VFR,,,,,,,,,,,,METAR,434.0
KHRL 280719Z AUTO 14003KT 1/4SM FG VV001 15/14 A3012 RMK AO2 T01500144,KHRL,2018-10-28T07:19:00Z,26.23,-97.65,15.0,14.4,140,3,,0.25,30.121063,,,TRUE,TRUE,,,,,,FG,OVX,0,,,,,,,LIFR,,,,,,,,,,,100,METAR,10.0
ETIH 280719Z AUTO 36004KT 5000 FZRA BR OVC007 01/01 A2977 RMK AO2 RAE02SNB02E18FZRAB18 SLP100 $,ETIH,2018-10-28T07:19:00Z,49.22,11.82,1.0,1.0,360,4,,3.11,29.769686,1010.0,,TRUE,TRUE,TRUE,,,,,FZRA BR,OVC,700,,,,,,,IFR,,,,,,,,,,,,SPECI,442.0
KDVP 280719Z AUTO 28016G22KT 10SM CLR 06/03 A2985 RMK AO2 T00600025,KDVP,2018-10-28T07:19:00Z,43.98,-95.78,6.0,2.5,280,16,22,10.0,29.84941,,,TRUE,TRUE,,,,,,,CLR,,,,,,,,VFR,,,,,,,,,,,,METAR,495.0
CYYB 280719Z AUTO 36008G16KT 320V070 2SM -SN OVC035 M01/M03 A2980 RMK VIS VRB 1 1/2-3 SLP108,CYYB,2018-10-28T07:19:00Z,46.35,-79.42,-1.0,-3.0,360,8,16,2.0,29.799213,1010.8,,TRUE,,,,,,,-SN,OVC,3500,,,,,,,IFR,,,,,,,,,,,,SPECI,371.0
CYTE 280719Z AUTO 14012KT 8SM -SN SCT012 OVC024 M04/M05 A3000 RMK SLP164,CYTE,2018-10-28T07:19:00Z,64.22,-76.52,-4.0,-5.0,140,12,,8.0,30.0,1016.4,,TRUE,,,,,,,-SN,SCT,1200,OVC,2400,,,,,MVFR,,,,,,,,,,,,METAR,47.0
CYQA 280719Z AUTO 32004KT 1 1/4SM -SN SCT005 BKN011 BKN016 OVC024 M00/M00 A2976 RMK ICG INTMT SLP090,CYQA,2018-10-28T07:19:00Z,44.97,-79.28,0.0,0.0,320,4,,1.25,29.760826,1009.0,,TRUE,,,,,,,-SN,SCT,500,BKN,1100,BKN,1600,OVC,2400,IFR,,,,,,,,,,,,SPECI,282.0
KTHV 280719Z AUTO 00000KT 10SM -RA BKN019 BKN050 OVC080 07/07 A2972 RMK AO2 P0001 T00720067,KTHV,2018-10-28T07:19:00Z,39.92,-76.88,7.2,6.7,0,0,,10.0,29.719488,,,TRUE,TRUE,,,,,,-RA,BKN,1900,BKN,5000,OVC,8000,,,MVFR,,,,,,0.01,,,,,,METAR,144.0
KHYR 280719Z AUTO 11006KT 4SM RA BR FEW008 BKN011 OVC036 06/06 A2962 RMK AO2 P0005 T00610061,KHYR,2018-10-28T07:19:00Z,46.02,-91.45,6.1,6.1,110,6,,4.0,29.619095,,,TRUE,TRUE,,,,,,RA BR,FEW,800,BKN,1100,OVC,3600,,,MVFR,,,,,,0.05,,,,,,METAR,370.0
KFIG 280719Z AUTO 28003KT 10SM -RA SCT011 SCT027 OVC036 03/02 A2971 RMK AO2 RAB07 P0000 T00330022,KFIG,2018-10-28T07:19:00Z,41.05,-78.42,3.3,2.2,280,3,,10.0,29.71063,,,TRUE,TRUE,,,,,,-RA,SCT,1100,SCT,2700,OVC,3600,,,VFR,,,,,,0.005,,,,,,METAR,462.0
KHUA 280718Z AUTO 00000KT 1 3/8SM BR CLR 06/06 A3005 RMK AO2 VIS 5/8V1 3/8 SLP177,KHUA,2018-10-28T07:18:00Z,34.68,-86.68,6.0,6.0,0,0,,1.38,30.050198,1017.7,,TRUE,TRUE,,,,,,BR,CLR,,,,,,,,IFR,,,,,,,,,,,,METAR,209.0
KVBG 280718Z AUTO 14003KT 3/8SM R30/3000FT FG VV001 12/12 A3002 RMK AO2 SLP168 $,KVBG,2018-10-28T07:18:00Z,34.73,-120.58,12.0,12.0,140,3,,0.38,30.02067,1016.8,,TRUE,TRUE,TRUE,,,,,FG,OVX,0,,,,,,,LIFR,,,,,,,,,,,100,METAR,112.0
KBRD 280718Z AUTO 31012KT 8SM -RA OVC009 09/07 A2957 RMK AO2 RAB01 CIG 006V012 P0001 T00890067,KBRD,2018-10-28T07:18:00Z,46.4,-94.13,8.9,6.7,310,12,,8.0,29.568897,,,TRUE,TRUE,,,,,,-RA,OVC,900,,,,,,,IFR,,,,,,0.01,,,,,,METAR,372.0
KBML 280718Z AUTO 00000KT 5SM -RA BR FEW004 BKN018 OVC024 01/01 A2974 RMK AO2 P0000 T00110006,KBML,2018-10-28T07:18:00Z,44.58,-71.18,1.1,0.6,0,0,,5.0,29.740158,,,TRUE,TRUE,,,,,,-RA BR,FEW,400,BKN,1800,OVC,2400,,,MVFR,,,,,,0.005,,,,,,METAR,345.0
KACY 280718Z 26005KT 10SM SCT013 OVC085 09/08 A2973 RMK AO2 T00890078,KACY,2018-10-28T07:18:00Z,39.45,-74.57,8.9,7.8,260,5,,10.0,29.731298,,,,TRUE,,,,,,,SCT,1300,OVC,8500,,,,,VFR,,,,,,,,,,,,METAR,23.0
KSAW 280718Z AUTO 13005KT 10SM SCT008 BKN016 OVC037 03/02 A2979 RMK AO2 T00290015,KSAW,2018-10-28T07:18:00Z,46.35,-87.4,2.9,1.5,130,5,,10.0,29.790354,,,TRUE,TRUE,,,,,,,SCT,800,BKN,1600,OVC,3700,,,MVFR,,,,,,,,,,,,METAR,372.0
PATA 280718Z AUTO VRB03KT 2SM -SN BR FEW006 OVC022 M02/M03 A2972 RMK AO2 T10221028 TSNO,PATA,2018-10-28T07:18:00Z,65.17,-152.1,-2.2,-2.8,0,3,,2.0,29.719488,,,TRUE,TRUE,,,TRUE,,,-SN BR,FEW,600,OVC,2200,,,,,IFR,,,,,,,,,,,,METAR,67.0
CYXU 280718Z 02003KT 15SM BKN003 OVC015 01/01 A2978 RMK SF5SC3 SLP094,CYXU,2018-10-28T07:18:00Z,43.02,-81.15,1.0,1.0,20,3,,15.0,29.778543,1009.4,,,,,,,,,,BKN,300,OVC,1500,,,,,LIFR,,,,,,,,,,,,SPECI,278.0
CZSJ 280718Z AUTO VRB02KT 3SM BR OVC003 04/04 A2969 RMK SLP069,CZSJ,2018-10-28T07:18:00Z,53.07,-93.35,4.0,4.0,0,2,,3.0,29.68996,1006.9,,TRUE,,,,,,,BR,OVC,300,,,,,,,LIFR,,,,,,,,,,,,SPECI,290.0
KJRB 280718Z AUTO 27007KT 8SM OVC006 08/08 A2969 RMK AO2,KJRB,2018-10-28T07:18:00Z,40.7,-74.02,8.0,8.0,270,7,,8.0,29.68996,,,TRUE,TRUE,,,,,,,OVC,600,,,,,,,IFR,,,,,,,,,,,,METAR,7.0
CYPH 280718Z AUTO 21018G30KT 9SM -SN OVC020 M00/M03 A3013 RMK SLP207,CYPH,2018-10-28T07:18:00Z,58.45,-78.08,0.0,-3.0,210,18,30,9.0,30.129921,1020.7,,TRUE,,,,,,,-SN,OVC,2000,,,,,,,MVFR,,,,,,,,,,,,SPECI,3.0
PFKT 280718Z AUTO 33004KT 3SM -SN BR FEW012 BKN035 OVC048 M05/M06 A3003 RMK AO2 SNB03 P0000 FZRANO,PFKT,2018-10-28T07:18:00Z,65.33,-166.47,-5.0,-6.0,330,4,,3.0,30.029528,,,TRUE,TRUE,,,,TRUE,,-SN BR,FEW,1200,BKN,3500,OVC,4800,,,MVFR,,,,,,0.005,,,,,,SPECI,9.0
PAPH 280718Z AUTO 01018KT 10SM FEW011 BKN017 OVC060 03/01 A2973 RMK AO2 UPE06 P0000,PAPH,2018-10-28T07:18:00Z,56.95,-158.62,3.0,1.0,10,18,,10.0,29.731298,,,TRUE,TRUE,,,,,,,FEW,1100,BKN,1700,OVC,6000,,,MVFR,,,,,,0.005,,,,,,METAR,29.0
CYIN 280718Z AUTO 13013KT 9SM -RA BKN006 OVC015 01/00 A2975 RMK PRESFR SLP096,CYIN,2018-10-28T07:18:00Z,51.27,-121.68,1.0,0.0,130,13,,9.0,29.749016,1009.6,,TRUE,,,,,,,-RA,BKN,600,OVC,1500,,,,,IFR,,,,,,,,,,,,SPECI,1128.0
CYYH 280718Z 06019KT 6SM BR DRSN SKC M15/M17 A2992 RMK FG1 OCNL BLSN SLP137,CYYH,2018-10-28T07:18:00Z,69.53,-93.57,-15.0,-17.0,60,19,,6.0,29.920275,1013.7,,,,,,,,,BR DRSN,SKC,,,,,,,,VFR,,,,,,,,,,,,SPECI,28.0
KTAN 280717Z AUTO VRB04KT 2 1/2SM -RA BR OVC005 09/09 A2964 RMK AO2 P0001 T00940089,KTAN,2018-10-28T07:17:00Z,41.88,-71.02,9.4,8.9,0,4,,2.5,29.639763,,,TRUE,TRUE,,,,,,-RA BR,OVC,500,,,,,,,IFR,,,,,,0.01,,,,,,METAR,7.0
KLSE 280717Z AUTO VRB05KT 7SM -RA BKN022 OVC032 08/06 A2964 RMK AO2 RAB00 P0001 T00830056,KLSE,2018-10-28T07:17:00Z,43.88,-91.25,8.3,5.6,0,5,,7.0,29.639763,,,TRUE,TRUE,,,,,,-RA,BKN,2200,OVC,3200,,,,,MVFR,,,,,,0.01,,,,,,METAR,199.0
KLNS 280717Z AUTO 28004KT 10SM SCT014 OVC075 07/06 A2971 RMK AO2 T00720061,KLNS,2018-10-28T07:17:00Z,40.12,-76.3,7.2,6.1,280,4,,10.0,29.71063,,,TRUE,TRUE,,,,,,,SCT,1400,OVC,7500,,,,,VFR,,,,,,,,,,,,METAR,125.0
KHWV 280717Z AUTO 26006KT 2 1/2SM -RA BR OVC005 10/09 A2967 RMK AO2 RAB0659 P0001 T01000089,KHWV,2018-10-28T07:17:00Z,40.82,-72.87,10.0,8.9,260,6,,2.5,29.66929,,,TRUE,TRUE,,,,,,-RA BR,OVC,500,,,,,,,IFR,,,,,,0.01,,,,,,METAR,21.0
KETH 280717Z AUTO 29013G19KT 10SM CLR 06/03 A2984 RMK AO2,KETH,2018-10-28T07:17:00Z,45.78,-96.55,6.0,3.0,290,13,19,10.0,29.840551,,,TRUE,TRUE,,,,,,,CLR,,,,,,,,VFR,,,,,,,,,,,,METAR,313.0
KCDW 280717Z AUTO 00000KT 4SM BR BKN006 OVC012 07/07 A2969 RMK AO2 T00670067,KCDW,2018-10-28T07:17:00Z,40.88,-74.28,6.7,6.7,0,0,,4.0,29.68996,,,TRUE,TRUE,,,,,,BR,BKN,600,OVC,1200,,,,,IFR,,,,,,,,,,,,METAR,64.0
PANN 280717Z AUTO 30006KT 10SM FEW006 BKN016 OVC026 01/00 A2964 RMK AO2 T00060000 TSNO $,PANN,2018-10-28T07:17:00Z,64.55,-149.08,0.6,0.0,300,6,,10.0,29.639763,,,TRUE,TRUE,TRUE,,TRUE,,,,FEW,600,BKN,1600,OVC,2600,,,MVFR,,,,,,,,,,,,METAR,110.0
KI69 280717Z AUTO 25006KT 10SM SCT060 OVC065 08/07 A2993 RMK AO2 T00770065,KI69,2018-10-28T07:17:00Z,39.08,-84.22,7.7,6.5,250,6,,10.0,29.929134,,,TRUE,TRUE,,,,,,,SCT,6000,OVC,6500,,,,,VFR,,,,,,,,,,,,METAR,255.0
KHAI 280717Z AUTO 00000KT 10SM OVC050 05/04 A2985 RMK AO2 T00530039,KHAI,2018-10-28T07:17:00Z,41.97,-85.6,5.3,3.9,0,0,,10.0,29.84941,,,TRUE,TRUE,,,,,,,OVC,5000,,,,,,,VFR,,,,,,,,,,,,METAR,251.0
KSJX 280717Z AUTO 12004KT 10SM OVC018 04/01 A2984 RMK AO2 T00400013,KSJX,2018-10-28T07:17:00Z,45.7,-85.57,4.0,1.3,120,4,,10.0,29.840551,,,TRUE,TRUE,,,,,,,OVC,1800,,,,,,,MVFR,,,,,,,,,,,,METAR,204.0
KY63 280717Z AUTO 29015G24KT 10SM OVC008 05/05 A2979 RMK AO2 T00500045,KY63,2018-10-28T07:17:00Z,45.98,-96.0,5.0,4.5,290,15,24,10.0,29.790354,,,TRUE,TRUE,,,,,,,OVC,800,,,,,,,IFR,,,,,,,,,,,,METAR,367.0
KPOV 280717Z AUTO 28012G17KT 5SM OVC005 06/05 A2977 RMK AO2 P0001 T00600050 PWINO,KPOV,2018-10-28T07:17:00Z,41.22,-81.25,6.0,5.0,280,12,17,5.0,29.769686,,,TRUE,TRUE,,,,,TRUE,,OVC,500,,,,,,,IFR,,,,,,0.01,,,,,,METAR,365.0
KMQJ 280717Z AUTO 00000KT 1 1/2SM VV007 03/03 A2991 RMK AO1,KMQJ,2018-10-28T07:17:00Z,39.85,-85.9,3.0,3.0,0,0,,1.5,29.911417,,,TRUE,TRUE,,,,,,,OVX,0,,,,,,,LIFR,,,,,,,,,,,700,METAR,263.0
KFFX 280717Z AUTO 13003KT 10SM SCT085 04/02 A2983 RMK AO2 T00440022,KFFX,2018-10-28T07:17:00Z,43.43,-86.0,4.4,2.2,130,3,,10.0,29.828741,,,TRUE,TRUE,,,,,,,SCT,8500,,,,,,,VFR,,,,,,,,,,,,METAR,236.0
KEKQ 280717Z AUTO 36007KT 270V030 3/4SM BR VV004 02/02 A3003 RMK AO2 RVRNO PNO $,KEKQ,2018-10-28T07:17:00Z,36.85,-84.85,2.0,2.0,360,7,,0.75,30.029528,,,TRUE,TRUE,TRUE,,,,,BR,OVX,0,,,,,,,LIFR,,,,,,,,,,,400,METAR,294.0
KDLZ 280717Z AUTO 26003KT 10SM OVC040 06/05 A2987 RMK AO2,KDLZ,2018-10-28T07:17:00Z,40.28,-83.12,6.0,5.0,260,3,,10.0,29.870079,,,TRUE,TRUE,,,,,,,OVC,4000,,,,,,,VFR,,,,,,,,,,,,METAR,289.0
KNY0 280717Z AUTO 00000KT 4SM OVC004 03/03 A2966 RMK AO2,KNY0,2018-10-28T07:17:00Z,42.98,-74.33,3.0,3.0,0,0,,4.0,29.660433,,,TRUE,TRUE,,,,,,,OVC,400,,,,,,,LIFR,,,,,,,,,,,,METAR,271.0
KHZR 280717Z AUTO 00000KT 10SM CLR 12/12 A3011 RMK AO2,KHZR,2018-10-28T07:17:00Z,30.72,-91.48,12.0,12.0,0,0,,10.0,30.109253,,,TRUE,TRUE,,,,,,,CLR,,,,,,,,VFR,,,,,,,,,,,,METAR,12.0
KSFY 280717Z AUTO 17004KT 7SM -RA OVC070 08/07 A2977 RMK AO2 P0001,KSFY,2018-10-28T07:17:00Z,42.05,-90.12,8.0,7.0,170,4,,7.0,29.769686,,,TRUE,TRUE,,,,,,-RA,OVC,7000,,,,,,,VFR,,,,,,0.01,,,,,,METAR,188.0
PASY 280716Z AUTO 08012KT 7SM -RA FEW017 BKN027 BKN039 OVC110 06/02 A3016 RMK AO2 RAB16 CIG 022V030 SLP217 $,PASY,2018-10-28T07:16:00Z,52.72,174.12,6.0,2.0,80,12,,7.0,30.159449,1021.7,,TRUE,TRUE,TRUE,,,,,-RA,FEW,1700,BKN,2700,BKN,3900,OVC,11000,MVFR,,,,,,,,,,,,METAR,31.0
EGUL 280716Z AUTO 05006KT 9999 -RA SCT028 BKN038 BKN065 05/04 A3010 RMK AO2 RAB16 SLP196 $,EGUL,2018-10-28T07:16:00Z,52.42,0.57,5.0,4.0,50,6,,6.21,30.100393,1019.6,,TRUE,TRUE,TRUE,,,,,-RA,SCT,2800,BKN,3800,BKN,6500,,,VFR,,,,,,,,,,,,METAR,10.0
KHUL 280716Z AUTO 04013KT 1 3/4SM -RA BR BKN010 OVC013 01/01 A2995 RMK AO2 P0001 T00110006,KHUL,2018-10-28T07:16:00Z,46.12,-67.8,1.1,0.6,40,13,,1.75,29.949802,,,TRUE,TRUE,,,,,,-RA BR,BKN,1000,OVC,1300,,,,,IFR,,,,,,0.01,,,,,,METAR,150.0
KSMQ 280716Z AUTO 00000KT 10SM OVC009 08/07 A2967 RMK AO2 CIG 006V012 T00780072,KSMQ,2018-10-28T07:16:00Z,40.62,-74.67,7.8,7.2,0,0,,10.0,29.66929,,,TRUE,TRUE,,,,,,,OVC,900,,,,,,,IFR,,,,,,,,,,,,METAR,30.0
KMWM 280716Z AUTO 28017G22KT 10SM CLR 07/03 A2980 RMK AO2,KMWM,2018-10-28T07:16:00Z,43.9,-95.1,7.0,3.0,280,17,22,10.0,29.799213,,,TRUE,TRUE,,,,,,,CLR,,,,,,,,VFR,,,,,,,,,,,,METAR,430.0
KLGB 280716Z AUTO 34005KT 2 1/2SM BR OVC005 17/16 A3000 RMK AO2 T01670156,KLGB,2018-10-28T07:16:00Z,33.82,-118.15,16.7,15.6,340,5,,2.5,30.0,,,TRUE,TRUE,,,,,,BR,OVC,500,,,,,,,IFR,,,,,,,,,,,,METAR,10.0
KCQX 280716Z AUTO 22008G18KT 4SM BR BKN005 BKN010 OVC013 13/13 A2965 RMK AO2 T01280128 $,KCQX,2018-10-28T07:16:00Z,41.68,-70.0,12.8,12.8,220,8,18,4.0,29.648623,,,TRUE,TRUE,TRUE,,,,,BR,BKN,500,BKN,1000,OVC,1300,,,IFR,,,,,,,,,,,,METAR,19.0
CYKZ 280716Z 34003KT 10SM -SN FEW004 OVC012 01/00 A2977 RMK CF1SC7 SLP087,CYKZ,2018-10-28T07:16:00Z,43.87,-79.37,1.0,0.0,340,3,,10.0,29.769686,1008.7,,,,,,,,,-SN,FEW,400,OVC,1200,,,,,MVFR,,,,,,,,,,,,SPECI,198.0
CYUX 280716Z AUTO 34005KT 3/8SM FZFG VV003 M19/M20 A2999 RMK ICG SLP157,CYUX,2018-10-28T07:16:00Z,68.77,-81.25,-19.0,-20.0,340,5,,0.38,29.991142,1015.7,,TRUE,,,,,,,FZFG,OVX,0,,,,,,,LIFR,,,,,,,,,,,300,SPECI,8.0
LEAS 280716Z 20003KT 130V240 7000 VCTS -SHRA FEW015 FEW025CB SCT030TCU BKN035 06/05 Q1009 NOSIG,LEAS,2018-10-28T07:16:00Z,43.53,-6.02,6.0,5.0,200,3,,4.35,29.793306,,,,,,TRUE,,,,VCTS -SHRA,FEW,1500,FEW,2500,SCT,3000,BKN,3500,MVFR,,,,,,,,,,,,SPECI,134.0
KTKC 280716Z AUTO 28011G16KT 10SM CLR 07/04 A2982 RMK AO2 T00700040,KTKC,2018-10-28T07:16:00Z,44.25,-95.62,7.0,4.0,280,11,16,10.0,29.819881,,,TRUE,TRUE,,,,,,,CLR,,,,,,,,VFR,,,,,,,,,,,,METAR,408.0
KROS 280716Z AUTO 18003KT 4SM RA OVC008 07/06 A2955 RMK AO2 P0001 T00680061,KROS,2018-10-28T07:16:00Z,45.7,-92.95,6.8,6.1,180,3,,4.0,29.551182,,,TRUE,TRUE,,,,,,RA,OVC,800,,,,,,,IFR,,,,,,0.01,,,,,,METAR,281.0
KPNM 280716Z AUTO 27015G18KT 10SM OVC015 08/07 A2958 RMK AO2,KPNM,2018-10-28T07:16:00Z,45.57,-93.6,8.0,7.0,270,15,18,10.0,29.58071,,,TRUE,TRUE,,,,,,,OVC,1500,,,,,,,MVFR,,,,,,,,,,,,SPECI,298.0
KMSV 280716Z AUTO 25004KT 2 1/2SM -RA BR BKN002 OVC010 04/04 A2965 RMK AO2 VIS 2V3 RAB12 P0001,KMSV,2018-10-28T07:16:00Z,41.7,-74.78,4.0,4.0,250,4,,2.5,29.648623,,,TRUE,TRUE,,,,,,-RA BR,BKN,200,OVC,1000,,,,,LIFR,,,,,,0.01,,,,,,SPECI,428.0
KLWA 280716Z AUTO 00000KT 10SM OVC050 06/04 A2985 RMK AO2 T00620043,KLWA,2018-10-28T07:16:00Z,42.35,-86.25,6.2,4.3,0,0,,10.0,29.84941,,,TRUE,TRUE,,,,,,,OVC,5000,,,,,,,VFR,,,,,,,,,,,,SPECI,203.0
KJMR 280716Z AUTO 17003KT 4SM RA OVC009 06/06 A2956 RMK AO2,KJMR,2018-10-28T07:16:00Z,45.88,-93.27,6.0,6.0,170,3,,4.0,29.56004,,,TRUE,TRUE,,,,,,RA,OVC,900,,,,,,,IFR,,,,,,,,,,,,SPECI,309.0
KHZL 280716Z AUTO 24003KT 5SM BR OVC003 03/02 A2969 RMK AO2,KHZL,2018-10-28T07:16:00Z,40.98,-76.0,3.0,2.0,240,3,,5.0,29.68996,,,TRUE,TRUE,,,,,,BR,OVC,300,,,,,,,LIFR,,,,,,,,,,,,SPECI,489.0
KGVQ 280716Z AUTO 36005KT 6SM -RA BR OVC005 02/02 A2972 RMK AO2 CIG 003V009 P0000 FZRANO,KGVQ,2018-10-28T07:16:00Z,43.03,-78.17,2.0,2.0,360,5,,6.0,29.719488,,,TRUE,TRUE,,,,TRUE,,-RA BR,OVC,500,,,,,,,IFR,,,,,,0.005,,,,,,SPECI,278.0
KGHW 280716Z AUTO 30019G29KT 10SM BKN015 06/04 A2974 RMK AO2,KGHW,2018-10-28T07:16:00Z,45.63,-95.32,6.0,4.0,300,19,29,10.0,29.740158,,,TRUE,TRUE,,,,,,,BKN,1500,,,,,,,MVFR,,,,,,,,,,,,SPECI,425.0
KDYT 280716Z AUTO 09012KT 4SM DZ OVC039 07/06 A2964 RMK AO2,KDYT,2018-10-28T07:16:00Z,46.72,-92.03,7.0,6.0,90,12,,4.0,29.639763,,,TRUE,TRUE,,,,,,DZ,OVC,3900,,,,,,,MVFR,,,,,,,,,,,,SPECI,186.0
KBLM 280716Z AUTO 24008KT 10SM SCT008 OVC019 08/07 A2970 RMK AO2,KBLM,2018-10-28T07:16:00Z,40.17,-74.12,8.0,7.0,240,8,,10.0,29.698818,,,TRUE,TRUE,,,,,,,SCT,800,OVC,1900,,,,,MVFR,,,,,,,,,,,,SPECI,48.0
KBAX 280716Z AUTO 33003KT 3SM -SN BKN004 OVC011 04/04 A2981 RMK AO2 T00380035,KBAX,2018-10-28T07:16:00Z,43.78,-82.98,3.8,3.5,330,3,,3.0,29.811024,,,TRUE,TRUE,,,,,,-SN,BKN,400,OVC,1100,,,,,LIFR,,,,,,,,,,,,METAR,234.0
K14Y 280716Z AUTO 31022G27KT OVC017 05/03 A2966 RMK AO2 PWINO,K14Y,2018-10-28T07:16:00Z,45.9,-94.87,5.0,3.0,310,22,27,,29.660433,,,TRUE,TRUE,,,,,TRUE,,OVC,1700,,,,,,,,,,,,,,,,,,,SPECI,406.0
PHNG 280716Z 07007KT 020V100 5SM -RA BR SCT015 BKN022 OVC034 26/24 A2999 RMK AO2 RAE08B10 P0001 T02560244 $,PHNG,2018-10-28T07:16:00Z,21.43,-157.77,25.6,24.4,70,7,,5.0,29.991142,,,,TRUE,TRUE,,,,,-RA BR,SCT,1500,BKN,2200,OVC,3400,,,MVFR,,,,,,0.01,,,,,,METAR,3.0
CWLY 280716Z AUTO 00000KT 5/8SM -RA BR BKN008 BKN037 OVC048 07/07 A2981 RMK PRESFR SLP102,CWLY,2018-10-28T07:16:00Z,50.22,-121.58,7.0,7.0,0,0,,0.63,29.811024,1010.2,,TRUE,,,,,,,-RA BR,BKN,800,BKN,3700,OVC,4800,,,LIFR,,,,,,,,,,,,SPECI,229.0
K40B 280716Z AUTO 06009G16KT 350V090 M01/M01 A2995 RMK AO1 SLP162 T10061008 58038,K40B,2018-10-28T07:16:00Z,46.62,-69.52,-0.6,-0.8,60,9,16,,29.949802,1016.2,,TRUE,TRUE,,,,,,,,,,,,,,,,-3.8,,,,,,,,,,,METAR,314.0
KMTV 280716Z AUTO 00000KT 10SM BKN042 BKN110 04/04 A2990 RMK AO2,KMTV,2018-10-28T07:16:00Z,36.63,-80.02,4.0,4.0,0,0,,10.0,29.899607,,,TRUE,TRUE,,,,,,,BKN,4200,BKN,11000,,,,,VFR,,,,,,,,,,,,METAR,287.0
KESN 280716Z AUTO 21003KT 10SM SCT007 OVC055 10/10 A2978 RMK AO2 T01010095,KESN,2018-10-28T07:16:00Z,38.8,-76.07,10.1,9.5,210,3,,10.0,29.778543,,,TRUE,TRUE,,,,,,,SCT,700,OVC,5500,,,,,VFR,,,,,,,,,,,,SPECI,22.0
PASV 280716Z AUTO 33014G20KT 310V010 3SM -SN BR OVC029 M05/M06 A2967 RMK AO2 LTG DSNT NE SLP075,PASV,2018-10-28T07:16:00Z,61.1,-155.57,-5.0,-6.0,330,14,20,3.0,29.66929,1007.5,,TRUE,TRUE,,,,,,-SN BR,OVC,2900,,,,,,,MVFR,,,,,,,,,,,,METAR,484.0
KTWM 280715Z AUTO 08007KT 3SM -RA SCT003 BKN010 OVC013 06/03 A2964 RMK AO2 P0001 P0001,KTWM,2018-10-28T07:15:00Z,47.03,-91.75,6.0,3.0,80,7,,3.0,29.639763,,,TRUE,TRUE,,,,,,-RA,SCT,300,BKN,1000,OVC,1300,,,MVFR,,,,,,0.01,,,,,,SPECI,328.0
KHEG 280715Z AUTO 28003KT 10SM CLR 10/09 A3011 RMK AO2,KHEG,2018-10-28T07:15:00Z,30.28,-81.8,10.0,9.0,280,3,,10.0,30.109253,,,TRUE,TRUE,,,,,,,CLR,,,,,,,,VFR,,,,,,,,,,,,METAR,27.0
KHCO 280715Z AUTO 00000KT 7SM CLR 02/02 A2977 RMK AO2,KHCO,2018-10-28T07:15:00Z,48.75,-96.93,2.0,2.0,0,0,,7.0,29.769686,,,TRUE,TRUE,,,,,,,CLR,,,,,,,,VFR,,,,,,,,,,,,SPECI,250.0
KGYL 280715Z AUTO 27018G26KT 10SM SCT021 OVC026 08/06 A2968 RMK AO2 T00760063,KGYL,2018-10-28T07:15:00Z,44.77,-94.08,7.6,6.3,270,18,26,10.0,29.681103,,,TRUE,TRUE,,,,,,,SCT,2100,OVC,2600,,,,,MVFR,,,,,,,,,,,,SPECI,302.0
KGWR 280715Z AUTO 00000KT 10SM 05/03 A2986 RMK A01,KGWR,2018-10-28T07:15:00Z,46.22,-97.65,5.0,3.0,0,0,,10.0,29.861221,,,TRUE,TRUE,,,,,,,,,,,,,,,,,,,,,,,,,,,SPECI,386.0
KGNT 280715Z AUTO 31005KT 10SM CLR 03/M01 A3035 RMK AO2 T00311012,KGNT,2018-10-28T07:15:00Z,35.17,-107.9,3.1,-1.2,310,5,,10.0,30.351377,,,TRUE,TRUE,,,,,,,CLR,,,,,,,,VFR,,,,,,,,,,,,SPECI,1987.0
KGFL 280715Z AUTO 34005KT 4SM -RA BR OVC023 04/04 A2967 RMK AO2 P0003 T00440039,KGFL,2018-10-28T07:15:00Z,43.33,-73.62,4.4,3.9,340,5,,4.0,29.66929,,,TRUE,TRUE,,,,,,-RA BR,OVC,2300,,,,,,,MVFR,,,,,,0.03,,,,,,SPECI,103.0
KFMM 280715Z AUTO 29006KT 10SM 03/00 A3024 RMK AO2 T00340000,KFMM,2018-10-28T07:15:00Z,40.33,-103.8,3.4,0.0,290,6,,10.0,30.239174,,,TRUE,TRUE,,,,,,,,,,,,,,,,,,,,,,,,,,,SPECI,1393.0
KFKS 280715Z AUTO 13005KT 10SM SCT026 OVC034 05/02 A2982 RMK AO2 T00470018,KFKS,2018-10-28T07:15:00Z,44.63,-86.2,4.7,1.8,130,5,,10.0,29.819881,,,TRUE,TRUE,,,,,,,SCT,2600,OVC,3400,,,,,VFR,,,,,,,,,,,,SPECI,193.0
KFFL 280715Z AUTO 18005KT 10SM OVC075 13/07 A2975 RMK AO2 PWINO,KFFL,2018-10-28T07:15:00Z,41.03,-91.97,13.0,7.0,180,5,,10.0,29.749016,,,TRUE,TRUE,,,,,TRUE,,OVC,7500,,,,,,,VFR,,,,,,,,,,,,SPECI,244.0
KETB 280715Z AUTO 00000KT 7SM SCT041 BKN050 05/05 A2979 RMK AO2,KETB,2018-10-28T07:15:00Z,43.42,-88.13,5.0,5.0,0,0,,7.0,29.790354,,,TRUE,TRUE,,,,,,,SCT,4100,BKN,5000,,,,,VFR,,,,,,,,,,,,SPECI,270.0
KEOK 280715Z AUTO 19008KT 10SM OVC085 13/07 A2978 RMK AO2,KEOK,2018-10-28T07:15:00Z,40.47,-91.42,13.0,7.0,190,8,,10.0,29.778543,,,TRUE,TRUE,,,,,,,OVC,8500,,,,,,,VFR,,,,,,,,,,,,SPECI,205.0
KDWU 280715Z AUTO 16010G16KT 180V130 10SM BKN020 OVC029 08/07 A2994 RMK AO2 WSHFT 0701 PNO $,KDWU,2018-10-28T07:15:00Z,38.55,-82.73,8.0,7.0,160,10,16,10.0,29.940945,,,TRUE,TRUE,TRUE,,,,,,BKN,2000,OVC,2900,,,,,MVFR,,,,,,,,,,,,SPECI,166.0
KDNS 280715Z AUTO 32016G23KT 10SM CLR 10/07 A2990 RMK AO2,KDNS,2018-10-28T07:15:00Z,41.97,-95.37,10.0,7.0,320,16,23,10.0,29.899607,,,TRUE,TRUE,,,,,,,CLR,,,,,,,,VFR,,,,,,,,,,,,SPECI,388.0
KDNA 280715Z AUTO 00000KT 10SM CLR 12/07 A3021 RMK AO2,KDNA,2018-10-28T07:15:00Z,31.88,-106.7,12.0,7.0,0,0,,10.0,30.209646,,,TRUE,TRUE,,,,,,,CLR,,,,,,,,VFR,,,,,,,,,,,,SPECI,1253.0
KDLL 280715Z AUTO 18010KT 10SM -DZ BKN060 OVC070 07/04 A2971 RMK AO2 T00650037,KDLL,2018-10-28T07:15:00Z,43.52,-89.77,6.5,3.7,180,10,,10.0,29.71063,,,TRUE,TRUE,,,,,,-DZ,BKN,6000,OVC,7000,,,,,VFR,,,,,,,,,,,,SPECI,299.0
KDEH 280715Z AUTO 23008G14KT 200V260 9SM BKN010 OVC018 10/10 A2967 RMK AO2,KDEH,2018-10-28T07:15:00Z,43.27,-91.72,10.0,10.0,230,8,14,9.0,29.66929,,,TRUE,TRUE,,,,,,,BKN,1000,OVC,1800,,,,,MVFR,,,,,,,,,,,,SPECI,353.0
KD60 280715Z AUTO 29014KT 10SM CLR 04/M01 A2998 RMK AO2,KD60,2018-10-28T07:15:00Z,48.38,-102.9,4.0,-1.0,290,14,,10.0,29.97933,,,TRUE,TRUE,,,,,,,CLR,,,,,,,,VFR,,,,,,,,,,,,SPECI,693.0
KCWA 280715Z AUTO 11007KT 5SM BR BKN027 OVC033 05/04 A2971 RMK AO2,KCWA,2018-10-28T07:15:00Z,44.78,-89.67,5.0,4.0,110,7,,5.0,29.71063,,,TRUE,TRUE,,,,,,BR,BKN,2700,OVC,3300,,,,,MVFR,,,,,,,,,,,,SPECI,389.0
KCVX 280715Z AUTO 13004KT 10SM BKN032 OVC070 03/01 A2987 RMK AO2 T00320011,KCVX,2018-10-28T07:15:00Z,45.3,-85.27,3.2,1.1,130,4,,10.0,29.870079,,,TRUE,TRUE,,,,,,,BKN,3200,OVC,7000,,,,,VFR,,,,,,,,,,,,SPECI,204.0
KCSQ 280715Z AUTO 33016G21KT 10SM FEW070 SCT080 13/08 A2986 RMK AO2,KCSQ,2018-10-28T07:15:00Z,41.02,-94.37,13.0,8.0,330,16,21,10.0,29.861221,,,TRUE,TRUE,,,,,,,FEW,7000,SCT,8000,,,,,VFR,,,,,,,,,,,,SPECI,394.0
KCPT 280715Z AUTO 21008KT 10SM CLR 18/13 A3006 RMK AO2,KCPT,2018-10-28T07:15:00Z,32.35,-97.43,18.0,13.0,210,8,,10.0,30.059055,,,TRUE,TRUE,,,,,,,CLR,,,,,,,,VFR,,,,,,,,,,,,SPECI,260.0
KCOQ 280715Z AUTO 08006KT 2 1/2SM -RA BKN004 OVC021 06/04 A2961 RMK AO2,KCOQ,2018-10-28T07:15:00Z,46.7,-92.5,6.0,4.0,80,6,,2.5,29.610237,,,TRUE,TRUE,,,,,,-RA,BKN,400,OVC,2100,,,,,LIFR,,,,,,,,,,,,SPECI,390.0
KCNC 280715Z AUTO 30004KT 10SM BKN100 BKN120 13/06 A2979 RMK AO2,KCNC,2018-10-28T07:15:00Z,41.02,-93.37,13.0,6.0,300,4,,10.0,29.790354,,,TRUE,TRUE,,,,,,,BKN,10000,BKN,12000,,,,,VFR,,,,,,,,,,,,SPECI,320.0
KCIN 280715Z AUTO 31019G25KT 10SM CLR 11/09 A2986 RMK AO2,KCIN,2018-10-28T07:15:00Z,42.03,-94.77,11.0,9.0,310,19,25,10.0,29.861221,,,TRUE,TRUE,,,,,,,CLR,,,,,,,,VFR,,,,,,,,,,,,SPECI,375.0
KCFJ 280715Z AUTO 00000KT 7SM CLR 03/03 A2990 RMK AO2 T00290029,KCFJ,2018-10-28T07:15:00Z,39.98,-86.92,2.9,2.9,0,0,,7.0,29.899607,,,TRUE,TRUE,,,,,,,CLR,,,,,,,,VFR,,,,,,,,,,,,SPECI,244.0
KCDN 280715Z AUTO 00000KT 10SM CLR 07/06 A2997 RMK AO2,KCDN,2018-10-28T07:15:00Z,34.28,-80.57,7.0,6.0,0,0,,10.0,29.970472,,,TRUE,TRUE,,,,,,,CLR,,,,,,,,VFR,,,,,,,,,,,,METAR,92.0
KCCY 280715Z AUTO 28018G23KT 10SM OVC026 11/09 A2972 RMK AO2,KCCY,2018-10-28T07:15:00Z,43.07,-92.62,11.0,9.0,280,18,23,10.0,29.719488,,,TRUE,TRUE,,,,,,,OVC,2600,,,,,,,MVFR,,,,,,,,,,,,SPECI,343.0
KCBG 280715Z AUTO 27008KT 10SM OVC016 09/04 A2956 RMK AO2,KCBG,2018-10-28T07:15:00Z,45.57,-93.27,9.0,4.0,270,8,,10.0,29.56004,,,TRUE,TRUE,,,,,,,OVC,1600,,,,,,,MVFR,,,,,,,,,,,,SPECI,287.0
KCBF 280715Z AUTO 33014G21KT 10SM CLR 12/08 A2991 RMK AO2,KCBF,2018-10-28T07:15:00Z,41.27,-95.77,12.0,8.0,330,14,21,10.0,29.911417,,,TRUE,TRUE,,,,,,,CLR,,,,,,,,VFR,,,,,,,,,,,,SPECI,382.0
KCAV 280715Z AUTO 31017G28KT 10SM FEW023 FEW028 FEW036 10/07 A2980 RMK AO2 PWINO,KCAV,2018-10-28T07:15:00Z,42.75,-93.77,10.0,7.0,310,17,28,10.0,29.799213,,,TRUE,TRUE,,,,,TRUE,,FEW,2300,FEW,2800,FEW,3600,,,VFR,,,,,,,,,,,,SPECI,354.0
KC35 280715Z AUTO 17004KT 10SM -RA OVC060 06/05 A2971 RMK AO2 T00640050,KC35,2018-10-28T07:15:00Z,43.53,-89.98,6.4,5.0,170,4,,10.0,29.71063,,,TRUE,TRUE,,,,,,-RA,OVC,6000,,,,,,,VFR,,,,,,,,,,,,SPECI,276.0
KBVU 280715Z AUTO VRB04KT 10SM SCT040 BKN047 BKN060 16/03 A3007 RMK AO2,KBVU,2018-10-28T07:15:00Z,35.95,-114.87,16.0,3.0,0,4,,10.0,30.070866,,,TRUE,TRUE,,,,,,,SCT,4000,BKN,4700,BKN,6000,,,VFR,,,,,,,,,,,,SPECI,671.0
KBUU 280715Z AUTO 00000KT 4SM BR SCT038 05/05 A2980 RMK AO2 T00510045,KBUU,2018-10-28T07:15:00Z,42.68,-88.3,5.1,4.5,0,0,,4.0,29.799213,,,TRUE,TRUE,,,,,,BR,SCT,3800,,,,,,,MVFR,,,,,,,,,,,,SPECI,237.0
KBRY 280715Z AUTO 00000KT 5SM CLR 03/03 A2997 RMK AO1,KBRY,2018-10-28T07:15:00Z,37.82,-85.5,3.0,3.0,0,0,,5.0,29.970472,,,TRUE,TRUE,,,,,,,CLR,,,,,,,,MVFR,,,,,,,,,,,,METAR,204.0
KBKN 280715Z AUTO 22007KT 10SM CLR 15/12 A2996 RMK AO2,KBKN,2018-10-28T07:15:00Z,36.75,-97.35,15.0,12.0,220,7,,10.0,29.958662,,,TRUE,TRUE,,,,,,,CLR,,,,,,,,VFR,,,,,,,,,,,,METAR,314.0
KBDH 280715Z AUTO 30022G29KT 10SM OVC016 07/04 A2977 RMK AO2,KBDH,2018-10-28T07:15:00Z,45.12,-95.13,7.0,4.0,300,22,29,10.0,29.769686,,,TRUE,TRUE,,,,,,,OVC,1600,,,,,,,MVFR,,,,,,,,,,,,SPECI,247.0
KBCK 280715Z AUTO 00000KT 1 3/4SM +RA BKN035 OVC042 07/07 A2965 RMK AO2 P0003 T00650065,KBCK,2018-10-28T07:15:00Z,44.25,-90.85,6.5,6.5,0,0,,1.75,29.648623,,,TRUE,TRUE,,,,,,+RA,BKN,3500,OVC,4200,,,,,IFR,,,,,,0.03,,,,,,SPECI,255.0
KBAC 280715Z AUTO 30013KT 10SM CLR 03/03 A2986 RMK AO2,KBAC,2018-10-28T07:15:00Z,46.93,-98.02,3.0,3.0,300,13,,10.0,29.861221,,,TRUE,TRUE,,,,,,,CLR,,,,,,,,VFR,,,,,,,,,,,,SPECI,427.0
KAXA 280715Z AUTO 31018KT 10SM CLR 09/05 A2981 RMK AO2 PWINO,KAXA,2018-10-28T07:15:00Z,43.07,-94.27,9.0,5.0,310,18,,10.0,29.811024,,,TRUE,TRUE,,,,,TRUE,,CLR,,,,,,,,VFR,,,,,,,,,,,,SPECI,372.0
KAWG 280715Z AUTO 00000KT 10SM OVC070 10/10 A2977 RMK AO2,KAWG,2018-10-28T07:15:00Z,41.27,-91.67,10.0,10.0,0,0,,10.0,29.769686,,,TRUE,TRUE,,,,,,,OVC,7000,,,,,,,VFR,,,,,,,,,,,,SPECI,230.0
KARV 280715Z AUTO 14009KT 10SM OVC014 06/04 A2969 RMK AO2 T00600040,KARV,2018-10-28T07:15:00Z,45.92,-89.72,6.0,4.0,140,9,,10.0,29.68996,,,TRUE,TRUE,,,,,,,OVC,1400,,,,,,,MVFR,,,,,,,,,,,,SPECI,496.0
KAQX 280715Z AUTO 00000KT 10SM CLR 10/10 A3001 RMK AO2 TSNO,KAQX,2018-10-28T07:15:00Z,32.98,-81.27,10.0,10.0,0,0,,10.0,30.008858,,,TRUE,TRUE,,,TRUE,,,,CLR,,,,,,,,VFR,,,,,,,,,,,,METAR,49.0
KAMN 280715Z AUTO 29003KT 10SM OVC013 04/04 A2986 RMK AO2 T00350035,KAMN,2018-10-28T07:15:00Z,43.32,-84.68,3.5,3.5,290,3,,10.0,29.861221,,,TRUE,TRUE,,,,,,,OVC,1300,,,,,,,MVFR,,,,,,,,,,,,SPECI,230.0
KALM 280715Z AUTO 33003KT 10SM CLR 11/04 A3022 RMK AO2,KALM,2018-10-28T07:15:00Z,32.82,-105.97,11.0,4.0,330,3,,10.0,30.221457,,,TRUE,TRUE,,,,,,,CLR,,,,,,,,VFR,,,,,,,,,,,,SPECI,1279.0
KAJZ 280715Z AUTO 36003KT 10SM CLR 07/02 A3028 RMK AO2 T00690021 PWINO,KAJZ,2018-10-28T07:15:00Z,38.78,-108.07,6.9,2.1,360,3,,10.0,30.280512,,,TRUE,TRUE,,,,,TRUE,,CLR,,,,,,,,VFR,,,,,,,,,,,,SPECI,1583.0
KAIO 280715Z AUTO 32013G18KT 10SM CLR 12/09 A2989 RMK AO2,KAIO,2018-10-28T07:15:00Z,41.38,-95.03,12.0,9.0,320,13,18,10.0,29.890747,,,TRUE,TRUE,,,,,,,CLR,,,,,,,,VFR,,,,,,,,,,,,SPECI,360.0
KAIB 280715Z AUTO 12006KT 10SM CLR 07/00 A3032 RMK AO2,KAIB,2018-10-28T07:15:00Z,38.23,-108.57,7.0,0.0,120,6,,10.0,30.318897,,,TRUE,TRUE,,,,,,,CLR,,,,,,,,VFR,,,,,,,,,,,,SPECI,1811.0
KAEG 280715Z AUTO 32004KT 10SM CLR 08/02 A3029 RMK AO2 T00770018,KAEG,2018-10-28T07:15:00Z,35.13,-106.8,7.7,1.8,320,4,,10.0,30.28937,,,TRUE,TRUE,,,,,,,CLR,,,,,,,,VFR,,,,,,,,,,,,SPECI,1779.0
KADU 280715Z AUTO 31012G17KT 10SM CLR 11/08 A2989 RMK AO2,KADU,2018-10-28T07:15:00Z,41.7,-94.92,11.0,8.0,310,12,17,10.0,29.890747,,,TRUE,TRUE,,,,,,,CLR,,,,,,,,VFR,,,,,,,,,,,,SPECI,392.0
KACB 280715Z AUTO 00000KT 10SM OVC031 03/01 A2984 RMK AO2 T00300012,KACB,2018-10-28T07:15:00Z,44.98,-85.2,3.0,1.2,0,0,,10.0,29.840551,,,TRUE,TRUE,,,,,,,OVC,3100,,,,,,,VFR,,,,,,,,,,,,SPECI,190.0
KXNX 280715Z AUTO 00000KT M1/4SM FG OVC002 05/05 A3006 RMK A01,KXNX,2018-10-28T07:15:00Z,,,5.0,5.0,0,0,,0.25,30.059055,,,TRUE,TRUE,,,,,,FG,OVC,200,,,,,,,LIFR,,,,,,,,,,,,METAR,
KXLL 280715Z AUTO 23003KT 10SM OVC005 07/07 A2971 RMK AO2,KXLL,2018-10-28T07:15:00Z,40.57,-75.48,7.0,7.0,230,3,,10.0,29.71063,,,TRUE,TRUE,,,,,,,OVC,500,,,,,,,IFR,,,,,,,,,,,,METAR,122.0
KW43 280715Z AUTO 21010KT 10SM CLR 05/00 A3012 RMK AO2,KW43,2018-10-28T07:15:00Z,44.67,-104.57,5.0,0.0,210,10,,10.0,30.121063,,,TRUE,TRUE,,,,,,,CLR,,,,,,,,VFR,,,,,,,,,,,,METAR,1300.0
KW22 280715Z AUTO 25013KT 6SM -RA BKN009 OVC015 06/06 A2983 RMK AO2,KW22,2018-10-28T07:15:00Z,39.0,-80.27,6.0,6.0,250,13,,6.0,29.828741,,,TRUE,TRUE,,,,,,-RA,BKN,900,OVC,1500,,,,,IFR,,,,,,,,,,,,METAR,499.0
KVYS 280715Z AUTO 21008KT 7SM -RA BKN065 OVC075 09/06 A2983 RMK AO2 T00870063,KVYS,2018-10-28T07:15:00Z,41.35,-89.15,8.7,6.3,210,8,,7.0,29.828741,,,TRUE,TRUE,,,,,,-RA,BKN,6500,OVC,7500,,,,,VFR,,,,,,,,,,,,METAR,199.0
KVKS 280715Z AUTO 00000KT 10SM CLR 16/14 A3008 RMK A01,KVKS,2018-10-28T07:15:00Z,32.23,-90.93,16.0,14.0,0,0,,10.0,30.079725,,,TRUE,TRUE,,,,,,,CLR,,,,,,,,VFR,,,,,,,,,,,,METAR,32.0
KVJI 280715Z AUTO 28006KT 10SM OVC008 06/06 A2996 RMK AO2 T00600059,KVJI,2018-10-28T07:15:00Z,36.67,-82.02,6.0,5.9,280,6,,10.0,29.958662,,,TRUE,TRUE,,,,,,,OVC,800,,,,,,,IFR,,,,,,,,,,,,METAR,631.0
KVDI 280715Z AUTO 00000KT 10SM CLR 10/08 A3007 RMK AO2,KVDI,2018-10-28T07:15:00Z,32.2,-82.37,10.0,8.0,0,0,,10.0,30.070866,,,TRUE,TRUE,,,,,,,CLR,,,,,,,,VFR,,,,,,,,,,,,METAR,84.0
KUXL 280715Z AUTO 17003KT 2 1/2SM BR CLR 16/16 A3011 RMK AO2 T01620159,KUXL,2018-10-28T07:15:00Z,30.13,-93.38,16.2,15.9,170,3,,2.5,30.109253,,,TRUE,TRUE,,,,,,BR,CLR,,,,,,,,IFR,,,,,,,,,,,,METAR,4.0
KUCY 280715Z AUTO 18003KT 10SM CLR 08/07 A2999 RMK A01,KUCY,2018-10-28T07:15:00Z,36.38,-88.98,8.0,7.0,180,3,,10.0,29.991142,,,TRUE,TRUE,,,,,,,CLR,,,,,,,,VFR,,,,,,,,,,,,METAR,104.0
KTXW 280715Z AUTO 00000KT 5SM BR SCT120 17/16 A3013 RMK AO2 T01680160,KTXW,2018-10-28T07:15:00Z,26.18,-97.97,16.8,16.0,0,0,,5.0,30.129921,,,TRUE,TRUE,,,,,,BR,SCT,12000,,,,,,,MVFR,,,,,,,,,,,,METAR,21.0
KTOC 280715Z AUTO 25008KT 10SM CLR 09/05 A2999 RMK AO2 T00930053,KTOC,2018-10-28T07:15:00Z,34.6,-83.3,9.3,5.3,250,8,,10.0,29.991142,,,TRUE,TRUE,,,,,,,CLR,,,,,,,,VFR,,,,,,,,,,,,METAR,304.0
KTIP 280715Z AUTO 16003KT 10SM SCT120 07/05 A2987 RMK AO2 T00660052,KTIP,2018-10-28T07:15:00Z,40.28,-88.15,6.6,5.2,160,3,,10.0,29.870079,,,TRUE,TRUE,,,,,,,SCT,12000,,,,,,,VFR,,,,,,,,,,,,METAR,225.0
KTHA 280715Z AUTO 00000KT 1/2SM FG SCT002 BKN041 BKN049 04/03 A3004 RMK A01,KTHA,2018-10-28T07:15:00Z,35.38,-86.25,4.0,3.0,0,0,,0.5,30.041338,,,TRUE,TRUE,,,,,,FG,SCT,200,BKN,4100,BKN,4900,,,LIFR,,,,,,,,,,,,METAR,331.0
KTCY 280715Z AUTO 00000KT 10SM CLR 16/11 A3003 RMK A01,KTCY,2018-10-28T07:15:00Z,,,16.0,11.0,0,0,,10.0,30.029528,,,TRUE,TRUE,,,,,,,CLR,,,,,,,,VFR,,,,,,,,,,,,METAR,
KTAZ 280715Z AUTO 18009KT 10SM OVC100 10/07 A2987 RMK AO2 T00960072,KTAZ,2018-10-28T07:15:00Z,39.53,-89.33,9.6,7.2,180,9,,10.0,29.870079,,,TRUE,TRUE,,,,,,,OVC,10000,,,,,,,VFR,,,,,,,,,,,,METAR,190.0
KT82 280715Z AUTO 00000KT 10SM CLR 12/10 A3015 RMK AO2 T01150100,KT82,2018-10-28T07:15:00Z,30.25,-98.92,11.5,10.0,0,0,,10.0,30.15059,,,TRUE,TRUE,,,,,,,CLR,,,,,,,,VFR,,,,,,,,,,,,METAR,517.0
KT35 280715Z AUTO 20008KT 10SM CLR 18/15 A3008 RMK AO2 T01840145,KT35,2018-10-28T07:15:00Z,30.88,-96.97,18.4,14.5,200,8,,10.0,30.079725,,,TRUE,TRUE,,,,,,,CLR,,,,,,,,VFR,,,,,,,,,,,,METAR,123.0
KT20 280715Z AUTO 00000KT 10SM CLR 16/15 A3011 RMK AO2 T01570150,KT20,2018-10-28T07:15:00Z,29.52,-97.47,15.7,15.0,0,0,,10.0,30.109253,,,TRUE,TRUE,,,,,,,CLR,,,,,,,,VFR,,,,,,,,,,,,METAR,108.0
KSZY 280715Z AUTO 22004KT 10SM CLR 10/09 A3002 RMK A01,KSZY,2018-10-28T07:15:00Z,,,10.0,9.0,220,4,,10.0,30.02067,,,TRUE,TRUE,,,,,,,CLR,,,,,,,,VFR,,,,,,,,,,,,METAR,
KSYI 280715Z AUTO 00000KT 5SM BR CLR 05/05 A3004 RMK A01,KSYI,2018-10-28T07:15:00Z,35.57,-86.45,5.0,5.0,0,0,,5.0,30.041338,,,TRUE,TRUE,,,,,,BR,CLR,,,,,,,,MVFR,,,,,,,,,,,,METAR,245.0
KSRE 280715Z AUTO 00000KT 10SM CLR 12/09 A2999 RMK AO2,KSRE,2018-10-28T07:15:00Z,35.27,-96.68,12.0,9.0,0,0,,10.0,29.991142,,,TRUE,TRUE,,,,,,,CLR,,,,,,,,VFR,,,,,,,,,,,,METAR,312.0
KSRB 280715Z AUTO 00000KT M1/4SM FG OVC003 03/03 A3002 RMK A01,KSRB,2018-10-28T07:15:00Z,36.05,-85.53,3.0,3.0,0,0,,0.25,30.02067,,,TRUE,TRUE,,,,,,FG,OVC,300,,,,,,,LIFR,,,,,,,,,,,,METAR,313.0
KSNL 280715Z AUTO 21005KT 10SM CLR 13/10 A2998 RMK AO2 T01300097,KSNL,2018-10-28T07:15:00Z,35.35,-96.95,13.0,9.7,210,5,,10.0,29.97933,,,TRUE,TRUE,,,,,,,CLR,,,,,,,,VFR,,,,,,,,,,,,METAR,327.0
KSNH 280715Z AUTO 17003KT 10SM CLR 11/10 A3003 RMK A01,KSNH,2018-10-28T07:15:00Z,35.17,-88.22,11.0,10.0,170,3,,10.0,30.029528,,,TRUE,TRUE,,,,,,,CLR,,,,,,,,VFR,,,,,,,,,,,,METAR,144.0
KSJS 280715Z AUTO 00000KT 10SM -RA SCT010 BKN045 OVC050 08/08 A2995 RMK AO2 T00760076,KSJS,2018-10-28T07:15:00Z,37.75,-82.63,7.6,7.6,0,0,,10.0,29.949802,,,TRUE,TRUE,,,,,,-RA,SCT,1000,BKN,4500,OVC,5000,,,VFR,,,,,,,,,,,,METAR,372.0
KSCX 280715Z AUTO 00000KT 1/2SM FG BKN035 OVC041 04/03 A3001 RMK A01,KSCX,2018-10-28T07:15:00Z,36.45,-84.58,4.0,3.0,0,0,,0.5,30.008858,,,TRUE,TRUE,,,,,,FG,BKN,3500,OVC,4100,,,,,LIFR,,,,,,,,,,,,METAR,471.0
KS39 280715Z AUTO 16004KT 10SM FEW065 SCT070 BKN090 13/07 A2992 RMK AO2,KS39,2018-10-28T07:15:00Z,44.28,-120.9,13.0,7.0,160,4,,10.0,29.920275,,,TRUE,TRUE,,,,,,,FEW,6500,SCT,7000,BKN,9000,,,VFR,,,,,,,,,,,,METAR,991.0
KRZR 280715Z AUTO 00000KT 5SM BR OVC042 06/06 A3003 RMK A01,KRZR,2018-10-28T07:15:00Z,35.22,-84.8,6.0,6.0,0,0,,5.0,30.029528,,,TRUE,TRUE,,,,,,BR,OVC,4200,,,,,,,MVFR,,,,,,,,,,,,METAR,263.0
KRTS 280715Z AUTO 21007G24KT 150V250 10SM CLR 17/M02 A3014 RMK AO2,KRTS,2018-10-28T07:15:00Z,39.67,-119.88,17.0,-2.0,210,7,24,10.0,30.138779,,,TRUE,TRUE,,,,,,,CLR,,,,,,,,VFR,,,,,,,,,,,,METAR,1540.0
KRQO 280715Z AUTO 20009KT 10SM CLR 14/11 A3000 RMK AO2 T01420113,KRQO,2018-10-28T07:15:00Z,35.47,-98.0,14.2,11.3,200,9,,10.0,30.0,,,TRUE,TRUE,,,,,,,CLR,,,,,,,,VFR,,,,,,,,,,,,METAR,432.0
KRNC 280715Z AUTO 00000KT 1/4SM FG SCT001 BKN042 OVC050 04/04 A3004 RMK A01,KRNC,2018-10-28T07:15:00Z,35.7,-85.85,4.0,4.0,0,0,,0.25,30.041338,,,TRUE,TRUE,,,,,,FG,SCT,100,BKN,4200,OVC,5000,,,LIFR,,,,,,,,,,,,METAR,315.0
KRKW 280715Z AUTO 26004KT 10SM SCT035 06/05 A3002 RMK A01,KRKW,2018-10-28T07:15:00Z,35.92,-84.68,6.0,5.0,260,4,,10.0,30.02067,,,TRUE,TRUE,,,,,,,SCT,3500,,,,,,,VFR,,,,,,,,,,,,METAR,508.0
KREG 280715Z AUTO 00000KT 10SM CLR 14/13 A3011 RMK AO2 T01360132,KREG,2018-10-28T07:15:00Z,30.17,-90.93,13.6,13.2,0,0,,10.0,30.109253,,,TRUE,TRUE,,,,,,,CLR,,,,,,,,VFR,,,,,,,,,,,,METAR,4.0
KRBO 280715Z AUTO 19004KT 7SM CLR 17/16 A3013 RMK AO2 T01700163,KRBO,2018-10-28T07:15:00Z,27.78,-97.68,17.0,16.3,190,4,,7.0,30.129921,,,TRUE,TRUE,,,,,,,CLR,,,,,,,,VFR,,,,,,,,,,,,METAR,24.0
KPXE 280715Z AUTO 25003KT 10SM CLR 09/08 A3009 RMK AO2 T00890080,KPXE,2018-10-28T07:15:00Z,32.52,-83.77,8.9,8.0,250,3,,10.0,30.088583,,,TRUE,TRUE,,,,,,,CLR,,,,,,,,VFR,,,,,,,,,,,,METAR,127.0
KPVE 280715Z AUTO 00000KT 6SM BR CLR 07/06 A3002 RMK A01,KPVE,2018-10-28T07:15:00Z,35.65,-88.2,7.0,6.0,0,0,,6.0,30.02067,,,TRUE,TRUE,,,,,,BR,CLR,,,,,,,,VFR,,,,,,,,,,,,METAR,149.0
KPTD 280715Z AUTO 06009G16KT 10SM OVC006 01/M00 A2972 RMK AO2,KPTD,2018-10-28T07:15:00Z,44.68,-74.95,1.0,0.0,60,9,16,10.0,29.719488,,,TRUE,TRUE,,,,,,,OVC,600,,,,,,,IFR,,,,,,,,,,,,METAR,144.0
KPRG 280715Z AUTO 18004KT 10SM CLR 05/04 A2991 RMK AO2 T00500036,KPRG,2018-10-28T07:15:00Z,39.7,-87.67,5.0,3.6,180,4,,10.0,29.911417,,,TRUE,TRUE,,,,,,,CLR,,,,,,,,VFR,,,,,,,,,,,,METAR,199.0
KPPQ 280715Z AUTO 19005KT 10SM SCT100 12/08 A2984 RMK AO2 T01200079,KPPQ,2018-10-28T07:15:00Z,39.63,-90.78,12.0,7.9,190,5,,10.0,29.840551,,,TRUE,TRUE,,,,,,,SCT,10000,,,,,,,VFR,,,,,,,,,,,,METAR,216.0
KPPO 280715Z AUTO 22003KT 10SM BKN050 BKN075 OVC090 06/04 A2987 RMK AO2 T00610044,KPPO,2018-10-28T07:15:00Z,41.57,-86.73,6.1,4.4,220,3,,10.0,29.870079,,,TRUE,TRUE,,,,,,,BKN,5000,BKN,7500,OVC,9000,,,VFR,,,,,,,,,,,,METAR,248.0
KPNT 280715Z AUTO 15006KT 10SM BKN120 08/06 A2984 RMK AO2 T00780062,KPNT,2018-10-28T07:15:00Z,40.92,-88.62,7.8,6.2,150,6,,10.0,29.840551,,,TRUE,TRUE,,,,,,,BKN,12000,,,,,,,VFR,,,,,,,,,,,,METAR,201.0
KPHT 280715Z AUTO 00000KT 10SM CLR 09/08 A3000 RMK A01,KPHT,2018-10-28T07:15:00Z,36.33,-88.38,9.0,8.0,0,0,,10.0,30.0,,,TRUE,TRUE,,,,,,,CLR,,,,,,,,VFR,,,,,,,,,,,,METAR,177.0
KPCW 280715Z AUTO 28011KT 10SM FEW009 OVC016 05/04 A2983 RMK AO2,KPCW,2018-10-28T07:15:00Z,41.52,-82.87,5.0,4.0,280,11,,10.0,29.828741,,,TRUE,TRUE,,,,,,,FEW,900,OVC,1600,,,,,MVFR,,,,,,,,,,,,METAR,178.0
KP08 280715Z AUTO 15003KT 10SM CLR 17/09 A3005 RMK AO2,KP08,2018-10-28T07:15:00Z,32.93,-111.43,17.0,9.0,150,3,,10.0,30.050198,,,TRUE,TRUE,,,,,,,CLR,,,,,,,,VFR,,,,,,,,,,,,METAR,481.0
KOZA 280715Z AUTO 00000KT 11/10 A3017 RMK AO2 PWINO,KOZA,2018-10-28T07:15:00Z,30.73,-101.2,11.0,10.0,0,0,,,30.171259,,,TRUE,TRUE,,,,,TRUE,,,,,,,,,,,,,,,,,,,,,,METAR,726.0
KOYM 280715Z AUTO 00000KT 10SM -SN OVC006 01/01 A2972 RMK AO2 P0001,KOYM,2018-10-28T07:15:00Z,41.42,-78.5,1.0,1.0,0,0,,10.0,29.719488,,,TRUE,TRUE,,,,,,-SN,OVC,600,,,,,,,IFR,,,,,,0.01,,,,,,METAR,590.0
KOXI 280715Z AUTO 19005KT 10SM OVC050 05/03 A2987 RMK AO1,KOXI,2018-10-28T07:15:00Z,41.33,-86.67,5.0,3.0,190,5,,10.0,29.870079,,,TRUE,TRUE,,,,,,,OVC,5000,,,,,,,VFR,,,,,,,,,,,,METAR,209.0
KOWI 280715Z AUTO 32013G23KT 10SM CLR 13/09 A2991 RMK AO2,KOWI,2018-10-28T07:15:00Z,38.53,-95.25,13.0,9.0,320,13,23,10.0,29.911417,,,TRUE,TRUE,,,,,,,CLR,,,,,,,,VFR,,,,,,,,,,,,METAR,292.0
KOUN 280715Z AUTO 18007KT 10SM CLR 14/11 A2998 RMK AO2 T01400106,KOUN,2018-10-28T07:15:00Z,35.25,-97.47,14.0,10.6,180,7,,10.0,29.97933,,,TRUE,TRUE,,,,,,,CLR,,,,,,,,VFR,,,,,,,,,,,,METAR,357.0
KOPN 280715Z AUTO 31004KT 10SM SCT044 09/06 A3009 RMK AO2,KOPN,2018-10-28T07:15:00Z,32.95,-84.27,9.0,6.0,310,4,,10.0,30.088583,,,TRUE,TRUE,,,,,,,SCT,4400,,,,,,,VFR,,,,,,,,,,,,METAR,243.0
KONM 280715Z AUTO 00000KT 10SM CLR 09/04 A3024 RMK AO2 T00890042,KONM,2018-10-28T07:15:00Z,34.02,-106.9,8.9,4.2,0,0,,10.0,30.239174,,,TRUE,TRUE,,,,,,,CLR,,,,,,,,VFR,,,,,,,,,,,,METAR,1410.0
KONL 280715Z AUTO 30007KT 10SM CLR 06/01 A3005 RMK AO2 T00570010,KONL,2018-10-28T07:15:00Z,42.47,-98.67,5.7,1.0,300,7,,10.0,30.050198,,,TRUE,TRUE,,,,,,,CLR,,,,,,,,VFR,,,,,,,,,,,,METAR,619.0
KOMH 280715Z AUTO 00000KT 10SM BKN055 OVC070 08/08 A2976 RMK AO2,KOMH,2018-10-28T07:15:00Z,38.25,-78.05,8.0,8.0,0,0,,10.0,29.760826,,,TRUE,TRUE,,,,,,,BKN,5500,OVC,7000,,,,,VFR,,,,,,,,,,,,METAR,142.0
KOKM 280715Z AUTO 21006KT 10SM CLR 14/10 A2997 RMK AO2 T01370096,KOKM,2018-10-28T07:15:00Z,35.67,-95.95,13.7,9.6,210,6,,10.0,29.970472,,,TRUE,TRUE,,,,,,,CLR,,,,,,,,VFR,,,,,,,,,,,,METAR,220.0
KOGA 280715Z AUTO 00000KT 10SM BKN120 06/04 A3016 RMK AO2 T00600041,KOGA,2018-10-28T07:15:00Z,41.12,-101.77,6.0,4.1,0,0,,10.0,30.159449,,,TRUE,TRUE,,,,,,,BKN,12000,,,,,,,VFR,,,,,,,,,,,,METAR,999.0
KO69 280715Z AUTO 28006KT 10SM CLR 14/14 A3006 RMK A01,KO69,2018-10-28T07:15:00Z,38.25,-122.6,14.0,14.0,280,6,,10.0,30.059055,,,TRUE,TRUE,,,,,,,CLR,,,,,,,,VFR,,,,,,,,,,,,METAR,28.0
KNQA 280715Z AUTO 00000KT 7SM 10/10 A3001 RMK A01,KNQA,2018-10-28T07:15:00Z,35.35,-89.87,10.0,10.0,0,0,,7.0,30.008858,,,TRUE,TRUE,,,,,,,,,,,,,,,,,,,,,,,,,,,METAR,86.0
KN38 280715Z AUTO VRB04KT 8SM OVC005 02/01 A2966 RMK AO2,KN38,2018-10-28T07:15:00Z,41.73,-77.4,2.0,1.0,0,4,,8.0,29.660433,,,TRUE,TRUE,,,,,,,OVC,500,,,,,,,IFR,,,,,,,,,,,,METAR,577.0
KMYZ 280715Z AUTO 34016G22KT 10SM SCT120 13/07 A2996 RMK AO2,KMYZ,2018-10-28T07:15:00Z,39.85,-96.63,13.0,7.0,340,16,22,10.0,29.958662,,,TRUE,TRUE,,,,,,,SCT,12000,,,,,,,VFR,,,,,,,,,,,,METAR,319.0
KMWA 280715Z AUTO 18006KT 10SM CLR 09/07 A2995 RMK AO2 T00850074,KMWA,2018-10-28T07:15:00Z,37.77,-89.02,8.5,7.4,180,6,,10.0,29.949802,,,TRUE,TRUE,,,,,,,CLR,,,,,,,,VFR,,,,,,,,,,,,METAR,144.0
KMRC 280715Z AUTO 00000KT 9SM SCT003 05/05 A3002 RMK A01,KMRC,2018-10-28T07:15:00Z,35.55,-87.18,5.0,5.0,0,0,,9.0,30.02067,,,TRUE,TRUE,,,,,,,SCT,300,,,,,,,VFR,,,,,,,,,,,,METAR,208.0
KMOR 280715Z AUTO 26008KT 10SM OVC050 09/07 A3001 RMK A01,KMOR,2018-10-28T07:15:00Z,36.18,-83.37,9.0,7.0,260,8,,10.0,30.008858,,,TRUE,TRUE,,,,,,,OVC,5000,,,,,,,VFR,,,,,,,,,,,,METAR,400.0
KDUB 280715Z AUTO 00000KT 10SM CLR 00/M01 A3021 RMK AO2,KDUB,2018-10-28T07:15:00Z,43.55,-109.68,0.0,-1.0,0,0,,10.0,30.209646,,,TRUE,TRUE,,,,,,,CLR,,,,,,,,VFR,,,,,,,,,,,,METAR,2224.0
KDTA 280715Z AUTO 15008KT 10SM CLR 08/01 A3017 RMK AO1,KDTA,2018-10-28T07:15:00Z,39.38,-112.5,8.0,1.0,150,8,,10.0,30.171259,,,TRUE,TRUE,,,,,,,CLR,,,,,,,,VFR,,,,,,,,,,,,METAR,1402.0
KDNV 280715Z AUTO 00000KT 10SM CLR 06/05 A2986 RMK AO2 T00550045,KDNV,2018-10-28T07:15:00Z,40.2,-87.6,5.5,4.5,0,0,,10.0,29.861221,,,TRUE,TRUE,,,,,,,CLR,,,,,,,,VFR,,,,,,,,,,,,METAR,212.0
KDKX 280715Z AUTO 25005KT 10SM BKN050 09/07 A3004 RMK A01,KDKX,2018-10-28T07:15:00Z,35.97,-83.87,9.0,7.0,250,5,,10.0,30.041338,,,TRUE,TRUE,,,,,,,BKN,5000,,,,,,,VFR,,,,,,,,,,,,METAR,254.0
KDKR 280715Z AUTO 00000KT 10SM 14/13 A3010 RMK AO2,KDKR,2018-10-28T07:15:00Z,31.3,-95.4,14.0,13.0,0,0,,10.0,30.100393,,,TRUE,TRUE,,,,,,,,,,,,,,,,,,,,,,,,,,,METAR,106.0
KDKB 280715Z AUTO 17009KT 7SM DZ SCT060 SCT075 OVC095 07/05 A2982 RMK AO2 T00650053,KDKB,2018-10-28T07:15:00Z,41.93,-88.7,6.5,5.3,170,9,,7.0,29.819881,,,TRUE,TRUE,,,,,,DZ,SCT,6000,SCT,7500,OVC,9500,,,VFR,,,,,,,,,,,,METAR,279.0
KDCY 280715Z AUTO 21004KT 10SM CLR 05/03 A2994 RMK AO2 T00460033,KDCY,2018-10-28T07:15:00Z,38.7,-87.13,4.6,3.3,210,4,,10.0,29.940945,,,TRUE,TRUE,,,,,,,CLR,,,,,,,,VFR,,,,,,,,,,,,METAR,144.0
KDBN 280715Z AUTO 00000KT 10SM CLR 07/06 A3009 RMK AO2,KDBN,2018-10-28T07:15:00Z,32.57,-82.98,7.0,6.0,0,0,,10.0,30.088583,,,TRUE,TRUE,,,,,,,CLR,,,,,,,,VFR,,,,,,,,,,,,METAR,94.0
KCXW 280715Z AUTO 00000KT 5SM BR FEW055 10/10 A3001 RMK A01,KCXW,2018-10-28T07:15:00Z,35.02,-92.55,10.0,10.0,0,0,,5.0,30.008858,,,TRUE,TRUE,,,,,,BR,FEW,5500,,,,,,,MVFR,,,,,,,,,,,,METAR,84.0
KCXE 280715Z AUTO 25003KT 10SM SCT090 08/08 A2983 RMK AO1 T00760076,KCXE,2018-10-28T07:15:00Z,36.78,-78.5,7.6,7.6,250,3,,10.0,29.828741,,,TRUE,TRUE,,,,,,,SCT,9000,,,,,,,VFR,,,,,,,,,,,,METAR,153.0
KCWF 280715Z 00000KT 3SM CLR 14/14 A3010 RMK AO2 T01440143 PWINO,KCWF,2018-10-28T07:15:00Z,30.22,-93.15,14.4,14.3,0,0,,3.0,30.100393,,,,TRUE,,,,,TRUE,,CLR,,,,,,,,MVFR,,,,,,,,,,,,METAR,4.0
KCVH 280715Z AUTO 00000KT 10SM CLR 15/13 A3007 RMK A01,KCVH,2018-10-28T07:15:00Z,36.9,-121.42,15.0,13.0,0,0,,10.0,30.070866,,,TRUE,TRUE,,,,,,,CLR,,,,,,,,VFR,,,,,,,,,,,,METAR,70.0
KCVC 280715Z AUTO 00000KT 10SM CLR 08/08 A3005 RMK AO2 PNO,KCVC,2018-10-28T07:15:00Z,33.63,-83.85,8.0,8.0,0,0,,10.0,30.050198,,,TRUE,TRUE,,,,,,,CLR,,,,,,,,VFR,,,,,,,,,,,,METAR,247.0
KCVB 280715Z AUTO 00000KT 10SM CLR 16/15 A3014 RMK AO2 T01560146,KCVB,2018-10-28T07:15:00Z,29.35,-98.85,15.6,14.6,0,0,,10.0,30.138779,,,TRUE,TRUE,,,,,,,CLR,,,,,,,,VFR,,,,,,,,,,,,METAR,235.0
KCRX 280715Z AUTO 13003KT 5SM BR CLR 07/06 A3003 RMK AO2,KCRX,2018-10-28T07:15:00Z,34.92,-88.6,7.0,6.0,130,3,,5.0,30.029528,,,TRUE,TRUE,,,,,,BR,CLR,,,,,,,,MVFR,,,,,,,,,,,,METAR,130.0
KCQF 280715Z AUTO 00000KT 10SM CLR 10/10 A3012 RMK AO2,KCQF,2018-10-28T07:15:00Z,30.47,-87.88,10.0,10.0,0,0,,10.0,30.121063,,,TRUE,TRUE,,,,,,,CLR,,,,,,,,VFR,,,,,,,,,,,,METAR,28.0
KCJR 280715Z AUTO 00000KT 10SM -DZ OVC060 10/09 A2976 RMK AO2 T01000090,KCJR,2018-10-28T07:15:00Z,38.53,-77.87,10.0,9.0,0,0,,10.0,29.760826,,,TRUE,TRUE,,,,,,-DZ,OVC,6000,,,,,,,VFR,,,,,,,,,,,,METAR,97.0
KCCB 280715Z AUTO 06005KT 10SM CLR 21/06 A3002 RMK AO2,KCCB,2018-10-28T07:15:00Z,34.12,-117.68,21.0,6.0,60,5,,10.0,30.02067,,,TRUE,TRUE,,,,,,,CLR,,,,,,,,VFR,,,,,,,,,,,,METAR,440.0
KC83 280715Z AUTO 23012G19KT 10SM CLR 17/14 A3003 RMK AO2,KC83,2018-10-28T07:15:00Z,37.83,-121.62,17.0,14.0,230,12,19,10.0,30.029528,,,TRUE,TRUE,,,,,,,CLR,,,,,,,,VFR,,,,,,,,,,,,METAR,24.0
KC75 280715Z AUTO 00000KT 10SM -RA BKN065 OVC080 08/06 A2981 RMK AO2 T00840061,KC75,2018-10-28T07:15:00Z,41.02,-89.38,8.4,6.1,0,0,,10.0,29.811024,,,TRUE,TRUE,,,,,,-RA,BKN,6500,OVC,8000,,,,,VFR,,,,,,,,,,,,METAR,173.0
KC65 280715Z AUTO 00000KT 10SM OVC049 07/07 A2986 RMK A01,KC65,2018-10-28T07:15:00Z,41.37,-86.3,7.0,7.0,0,0,,10.0,29.861221,,,TRUE,TRUE,,,,,,,OVC,4900,,,,,,,VFR,,,,,,,,,,,,METAR,244.0
KC09 280715Z AUTO 16005KT 10SM SCT070 SCT090 SCT120 07/05 A2982 RMK AO2 T00700048,KC09,2018-10-28T07:15:00Z,41.43,-88.42,7.0,4.8,160,5,,10.0,29.819881,,,TRUE,TRUE,,,,,,,SCT,7000,SCT,9000,SCT,12000,,,VFR,,,,,,,,,,,,METAR,178.0
KBPG 280715Z AUTO 16006KT 10SM CLR 14/12 A3014 RMK AO2 T01380120,KBPG,2018-10-28T07:15:00Z,32.22,-101.52,13.8,12.0,160,6,,10.0,30.138779,,,TRUE,TRUE,,,,,,,CLR,,,,,,,,VFR,,,,,,,,,,,,METAR,784.0
KBHC 280715Z AUTO 00000KT 10SM CLR 07/07 A3008 RMK AO2,KBHC,2018-10-28T07:15:00Z,31.72,-82.4,7.0,7.0,0,0,,10.0,30.079725,,,TRUE,TRUE,,,,,,,CLR,,,,,,,,VFR,,,,,,,,,,,,METAR,61.0
KBGF 280715Z AUTO 00000KT 2 1/2SM BR FEW049 06/06 A3005 RMK A01 VIS 1 3/4V3,KBGF,2018-10-28T07:15:00Z,35.18,-86.07,6.0,6.0,0,0,,2.5,30.050198,,,TRUE,TRUE,,,,,,BR,FEW,4900,,,,,,,IFR,,,,,,,,,,,,METAR,299.0
KBDG 280715Z AUTO 01004KT 10SM 07/02 A3035 RMK AO1 T00680018,KBDG,2018-10-28T07:15:00Z,37.58,-109.47,6.8,1.8,10,4,,10.0,30.351377,,,TRUE,TRUE,,,,,,,,,,,,,,,,,,,,,,,,,,,METAR,1788.0
KAYS 280715Z AUTO 27003KT 10SM CLR 10/09 A3009 RMK AO2 T01020087,KAYS,2018-10-28T07:15:00Z,31.25,-82.4,10.2,8.7,270,3,,10.0,30.088583,,,TRUE,TRUE,,,,,,,CLR,,,,,,,,VFR,,,,,,,,,,,,METAR,46.0
KAVK 280715Z AUTO 24009KT 10SM CLR 13/08 A2995 RMK AO2,KAVK,2018-10-28T07:15:00Z,36.77,-98.67,13.0,8.0,240,9,,10.0,29.949802,,,TRUE,TRUE,,,,,,,CLR,,,,,,,,VFR,,,,,,,,,,,,METAR,449.0
KAQR 280715Z AUTO 00000KT 10SM CLR 11/11 A3002 RMK AO2,KAQR,2018-10-28T07:15:00Z,34.4,-96.15,11.0,11.0,0,0,,10.0,30.02067,,,TRUE,TRUE,,,,,,,CLR,,,,,,,,VFR,,,,,,,,,,,,METAR,189.0
KAPY 280715Z AUTO 13003KT 10SM CLR 16/15 A3012 RMK AO2 T01680156,KAPY,2018-10-28T07:15:00Z,26.97,-99.25,16.8,15.6,130,3,,10.0,30.121063,,,TRUE,TRUE,,,,,,,CLR,,,,,,,,VFR,,,,,,,,,,,,METAR,129.0
KAJG 280715Z AUTO 00000KT 10SM CLR 05/04 A2994 RMK AO2 T00470043,KAJG,2018-10-28T07:15:00Z,38.62,-87.73,4.7,4.3,0,0,,10.0,29.940945,,,TRUE,TRUE,,,,,,,CLR,,,,,,,,VFR,,,,,,,,,,,,METAR,131.0
KAFO 280715Z AUTO 17003KT 10SM CLR 01/00 A3023 RMK AO2,KAFO,2018-10-28T07:15:00Z,42.72,-110.95,1.0,0.0,170,3,,10.0,30.230314,,,TRUE,TRUE,,,,,,,CLR,,,,,,,,VFR,,,,,,,,,,,,METAR,1897.0
KADH 280715Z AUTO 22004KT 10SM SCT110 17/11 A3001 RMK AO2,KADH,2018-10-28T07:15:00Z,34.8,-96.67,17.0,11.0,220,4,,10.0,30.008858,,,TRUE,TRUE,,,,,,,SCT,11000,,,,,,,VFR,,,,,,,,,,,,METAR,308.0
KAAA 280715Z AUTO 19003KT 10SM BKN085 BKN110 09/07 A2984 RMK AO2 T00920073,KAAA,2018-10-28T07:15:00Z,40.17,-89.33,9.2,7.3,190,3,,10.0,29.840551,,,TRUE,TRUE,,,,,,,BKN,8500,BKN,11000,,,,,VFR,,,,,,,,,,,,METAR,182.0
KA08 280715Z AUTO 00000KT 10SM CLR 07/06 A3009 RMK AO2 T00740055,KA08,2018-10-28T07:15:00Z,32.52,-87.38,7.4,5.5,0,0,,10.0,30.088583,,,TRUE,TRUE,,,,,,,CLR,,,,,,,,VFR,,,,,,,,,,,,METAR,69.0
K9V9 280715Z AUTO 26005KT 10SM CLR 06/02 A3003 RMK AO2 T00600016,K9V9,2018-10-28T07:15:00Z,43.77,-99.32,6.0,1.6,260,5,,10.0,30.029528,,,TRUE,TRUE,,,,,,,CLR,,,,,,,,VFR,,,,,,,,,,,,METAR,519.0
KHTH 280715Z AUTO 17004KT 10SM CLR 13/M06 A3009 RMK A01,KHTH,2018-10-28T07:15:00Z,,,13.0,-6.0,170,4,,10.0,30.088583,,,TRUE,TRUE,,,,,,,CLR,,,,,,,,VFR,,,,,,,,,,,,METAR,
KHSG 280715Z AUTO 19003KT 10SM SCT100 06/01 A3016 RMK AO2 T00600005,KHSG,2018-10-28T07:15:00Z,43.72,-108.38,6.0,0.5,190,3,,10.0,30.159449,,,TRUE,TRUE,,,,,,,SCT,10000,,,,,,,VFR,,,,,,,,,,,,METAR,1494.0
KHLX 280715Z AUTO 29011G17KT 10SM BKN015 OVC020 05/04 A2987 RMK AO2 T00510035,KHLX,2018-10-28T07:15:00Z,36.77,-80.82,5.1,3.5,290,11,17,10.0,29.870079,,,TRUE,TRUE,,,,,,,BKN,1500,OVC,2000,,,,,MVFR,,,,,,,,,,,,METAR,834.0
KHHW 280715Z AUTO 00000KT 10SM CLR 14/11 A3002 RMK AO2 T01420113,KHHW,2018-10-28T07:15:00Z,34.03,-95.55,14.2,11.3,0,0,,10.0,30.02067,,,TRUE,TRUE,,,,,,,CLR,,,,,,,,VFR,,,,,,,,,,,,METAR,144.0
KHHG 280715Z AUTO 00000KT 10SM OVC050 05/05 A2988 RMK AO2 T00510045,KHHG,2018-10-28T07:15:00Z,40.85,-85.45,5.1,4.5,0,0,,10.0,29.878937,,,TRUE,TRUE,,,,,,,OVC,5000,,,,,,,VFR,,,,,,,,,,,,METAR,246.0
KHDE 280715Z AUTO 34010G15KT 10SM CLR 10/05 A3008 RMK AO2 T01030046,KHDE,2018-10-28T07:15:00Z,40.45,-99.32,10.3,4.6,340,10,15,10.0,30.079725,,,TRUE,TRUE,,,,,,,CLR,,,,,,,,VFR,,,,,,,,,,,,METAR,705.0
KHCR 280715Z AUTO 00000KT 10SM CLR 02/M01 A3023 RMK AO2,KHCR,2018-10-28T07:15:00Z,40.48,-111.43,2.0,-1.0,0,0,,10.0,30.230314,,,TRUE,TRUE,,,,,,,CLR,,,,,,,,VFR,,,,,,,,,,,,METAR,1706.0
KGZS 280715Z AUTO 00000KT M1/4SM FG OVC002 05/05 A3005 RMK A01,KGZS,2018-10-28T07:15:00Z,35.15,-87.05,5.0,5.0,0,0,,0.25,30.050198,,,TRUE,TRUE,,,,,,FG,OVC,200,,,,,,,LIFR,,,,,,,,,,,,METAR,209.0
KGVT 280715Z AUTO 00000KT 5SM BR CLR 16/15 A3003 RMK AO2,KGVT,2018-10-28T07:15:00Z,33.07,-96.07,16.0,15.0,0,0,,5.0,30.029528,,,TRUE,TRUE,,,,,,BR,CLR,,,,,,,,MVFR,,,,,,,,,,,,METAR,163.0
KGNC 280715Z AUTO 24007KT 10SM CLR 12/08 A3017 RMK AO2 T01170078,KGNC,2018-10-28T07:15:00Z,32.68,-102.65,11.7,7.8,240,7,,10.0,30.171259,,,TRUE,TRUE,,,,,,,CLR,,,,,,,,VFR,,,,,,,,,,,,METAR,1010.0
KGKT 280715Z AUTO 23003KT 10SM OVC055 09/07 A3003 RMK A01,KGKT,2018-10-28T07:15:00Z,35.85,-83.53,9.0,7.0,230,3,,10.0,30.029528,,,TRUE,TRUE,,,,,,,OVC,5500,,,,,,,VFR,,,,,,,,,,,,METAR,309.0
KGGP 280715Z AUTO 20003KT 10SM OVC050 05/04 A2990 RMK AO2,KGGP,2018-10-28T07:15:00Z,40.72,-86.37,5.0,4.0,200,3,,10.0,29.899607,,,TRUE,TRUE,,,,,,,OVC,5000,,,,,,,VFR,,,,,,,,,,,,METAR,225.0
KGCY 280715Z AUTO VRB03KT 10SM OVC048 07/07 A3000 RMK A01,KGCY,2018-10-28T07:15:00Z,36.2,-82.82,7.0,7.0,0,3,,10.0,30.0,,,TRUE,TRUE,,,,,,,OVC,4800,,,,,,,VFR,,,,,,,,,,,,METAR,490.0
KGBG 280715Z AUTO 16004KT 10SM BKN085 BKN110 10/08 A2980 RMK AO2 T00980080,KGBG,2018-10-28T07:15:00Z,40.93,-90.43,9.8,8.0,160,4,,10.0,29.799213,,,TRUE,TRUE,,,,,,,BKN,8500,BKN,11000,,,,,VFR,,,,,,,,,,,,METAR,233.0
KFYE 280715Z AUTO 18004KT 10SM CLR 11/11 A3001 RMK A01,KFYE,2018-10-28T07:15:00Z,35.2,-89.38,11.0,11.0,180,4,,10.0,30.008858,,,TRUE,TRUE,,,,,,,CLR,,,,,,,,VFR,,,,,,,,,,,,METAR,133.0
KFWS 280715Z AUTO 20005KT 10SM CLR 17/13 A3005 RMK AO2 T01680133,KFWS,2018-10-28T07:15:00Z,32.57,-97.3,16.8,13.3,200,5,,10.0,30.050198,,,TRUE,TRUE,,,,,,,CLR,,,,,,,,VFR,,,,,,,,,,,,METAR,208.0
KFWC 280715Z AUTO 00000KT 10SM BKN120 08/06 A2993 RMK AO1 T00780061,KFWC,2018-10-28T07:15:00Z,38.38,-88.42,7.8,6.1,0,0,,10.0,29.929134,,,TRUE,TRUE,,,,,,,BKN,12000,,,,,,,VFR,,,,,,,,,,,,METAR,133.0
KFTN 280715Z AUTO 15005KT 10SM CLR 16/15 A3011 RMK A01,KFTN,2018-10-28T07:15:00Z,28.22,-100.02,16.0,15.0,150,5,,10.0,30.109253,,,TRUE,TRUE,,,,,,,CLR,,,,,,,,VFR,,,,,,,,,,,,METAR,236.0
KFOT 280715Z AUTO 15006KT 10SM BKN050 17/13 A3005 RMK AO1,KFOT,2018-10-28T07:15:00Z,40.55,-124.13,17.0,13.0,150,6,,10.0,30.050198,,,TRUE,TRUE,,,,,,,BKN,5000,,,,,,,VFR,,,,,,,,,,,,METAR,120.0
KFKN 280715Z AUTO 24005KT 10SM CLR 10/10 A2982 RMK AO2 T01020099,KFKN,2018-10-28T07:15:00Z,36.7,-76.9,10.2,9.9,240,5,,10.0,29.819881,,,TRUE,TRUE,,,,,,,CLR,,,,,,,,VFR,,,,,,,,,,,,METAR,12.0
KFCH 280715Z AUTO 00000KT 9SM CLR 17/11 A3002 RMK A01,KFCH,2018-10-28T07:15:00Z,36.72,-119.82,17.0,11.0,0,0,,9.0,30.02067,,,TRUE,TRUE,,,,,,,CLR,,,,,,,,VFR,,,,,,,,,,,,METAR,85.0
KEZM 280715Z AUTO 28005KT 10SM CLR 11/09 A3011 RMK AO2 T01050087,KEZM,2018-10-28T07:15:00Z,32.22,-83.13,10.5,8.7,280,5,,10.0,30.109253,,,TRUE,TRUE,,,,,,,CLR,,,,,,,,VFR,,,,,,,,,,,,METAR,93.0
KELK 280715Z AUTO 20005KT 10SM CLR 13/10 A3000 RMK AO2 T01330101,KELK,2018-10-28T07:15:00Z,35.43,-99.4,13.3,10.1,200,5,,10.0,30.0,,,TRUE,TRUE,,,,,,,CLR,,,,,,,,VFR,,,,,,,,,,,,METAR,610.0
KEKS 280715Z AUTO 15008KT 10SM CLR 04/02 A3016 RMK AO2,KEKS,2018-10-28T07:15:00Z,45.27,-111.65,4.0,2.0,150,8,,10.0,30.159449,,,TRUE,TRUE,,,,,,,CLR,,,,,,,,VFR,,,,,,,,,,,,METAR,1641.0
KEHA 280715Z AUTO 02015G19KT 10SM CLR 13/08 A3011 RMK AO2 T01300076,KEHA,2018-10-28T07:15:00Z,37.0,-101.9,13.0,7.6,20,15,19,10.0,30.109253,,,TRUE,TRUE,,,,,,,CLR,,,,,,,,VFR,,,,,,,,,,,,METAR,1099.0
KEFK 280715Z AUTO 00000KT 10SM BKN022 OVC039 02/02 A2970 RMK AO2 T00150015,KEFK,2018-10-28T07:15:00Z,44.88,-72.23,1.5,1.5,0,0,,10.0,29.698818,,,TRUE,TRUE,,,,,,,BKN,2200,OVC,3900,,,,,MVFR,,,,,,,,,,,,METAR,284.0
KEBG 280715Z AUTO 00000KT 3SM BR CLR 17/16 A3013 RMK AO2 T01730161,KEBG,2018-10-28T07:15:00Z,26.45,-98.13,17.3,16.1,0,0,,3.0,30.129921,,,TRUE,TRUE,,,,,,BR,CLR,,,,,,,,MVFR,,,,,,,,,,,,METAR,24.0
KE38 280715Z AUTO 23005KT 10SM CLR 11/06 A3028 RMK AO2 T01130056,KE38,2018-10-28T07:15:00Z,30.38,-103.68,11.3,5.6,230,5,,10.0,30.280512,,,TRUE,TRUE,,,,,,,CLR,,,,,,,,VFR,,,,,,,,,,,,METAR,1376.0
KE16 280715Z AUTO 32007KT 10SM CLR 16/13 A3009 RMK AO2,KE16,2018-10-28T07:15:00Z,37.08,-121.6,16.0,13.0,320,7,,10.0,30.088583,,,TRUE,TRUE,,,,,,,CLR,,,,,,,,VFR,,,,,,,,,,,,METAR,86.0
KDUC 280715Z AUTO 16003KT 10SM CLR 15/12 A3003 RMK AO2 T01460121,KDUC,2018-10-28T07:15:00Z,34.47,-97.97,14.6,12.1,160,3,,10.0,30.029528,,,TRUE,TRUE,,,,,,,CLR,,,,,,,,VFR,,,,,,,,,,,,METAR,339.0
KMMI 280715Z AUTO 00000KT 1/4SM FG OVC002 06/06 A3007 RMK A01,KMMI,2018-10-28T07:15:00Z,35.4,-84.57,6.0,6.0,0,0,,0.25,30.070866,,,TRUE,TRUE,,,,,,FG,OVC,200,,,,,,,LIFR,,,,,,,,,,,,METAR,266.0
KMGR 280715Z AUTO 00000KT 10SM CLR 09/08 A3012 RMK AO2,KMGR,2018-10-28T07:15:00Z,31.08,-83.8,9.0,8.0,0,0,,10.0,30.121063,,,TRUE,TRUE,,,,,,,CLR,,,,,,,,VFR,,,,,,,,,,,,METAR,90.0
KMEV 280715Z AUTO 00000KT 10SM CLR 06/00 A3014 RMK AO2,KMEV,2018-10-28T07:15:00Z,38.98,-119.75,6.0,0.0,0,0,,10.0,30.138779,,,TRUE,TRUE,,,,,,,CLR,,,,,,,,VFR,,,,,,,,,,,,METAR,1439.0
KMDD 280715Z AUTO 20006KT 10SM 17/14 A3013 RMK AO2 T01700138,KMDD,2018-10-28T07:15:00Z,32.03,-102.1,17.0,13.8,200,6,,10.0,30.129921,,,TRUE,TRUE,,,,,,,,,,,,,,,,,,,,,,,,,,,METAR,854.0
KMCC 280715Z AUTO 15008KT 10SM CLR 17/13 A3003 RMK AO2,KMCC,2018-10-28T07:15:00Z,38.67,-121.4,17.0,13.0,150,8,,10.0,30.029528,,,TRUE,TRUE,,,,,,,CLR,,,,,,,,VFR,,,,,,,,,,,,METAR,23.0
KMBT 280715Z AUTO 00000KT 4SM BR FEW003 FEW036 OVC043 06/06 A3003 RMK A01,KMBT,2018-10-28T07:15:00Z,35.88,-86.38,6.0,6.0,0,0,,4.0,30.029528,,,TRUE,TRUE,,,,,,BR,FEW,300,FEW,3600,OVC,4300,,,MVFR,,,,,,,,,,,,METAR,188.0
KM91 280715Z AUTO 18003KT 10SM BKN039 BKN045 BKN050 06/06 A3000 RMK A01,KM91,2018-10-28T07:15:00Z,36.53,-86.92,6.0,6.0,180,3,,10.0,30.0,,,TRUE,TRUE,,,,,,,BKN,3900,BKN,4500,BKN,5000,,,VFR,,,,,,,,,,,,METAR,215.0
KM75 280715Z AUTO 28009KT 10SM CLR M03/M04 A3005 RMK A01,KM75,2018-10-28T07:15:00Z,48.37,-107.92,-3.0,-4.0,280,9,,10.0,30.050198,,,TRUE,TRUE,,,,,,,CLR,,,,,,,,VFR,,,,,,,,,,,,METAR,687.0
KM54 280715Z AUTO 00000KT 4SM BR OVC044 05/05 A3002 RMK A01,KM54,2018-10-28T07:15:00Z,36.18,-86.32,5.0,5.0,0,0,,4.0,30.02067,,,TRUE,TRUE,,,,,,BR,OVC,4400,,,,,,,MVFR,,,,,,,,,,,,METAR,180.0
KM30 280715Z AUTO 00000KT 5SM BR CLR 05/05 A2998 RMK AO2 T00510048,KM30,2018-10-28T07:15:00Z,37.18,-88.75,5.1,4.8,0,0,,5.0,29.97933,,,TRUE,TRUE,,,,,,BR,CLR,,,,,,,,MVFR,,,,,,,,,,,,METAR,117.0
KM04 280715Z AUTO 19004KT 10SM CLR 07/07 A3001 RMK A01,KM04,2018-10-28T07:15:00Z,35.58,-89.58,7.0,7.0,190,4,,10.0,30.008858,,,TRUE,TRUE,,,,,,,CLR,,,,,,,,VFR,,,,,,,,,,,,METAR,85.0
KLVN 280715Z AUTO 28016G23KT 10SM OVC023 09/07 A2963 RMK AO2,KLVN,2018-10-28T07:15:00Z,44.63,-93.23,9.0,7.0,280,16,23,10.0,29.630905,,,TRUE,TRUE,,,,,,,OVC,2300,,,,,,,MVFR,,,,,,,,,,,,METAR,293.0
KLUG 280715Z AUTO 00000KT 2SM BR CLR 03/03 A3003 RMK A01 VIS 1V5,KLUG,2018-10-28T07:15:00Z,35.52,-86.8,3.0,3.0,0,0,,2.0,30.029528,,,TRUE,TRUE,,,,,,BR,CLR,,,,,,,,IFR,,,,,,,,,,,,METAR,219.0
KLUA 280715Z AUTO 20004KT 10SM -RA SCT039 SCT047 OVC060 08/07 A2977 RMK AO2,KLUA,2018-10-28T07:15:00Z,38.67,-78.5,8.0,7.0,200,4,,10.0,29.769686,,,TRUE,TRUE,,,,,,-RA,SCT,3900,SCT,4700,OVC,6000,,,VFR,,,,,,,,,,,,METAR,275.0
KLOM 280715Z AUTO 24003KT 10SM SCT007 OVC016 07/07 A2972 RMK AO1,KLOM,2018-10-28T07:15:00Z,40.13,-75.27,7.0,7.0,240,3,,10.0,29.719488,,,TRUE,TRUE,,,,,,,SCT,700,OVC,1600,,,,,MVFR,,,,,,,,,,,,METAR,92.0
KLNN 280715Z AUTO 00000KT 4SM BKN012 OVC018 07/05 A2977 RMK AO1 P0001 T00660050,KLNN,2018-10-28T07:15:00Z,41.67,-81.37,6.6,5.0,0,0,,4.0,29.769686,,,TRUE,TRUE,,,,,,,BKN,1200,OVC,1800,,,,,MVFR,,,,,,0.01,,,,,,METAR,191.0
KLKU 280715Z AUTO 23005KT 10SM SCT090 SCT120 09/08 A2981 RMK AO2 T00860077,KLKU,2018-10-28T07:15:00Z,38.02,-77.97,8.6,7.7,230,5,,10.0,29.811024,,,TRUE,TRUE,,,,,,,SCT,9000,SCT,12000,,,,,VFR,,,,,,,,,,,,METAR,150.0
KLGC 280715Z AUTO 00000KT 10SM SCT043 SCT050 08/08 A3008 RMK AO2 T00800077,KLGC,2018-10-28T07:15:00Z,33.0,-85.07,8.0,7.7,0,0,,10.0,30.079725,,,TRUE,TRUE,,,,,,,SCT,4300,SCT,5000,,,,,VFR,,,,,,,,,,,,METAR,211.0
KLCQ 280715Z AUTO 31003KT 10SM CLR 10/08 A3011 RMK AO2,KLCQ,2018-10-28T07:15:00Z,30.18,-82.58,10.0,8.0,310,3,,10.0,30.109253,,,TRUE,TRUE,,,,,,,CLR,,,,,,,,VFR,,,,,,,,,,,,METAR,61.0
KLAM 280715Z AUTO 28003KT 10SM CLR 11/M02 A3035 RMK AO2 T01141020,KLAM,2018-10-28T07:15:00Z,35.87,-106.27,11.4,-2.0,280,3,,10.0,30.351377,,,TRUE,TRUE,,,,,,,CLR,,,,,,,,VFR,,,,,,,,,,,,METAR,2179.0
KJZP 280715Z AUTO 36006KT 10SM SCT039 08/07 A3006 RMK AO2 T00780065 PNO,KJZP,2018-10-28T07:15:00Z,34.45,-84.47,7.8,6.5,360,6,,10.0,30.059055,,,TRUE,TRUE,,,,,,,SCT,3900,,,,,,,VFR,,,,,,,,,,,,METAR,468.0
KJYO 280715Z AUTO 23003KT 10SM -RA OVC060 07/07 A2976 RMK AO2,KJYO,2018-10-28T07:15:00Z,39.07,-77.57,7.0,7.0,230,3,,10.0,29.760826,,,TRUE,TRUE,,,,,,-RA,OVC,6000,,,,,,,VFR,,,,,,,,,,,,METAR,119.0
KJWN 280715Z AUTO 00000KT 5SM BR CLR 05/05 A3001 RMK A01,KJWN,2018-10-28T07:15:00Z,36.18,-86.88,5.0,5.0,0,0,,5.0,30.008858,,,TRUE,TRUE,,,,,,BR,CLR,,,,,,,,MVFR,,,,,,,,,,,,METAR,151.0
KJTC 280715Z AUTO 21008KT 10SM CLR 05/M05 A3035 RMK AO2,KJTC,2018-10-28T07:15:00Z,34.13,-109.32,5.0,-5.0,210,8,,10.0,30.351377,,,TRUE,TRUE,,,,,,,CLR,,,,,,,,VFR,,,,,,,,,,,,METAR,2150.0
KJKA 280715Z AUTO 00000KT 10SM CLR 11/11 A3012 RMK AO2 T01050105,KJKA,2018-10-28T07:15:00Z,30.28,-87.67,10.5,10.5,0,0,,10.0,30.121063,,,TRUE,TRUE,,,,,,,CLR,,,,,,,,VFR,,,,,,,,,,,,METAR,5.0
KJGG 280715Z AUTO 26008KT 10SM CLR 11/09 A2979 RMK AO1,KJGG,2018-10-28T07:15:00Z,37.23,-76.72,11.0,9.0,260,8,,10.0,29.790354,,,TRUE,TRUE,,,,,,,CLR,,,,,,,,VFR,,,,,,,,,,,,METAR,15.0
KJFZ 280715Z AUTO 28007KT 10SM OVC007 04/03 A2994 RMK AO2 T00390032,KJFZ,2018-10-28T07:15:00Z,37.07,-81.8,3.9,3.2,280,7,,10.0,29.940945,,,TRUE,TRUE,,,,,,,OVC,700,,,,,,,IFR,,,,,,,,,,,,METAR,809.0
KJAU 280715Z AUTO 00000KT 9SM FEW036 FEW044 06/05 A3005 RMK A01,KJAU,2018-10-28T07:15:00Z,36.33,-84.17,6.0,5.0,0,0,,9.0,30.050198,,,TRUE,TRUE,,,,,,,FEW,3600,FEW,4400,,,,,VFR,,,,,,,,,,,,METAR,360.0
KJAS 280715Z AUTO 00000KT 3/4SM BR VV005 10/10 A3011 RMK AO2 T00990099,KJAS,2018-10-28T07:15:00Z,30.88,-94.03,9.9,9.9,0,0,,0.75,30.109253,,,TRUE,TRUE,,,,,,BR,OVX,0,,,,,,,LIFR,,,,,,,,,,,500,METAR,65.0
KIMM 280715Z AUTO 00000KT 10SM CLR 16/15 A3007 RMK A01,KIMM,2018-10-28T07:15:00Z,26.43,-81.4,16.0,15.0,0,0,,10.0,30.070866,,,TRUE,TRUE,,,,,,,CLR,,,,,,,,VFR,,,,,,,,,,,,METAR,12.0
KIKK 280715Z AUTO 14005KT 10SM CLR 05/04 A2986 RMK AO2 T00480038,KIKK,2018-10-28T07:15:00Z,41.07,-87.85,4.8,3.8,140,5,,10.0,29.861221,,,TRUE,TRUE,,,,,,,CLR,,,,,,,,VFR,,,,,,,,,,,,METAR,192.0
KIJX 280715Z AUTO 18006KT 10SM OVC100 12/08 A2984 RMK AO2 T01160077,KIJX,2018-10-28T07:15:00Z,39.77,-90.25,11.6,7.7,180,6,,10.0,29.840551,,,TRUE,TRUE,,,,,,,OVC,10000,,,,,,,VFR,,,,,,,,,,,,METAR,190.0
KIFP 280715Z AUTO 00000KT 10SM CLR 20/M01 A3000 RMK AO2,KIFP,2018-10-28T07:15:00Z,35.15,-114.57,20.0,-1.0,0,0,,10.0,30.0,,,TRUE,TRUE,,,,,,,CLR,,,,,,,,VFR,,,,,,,,,,,,METAR,212.0
KI63 280715Z AUTO 19004KT 10SM BKN100 10/08 A2982 RMK AO2 T01030076,KI63,2018-10-28T07:15:00Z,39.98,-90.8,10.3,7.6,190,4,,10.0,29.819881,,,TRUE,TRUE,,,,,,,BKN,10000,,,,,,,VFR,,,,,,,,,,,,METAR,223.0
KHZD 280715Z AUTO 00000KT 6SM BR CLR 07/07 A2999 RMK A01,KHZD,2018-10-28T07:15:00Z,36.08,-88.47,7.0,7.0,0,0,,6.0,29.991142,,,TRUE,TRUE,,,,,,BR,CLR,,,,,,,,VFR,,,,,,,,,,,,METAR,151.0
KHTO 280715Z AUTO 23014KT 7SM OVC005 12/11 A2961 RMK AO2 T01170111,KHTO,2018-10-28T07:15:00Z,40.95,-72.25,11.7,11.1,230,14,,7.0,29.610237,,,TRUE,TRUE,,,,,,,OVC,500,,,,,,,IFR,,,,,,,,,,,,METAR,17.0
K9A5 280715Z AUTO 00000KT 3SM BKN001 07/06 A3007 RMK AO2 T00650061,K9A5,2018-10-28T07:15:00Z,34.68,-85.28,6.5,6.1,0,0,,3.0,30.070866,,,TRUE,TRUE,,,,,,,BKN,100,,,,,,,LIFR,,,,,,,,,,,,METAR,237.0
K8A3 280715Z AUTO 23004KT 3/4SM BR OVC002 07/06 A3001 RMK A01,K8A3,2018-10-28T07:15:00Z,36.42,-85.32,7.0,6.0,230,4,,0.75,30.008858,,,TRUE,TRUE,,,,,,BR,OVC,200,,,,,,,LIFR,,,,,,,,,,,,METAR,419.0
K8A0 280715Z AUTO 00000KT 5SM BR CLR 07/07 A3007 RMK AO2,K8A0,2018-10-28T07:15:00Z,34.23,-86.25,7.0,7.0,0,0,,5.0,30.070866,,,TRUE,TRUE,,,,,,BR,CLR,,,,,,,,MVFR,,,,,,,,,,,,METAR,315.0
K6S0 280715Z AUTO 25015KT 10SM CLR 06/M00 A3010 RMK A01,K6S0,2018-10-28T07:15:00Z,45.8,-109.97,6.0,0.0,250,15,,10.0,30.100393,,,TRUE,TRUE,,,,,,,CLR,,,,,,,,VFR,,,,,,,,,,,,METAR,1363.0
K6P9 280715Z AUTO 24007KT 10SM CLR 18/12 A3007 RMK AO2 T01800117,K6P9,2018-10-28T07:15:00Z,32.43,-98.6,18.0,11.7,240,7,,10.0,30.070866,,,TRUE,TRUE,,,,,,,CLR,,,,,,,,VFR,,,,,,,,,,,,METAR,449.0
K6I2 280715Z AUTO 19007KT 10SM CLR 06/05 A2999 RMK AO2,K6I2,2018-10-28T07:15:00Z,37.63,-85.25,6.0,5.0,190,7,,10.0,29.991142,,,TRUE,TRUE,,,,,,,CLR,,,,,,,,VFR,,,,,,,,,,,,METAR,264.0
K6B0 280715Z AUTO 34004KT 10SM RA OVC004 03/02 A2966 RMK AO2 T00250020,K6B0,2018-10-28T07:15:00Z,43.98,-73.1,2.5,2.0,340,4,,10.0,29.660433,,,TRUE,TRUE,,,,,,RA,OVC,400,,,,,,,LIFR,,,,,,,,,,,,METAR,149.0
K6A1 280715Z AUTO 26004KT 10SM 10/08 A3009 RMK AO2 T01010080,K6A1,2018-10-28T07:15:00Z,32.57,-84.25,10.1,8.0,260,4,,10.0,30.088583,,,TRUE,TRUE,,,,,,,,,,,,,,,,,,,,,,,,,,,METAR,203.0
K66R 280715Z AUTO 22005KT 10SM CLR 17/15 A3012 RMK AO2 T01660148,K66R,2018-10-28T07:15:00Z,29.65,-96.52,16.6,14.8,220,5,,10.0,30.121063,,,TRUE,TRUE,,,,,,,CLR,,,,,,,,VFR,,,,,,,,,,,,METAR,74.0
K65S 280715Z AUTO 00000KT 10SM FEW065 BKN075 OVC100 04/03 A3000 RMK AO2,K65S,2018-10-28T07:15:00Z,48.73,-116.3,4.0,3.0,0,0,,10.0,30.0,,,TRUE,TRUE,,,,,,,FEW,6500,BKN,7500,OVC,10000,,,VFR,,,,,,,,,,,,METAR,713.0
K5T9 280715Z AUTO 17004KT 10SM CLR 12/10 A3011 RMK A01,K5T9,2018-10-28T07:15:00Z,28.85,-100.52,12.0,10.0,170,4,,10.0,30.109253,,,TRUE,TRUE,,,,,,,CLR,,,,,,,,VFR,,,,,,,,,,,,METAR,270.0
K5C1 280715Z AUTO 21005KT 10SM CLR 17/13 A3015 RMK AO1,K5C1,2018-10-28T07:15:00Z,29.72,-98.7,17.0,13.0,210,5,,10.0,30.15059,,,TRUE,TRUE,,,,,,,CLR,,,,,,,,VFR,,,,,,,,,,,,METAR,423.0
K5A6 280715Z AUTO 00000KT 7SM CLR 09/09 A3007 RMK AO2 T00850085,K5A6,2018-10-28T07:15:00Z,33.47,-89.73,8.5,8.5,0,0,,7.0,30.070866,,,TRUE,TRUE,,,,,,,CLR,,,,,,,,VFR,,,,,,,,,,,,METAR,111.0
K54A 280715Z AUTO 00000KT 10SM BKN040 17/16 A3007 RMK AO2,K54A,2018-10-28T07:15:00Z,26.85,-82.25,17.0,16.0,0,0,,10.0,30.070866,,,TRUE,TRUE,,,,,,,BKN,4000,,,,,,,VFR,,,,,,,,,,,,METAR,14.0
K4A9 280715Z AUTO 00000KT 1/4SM FG OVC002 06/ A3007 RMK AO2 T0057////,K4A9,2018-10-28T07:15:00Z,34.47,-85.72,5.7,,0,0,,0.25,30.070866,,,TRUE,TRUE,,,,,,FG,OVC,200,,,,,,,LIFR,,,,,,,,,,,,METAR,267.0
K49A 280715Z AUTO 00000KT 10SM SCT039 08/06 A3007 RMK AO2 T00750061,K49A,2018-10-28T07:15:00Z,34.63,-84.53,7.5,6.1,0,0,,10.0,30.070866,,,TRUE,TRUE,,,,,,,SCT,3900,,,,,,,VFR,,,,,,,,,,,,METAR,453.0
K40J 280715Z AUTO 00000KT 10SM CLR 11/09 A3013 RMK AO2 T01050094,K40J,2018-10-28T07:15:00Z,30.07,-83.57,10.5,9.4,0,0,,10.0,30.129921,,,TRUE,TRUE,,,,,,,CLR,,,,,,,,VFR,,,,,,,,,,,,METAR,13.0
K3S8 280715Z AUTO 14004KT 10SM SCT028 BKN037 OVC095 15/13 A2999 RMK AO2,K3S8,2018-10-28T07:15:00Z,42.5,-123.4,15.0,13.0,140,4,,10.0,29.991142,,,TRUE,TRUE,,,,,,,SCT,2800,BKN,3700,OVC,9500,,,VFR,,,,,,,,,,,,METAR,343.0
K3L4 280715Z AUTO 22006KT 10SM CLR 19/18 A3011 RMK A01,K3L4,2018-10-28T07:15:00Z,29.8,-92.8,19.0,18.0,220,6,,10.0,30.109253,,,TRUE,TRUE,,,,,,,CLR,,,,,,,,VFR,,,,,,,,,,,,METAR,2.0
K3F3 280715Z AUTO 20004KT 10SM CLR 17/16 A3010 RMK AO2 T01730161,K3F3,2018-10-28T07:15:00Z,32.07,-93.77,17.3,16.1,200,4,,10.0,30.100393,,,TRUE,TRUE,,,,,,,CLR,,,,,,,,VFR,,,,,,,,,,,,METAR,96.0
K3AU 280715Z AUTO 28007G15KT 10SM CLR 12/09 A2994 RMK AO2,K3AU,2018-10-28T07:15:00Z,37.67,-97.08,12.0,9.0,280,7,15,10.0,29.940945,,,TRUE,TRUE,,,,,,,CLR,,,,,,,,VFR,,,,,,,,,,,,METAR,405.0
K33N 280715Z AUTO 00000KT 10SM BKN060 OVC070 08/08 A2974 RMK A01,K33N,2018-10-28T07:15:00Z,,,8.0,8.0,0,0,,10.0,29.740158,,,TRUE,TRUE,,,,,,,BKN,6000,OVC,7000,,,,,VFR,,,,,,,,,,,,METAR,
K2M2 280715Z AUTO 00000KT 10SM SCT050 05/04 A3004 RMK A01,K2M2,2018-10-28T07:15:00Z,35.23,-87.25,5.0,4.0,0,0,,10.0,30.041338,,,TRUE,TRUE,,,,,,,SCT,5000,,,,,,,VFR,,,,,,,,,,,,METAR,286.0
K2LS 280715Z AUTO 00000KT 10SM CLR 17/16 A3014 RMK AO2,K2LS,2018-10-28T07:15:00Z,29.42,-90.3,17.0,16.0,0,0,,10.0,30.138779,,,TRUE,TRUE,,,,,,,CLR,,,,,,,,VFR,,,,,,,,,,,,METAR,-2.0
K2A0 280715Z AUTO 00000KT 9SM CLR 07/06 A3004 RMK A01,K2A0,2018-10-28T07:15:00Z,35.48,-84.93,7.0,6.0,0,0,,9.0,30.041338,,,TRUE,TRUE,,,,,,,CLR,,,,,,,,VFR,,,,,,,,,,,,METAR,219.0
K21D 280715Z AUTO 27014G21KT 10SM OVC013 09/08 A2960 RMK AO2,K21D,2018-10-28T07:15:00Z,45.0,-92.85,9.0,8.0,270,14,21,10.0,29.601377,,,TRUE,TRUE,,,,,,,OVC,1300,,,,,,,MVFR,,,,,,,,,,,,METAR,285.0
K1M5 280715Z AUTO 20005KT 6SM BR SCT042 SCT048 07/07 A3001 RMK A01,K1M5,2018-10-28T07:15:00Z,36.6,-86.48,7.0,7.0,200,5,,6.0,30.008858,,,TRUE,TRUE,,,,,,BR,SCT,4200,SCT,4800,,,,,VFR,,,,,,,,,,,,METAR,250.0
K1H2 280715Z AUTO 14004KT 10SM OVC120 08/06 A2993 RMK AO2 T00770060,K1H2,2018-10-28T07:15:00Z,39.07,-88.53,7.7,6.0,140,4,,10.0,29.929134,,,TRUE,TRUE,,,,,,,OVC,12000,,,,,,,VFR,,,,,,,,,,,,METAR,179.0
K1F0 280715Z AUTO 00000KT 12/11 A3002 RMK AO2 PWINO TSNO,K1F0,2018-10-28T07:15:00Z,34.15,-97.12,12.0,11.0,0,0,,,30.02067,,,TRUE,TRUE,,,TRUE,,TRUE,,,,,,,,,,,,,,,,,,,,,,METAR,257.0
K1A6 280715Z AUTO 00000KT 10SM SCT028 OVC050 09/06 A3001 RMK AO2 T00910060,K1A6,2018-10-28T07:15:00Z,36.62,-83.73,9.1,6.0,0,0,,10.0,30.008858,,,TRUE,TRUE,,,,,,,SCT,2800,OVC,5000,,,,,VFR,,,,,,,,,,,,METAR,352.0
K19S 280715Z AUTO 01014KT 10SM CLR 12/07 A3008 RMK AO2 T01200071,K19S,2018-10-28T07:15:00Z,37.48,-100.83,12.0,7.1,10,14,,10.0,30.079725,,,TRUE,TRUE,,,,,,,CLR,,,,,,,,VFR,,,,,,,,,,,,METAR,886.0
K11R 280715Z AUTO 00000KT 10SM CLR 18/15 A3011 RMK AO2 T01800149,K11R,2018-10-28T07:15:00Z,30.22,-96.37,18.0,14.9,0,0,,10.0,30.109253,,,TRUE,TRUE,,,,,,,CLR,,,,,,,,VFR,,,,,,,,,,,,METAR,94.0
K0R4 280715Z AUTO 18004KT 10SM CLR 15/13 A3009 RMK AO2 T01470131,K0R4,2018-10-28T07:15:00Z,31.57,-91.5,14.7,13.1,180,4,,10.0,30.088583,,,TRUE,TRUE,,,,,,,CLR,,,,,,,,VFR,,,,,,,,,,,,METAR,17.0
K0R0 280715Z AUTO 06003KT 10SM CLR 10/09 A3015 RMK AO2,K0R0,2018-10-28T07:15:00Z,31.3,-89.82,10.0,9.0,60,3,,10.0,30.15059,,,TRUE,TRUE,,,,,,,CLR,,,,,,,,VFR,,,,,,,,,,,,METAR,81.0
K0A9 280715Z AUTO 25009KT 10SM BKN016 OVC026 08/06 A2998 RMK AO2,K0A9,2018-10-28T07:15:00Z,36.37,-82.17,8.0,6.0,250,9,,10.0,29.97933,,,TRUE,TRUE,,,,,,,BKN,1600,OVC,2600,,,,,MVFR,,,,,,,,,,,,METAR,486.0
K06C 280715Z AUTO 17004KT 7SM SCT036 SCT043 BKN065 06/05 A2981 RMK AO2 T00620047,K06C,2018-10-28T07:15:00Z,41.98,-88.1,6.2,4.7,170,4,,7.0,29.811024,,,TRUE,TRUE,,,,,,,SCT,3600,SCT,4300,BKN,6500,,,VFR,,,,,,,,,,,,METAR,244.0
K05U 280715Z AUTO 23005KT 10SM CLR 07/M05 A3020 RMK A01,K05U,2018-10-28T07:15:00Z,39.6,-116.0,7.0,-5.0,230,5,,10.0,30.200787,,,TRUE,TRUE,,,,,,,CLR,,,,,,,,VFR,,,,,,,,,,,,METAR,1816.0
KGTB 280715Z AUTO 04006KT 10SM OVC005 01/01 A2968 RMK AO2 SNE0656UPB0656E0658RAB0658E15 SLP058,KGTB,2018-10-28T07:15:00Z,44.07,-75.72,1.0,1.0,40,6,,10.0,29.681103,1005.8,,TRUE,TRUE,,,,,,,OVC,500,,,,,,,IFR,,,,,,,,,,,,METAR,207.0
KTIF 280715Z AUTO 29003KT 10SM CLR 03/01 A3014 RMK AO2 T00290010,KTIF,2018-10-28T07:15:00Z,41.97,-100.57,2.9,1.0,290,3,,10.0,30.138779,,,TRUE,TRUE,,,,,,,CLR,,,,,,,,VFR,,,,,,,,,,,,METAR,892.0
KTFP 280715Z AUTO 19003KT 1/2SM FG VV005 19/18 A3012 RMK AO2 T01860178 PNO,KTFP,2018-10-28T07:15:00Z,27.92,-97.22,18.6,17.8,190,3,,0.5,30.121063,,,TRUE,TRUE,,,,,,FG,OVX,0,,,,,,,LIFR,,,,,,,,,,,500,METAR,6.0
KTEX 280715Z AUTO 14005KT 10SM CLR 03/M02 A3045 RMK AO2,KTEX,2018-10-28T07:15:00Z,37.95,-107.9,3.0,-2.0,140,5,,10.0,30.448818,,,TRUE,TRUE,,,,,,,CLR,,,,,,,,VFR,,,,,,,,,,,,METAR,2769.0
KTBR 280715Z AUTO 00000KT 10SM CLR 10/09 A3005 RMK AO2 T01020088,KTBR,2018-10-28T07:15:00Z,32.48,-81.73,10.2,8.8,0,0,,10.0,30.050198,,,TRUE,TRUE,,,,,,,CLR,,,,,,,,VFR,,,,,,,,,,,,METAR,57.0
KSYF 280715Z AUTO 35003KT 10SM CLR 06/04 A3017 RMK AO2 T00630036,KSYF,2018-10-28T07:15:00Z,39.77,-101.8,6.3,3.6,350,3,,10.0,30.171259,,,TRUE,TRUE,,,,,,,CLR,,,,,,,,VFR,,,,,,,,,,,,METAR,1025.0
KSOA 280715Z AUTO 00000KT 10SM CLR 12/11 A3019 RMK AO2,KSOA,2018-10-28T07:15:00Z,30.58,-100.65,12.0,11.0,0,0,,10.0,30.188976,,,TRUE,TRUE,,,,,,,CLR,,,,,,,,VFR,,,,,,,,,,,,METAR,652.0
KSEE 280715Z AUTO 00000KT 10SM 15/10 A3000 RMK AO2,KSEE,2018-10-28T07:15:00Z,32.82,-116.97,15.0,10.0,0,0,,10.0,30.0,,,TRUE,TRUE,,,,,,,,,,,,,,,,,,,,,,,,,,,METAR,117.0
KSBS 280715Z AUTO 00000KT 10SM CLR 04/M01 A3029 RMK AO1 T00361006,KSBS,2018-10-28T07:15:00Z,40.52,-106.87,3.6,-0.6,0,0,,10.0,30.28937,,,TRUE,TRUE,,,,,,,CLR,,,,,,,,VFR,,,,,,,,,,,,METAR,2096.0
KSBO 280715Z AUTO 28003KT 10SM CLR 10/09 A3006 RMK AO2,KSBO,2018-10-28T07:15:00Z,32.62,-82.37,10.0,9.0,280,3,,10.0,30.059055,,,TRUE,TRUE,,,,,,,CLR,,,,,,,,VFR,,,,,,,,,,,,METAR,100.0
KFZG 280715Z AUTO 00000KT 10SM CLR 11/10 A3012 RMK AO2 T01100095,KFZG,2018-10-28T07:15:00Z,31.68,-83.27,11.0,9.5,0,0,,10.0,30.121063,,,TRUE,TRUE,,,,,,,CLR,,,,,,,,VFR,,,,,,,,,,,,METAR,111.0
KFVX 280715Z AUTO 22003KT 10SM BKN080 08/06 A2979 RMK AO2 T00780055,KFVX,2018-10-28T07:15:00Z,37.35,-78.42,7.8,5.5,220,3,,10.0,29.790354,,,TRUE,TRUE,,,,,,,BKN,8000,,,,,,,VFR,,,,,,,,,,,,METAR,125.0
KFOA 280715Z AUTO 00000KT 10SM BKN120 08/07 A2993 RMK AO2 T00800067,KFOA,2018-10-28T07:15:00Z,38.67,-88.45,8.0,6.7,0,0,,10.0,29.929134,,,TRUE,TRUE,,,,,,,BKN,12000,,,,,,,VFR,,,,,,,,,,,,METAR,144.0
KFET 280715Z AUTO 31013G23KT 10SM CLR 12/06 A2997 RMK AO2 T01170055,KFET,2018-10-28T07:15:00Z,41.45,-96.52,11.7,5.5,310,13,23,10.0,29.970472,,,TRUE,TRUE,,,,,,,CLR,,,,,,,,VFR,,,,,,,,,,,,METAR,367.0
KF00 280715Z AUTO 19004KT 10SM CLR 15/13 A3001 RMK AO2 T01460131,KF00,2018-10-28T07:15:00Z,33.62,-96.18,14.6,13.1,190,4,,10.0,30.008858,,,TRUE,TRUE,,,,,,,CLR,,,,,,,,VFR,,,,,,,,,,,,METAR,188.0
KEZZ 280715Z AUTO 28016G20KT 10SM CLR 14/07 A2985 RMK AO2 T01440067,KEZZ,2018-10-28T07:15:00Z,39.72,-94.28,14.4,6.7,280,16,20,10.0,29.84941,,,TRUE,TRUE,,,,,,,CLR,,,,,,,,VFR,,,,,,,,,,,,METAR,317.0
KETN 280715Z AUTO 00000KT 10SM CLR 11/10 A3007 RMK AO2 T01110099,KETN,2018-10-28T07:15:00Z,32.42,-98.82,11.1,9.9,0,0,,10.0,30.070866,,,TRUE,TRUE,,,,,,,CLR,,,,,,,,VFR,,,,,,,,,,,,METAR,446.0
KEQA 280715Z AUTO 26007KT 10SM CLR 15/09 A2992 RMK AO2,KEQA,2018-10-28T07:15:00Z,37.78,-96.82,15.0,9.0,260,7,,10.0,29.920275,,,TRUE,TRUE,,,,,,,CLR,,,,,,,,VFR,,,,,,,,,,,,METAR,420.0
KELA 280715Z AUTO 23007KT 10SM CLR 18/17 A3011 RMK AO2 T01800170,KELA,2018-10-28T07:15:00Z,29.6,-96.32,18.0,17.0,230,7,,10.0,30.109253,,,TRUE,TRUE,,,,,,,CLR,,,,,,,,VFR,,,,,,,,,,,,METAR,56.0
KE11 280715Z AUTO 22008KT 10SM CLR 14/12 A3014 RMK AO2 T01430118,KE11,2018-10-28T07:15:00Z,32.33,-102.53,14.3,11.8,220,8,,10.0,30.138779,,,TRUE,TRUE,,,,,,,CLR,,,,,,,,VFR,,,,,,,,,,,,METAR,967.0
KDVO 280715Z AUTO 11004KT 10SM CLR 14/13 A3005 RMK AO2,KDVO,2018-10-28T07:15:00Z,38.15,-122.55,14.0,13.0,110,4,,10.0,30.050198,,,TRUE,TRUE,,,,,,,CLR,,,,,,,,VFR,,,,,,,,,,,,METAR,1.0
KDRI 280715Z AUTO 00000KT 10SM CLR 16/15 A3011 RMK AO2 T01560150,KDRI,2018-10-28T07:15:00Z,30.83,-93.33,15.6,15.0,0,0,,10.0,30.109253,,,TRUE,TRUE,,,,,,,CLR,,,,,,,,VFR,,,,,,,,,,,,METAR,63.0
KDED 280715Z AUTO 32006KT 10SM CLR 13/12 A3008 RMK AO2,KDED,2018-10-28T07:15:00Z,29.07,-81.28,13.0,12.0,320,6,,10.0,30.079725,,,TRUE,TRUE,,,,,,,CLR,,,,,,,,VFR,,,,,,,,,,,,METAR,24.0
KD73 280715Z AUTO 00000KT 7SM CLR 07/07 A3003 RMK AO2 T00730069,KD73,2018-10-28T07:15:00Z,33.78,-83.7,7.3,6.9,0,0,,7.0,30.029528,,,TRUE,TRUE,,,,,,,CLR,,,,,,,,VFR,,,,,,,,,,,,METAR,267.0
KCTY 280715Z AUTO 33003KT 10SM CLR 10/09 A3012 RMK AO2 T01040094,KCTY,2018-10-28T07:15:00Z,29.63,-83.1,10.4,9.4,330,3,,10.0,30.121063,,,TRUE,TRUE,,,,,,,CLR,,,,,,,,VFR,,,,,,,,,,,,METAR,13.0
KCTJ 280715Z AUTO 00000KT 10SM SCT029 BKN039 05/04 A3010 RMK AO2 T00460043,KCTJ,2018-10-28T07:15:00Z,33.63,-85.15,4.6,4.3,0,0,,10.0,30.100393,,,TRUE,TRUE,,,,,,,SCT,2900,BKN,3900,,,,,VFR,,,,,,,,,,,,METAR,354.0
KCHK 280715Z AUTO 15003KT 10SM CLR 15/11 A2998 RMK AO2 T01540111,KCHK,2018-10-28T07:15:00Z,35.1,-97.97,15.4,11.1,150,3,,10.0,29.97933,,,TRUE,TRUE,,,,,,,CLR,,,,,,,,VFR,,,,,,,,,,,,METAR,351.0
KCFD 280715Z AUTO 21005KT 10SM CLR 18/14 A3010 RMK AO2 T01800142,KCFD,2018-10-28T07:15:00Z,30.72,-96.33,18.0,14.2,210,5,,10.0,30.100393,,,TRUE,TRUE,,,,,,,CLR,,,,,,,,VFR,,,,,,,,,,,,METAR,112.0
KBYL 280715Z AUTO 00000KT 10SM CLR 07/07 A3001 RMK AO1,KBYL,2018-10-28T07:15:00Z,36.8,-84.2,7.0,7.0,0,0,,10.0,30.008858,,,TRUE,TRUE,,,,,,,CLR,,,,,,,,VFR,,,,,,,,,,,,METAR,359.0
KBVS 280715Z AUTO 08010KT 10SM OVC022 12/10 A2970 RMK A01,KBVS,2018-10-28T07:15:00Z,48.47,-122.42,12.0,10.0,80,10,,10.0,29.698818,,,TRUE,TRUE,,,,,,,OVC,2200,,,,,,,MVFR,,,,,,,,,,,,METAR,43.0
KBVN 280715Z AUTO 33014G19KT 10SM CLR 09/02 A3003 RMK AO2 T00860017,KBVN,2018-10-28T07:15:00Z,41.73,-98.05,8.6,1.7,330,14,19,10.0,30.029528,,,TRUE,TRUE,,,,,,,CLR,,,,,,,,VFR,,,,,,,,,,,,METAR,551.0
KBMT 280715Z AUTO 00000KT 7SM CLR 16/15 A3011 RMK AO2 T01630151,KBMT,2018-10-28T07:15:00Z,30.07,-94.22,16.3,15.1,0,0,,7.0,30.109253,,,TRUE,TRUE,,,,,,,CLR,,,,,,,,VFR,,,,,,,,,,,,METAR,10.0
KBKS 280715Z AUTO 00000KT 7SM CLR 18/16 A3012 RMK AO1 T01750162,KBKS,2018-10-28T07:15:00Z,27.2,-98.12,17.5,16.2,0,0,,7.0,30.121063,,,TRUE,TRUE,,,,,,,CLR,,,,,,,,VFR,,,,,,,,,,,,METAR,34.0
KBBD 280715Z AUTO 24006KT 10SM CLR 15/12 A3012 RMK AO2,KBBD,2018-10-28T07:15:00Z,31.18,-99.32,15.0,12.0,240,6,,10.0,30.121063,,,TRUE,TRUE,,,,,,,CLR,,,,,,,,VFR,,,,,,,,,,,,METAR,557.0
KAVC 280715Z AUTO 23004KT 10SM CLR 09/07 A2989 RMK AO2 T00850070,KAVC,2018-10-28T07:15:00Z,36.68,-78.03,8.5,7.0,230,4,,10.0,29.890747,,,TRUE,TRUE,,,,,,,CLR,,,,,,,,VFR,,,,,,,,,,,,METAR,135.0
KAUN 280715Z AUTO 00000KT 10SM CLR 17/08 A3006 RMK A01,KAUN,2018-10-28T07:15:00Z,38.95,-121.08,17.0,8.0,0,0,,10.0,30.059055,,,TRUE,TRUE,,,,,,,CLR,,,,,,,,VFR,,,,,,,,,,,,METAR,467.0
KAUH 280715Z AUTO 35014G23KT 10SM CLR 10/03 A3004 RMK AO2 T01040026,KAUH,2018-10-28T07:15:00Z,40.88,-98.0,10.4,2.6,350,14,23,10.0,30.041338,,,TRUE,TRUE,,,,,,,CLR,,,,,,,,VFR,,,,,,,,,,,,METAR,550.0
KASL 280715Z AUTO 00000KT 7SM CLR 13/12 A3006 RMK AO1 T01330123,KASL,2018-10-28T07:15:00Z,32.52,-94.3,13.3,12.3,0,0,,7.0,30.059055,,,TRUE,TRUE,,,,,,,CLR,,,,,,,,VFR,,,,,,,,,,,,METAR,109.0
KAPS 280715Z AUTO 00000KT 3SM BR CLR 15/14 A3012 RMK AO2 T01470135,KAPS,2018-10-28T07:15:00Z,30.08,-90.58,14.7,13.5,0,0,,3.0,30.121063,,,TRUE,TRUE,,,,,,BR,CLR,,,,,,,,MVFR,,,,,,,,,,,,METAR,2.0
KALX 280715Z AUTO 00000KT 10SM CLR 07/07 A3009 RMK AO2 T00660066,KALX,2018-10-28T07:15:00Z,32.92,-85.97,6.6,6.6,0,0,,10.0,30.088583,,,TRUE,TRUE,,,,,,,CLR,,,,,,,,VFR,,,,,,,,,,,,METAR,209.0
KAHQ 280715Z AUTO 33011G18KT 10SM CLR 12/05 A2997 RMK AO2 T01150054,KAHQ,2018-10-28T07:15:00Z,41.23,-96.6,11.5,5.4,330,11,18,10.0,29.970472,,,TRUE,TRUE,,,,,,,CLR,,,,,,,,VFR,,,,,,,,,,,,METAR,374.0
KAFK 280715Z AUTO 34016G21KT 10SM CLR 14/04 A2993 RMK AO2 T01350042,KAFK,2018-10-28T07:15:00Z,40.6,-95.85,13.5,4.2,340,16,21,10.0,29.929134,,,TRUE,TRUE,,,,,,,CLR,,,,,,,,VFR,,,,,,,,,,,,METAR,354.0
KRWV 280715Z AUTO 24004KT 10SM CLR 16/14 A3010 RMK AO2 T01630138,KRWV,2018-10-28T07:15:00Z,30.52,-96.7,16.3,13.8,240,4,,10.0,30.100393,,,TRUE,TRUE,,,,,,,CLR,,,,,,,,VFR,,,,,,,,,,,,METAR,119.0
KRPJ 280715Z AUTO 17006KT 7SM -RA OVC060 07/05 A2981 RMK AO2 T00680049,KRPJ,2018-10-28T07:15:00Z,41.88,-89.08,6.8,4.9,170,6,,7.0,29.811024,,,TRUE,TRUE,,,,,,-RA,OVC,6000,,,,,,,VFR,,,,,,,,,,,,METAR,238.0
KRMN 280715Z AUTO 00000KT 7SM OVC050 10/10 A2980 RMK AO2 T00960096,KRMN,2018-10-28T07:15:00Z,38.4,-77.45,9.6,9.6,0,0,,7.0,29.799213,,,TRUE,TRUE,,,,,,,OVC,5000,,,,,,,VFR,,,,,,,,,,,,METAR,65.0
KRLD 280715Z AUTO 30009KT 10SM SCT090 BKN110 12/09 A2986 RMK AO2 T01200088,KRLD,2018-10-28T07:15:00Z,46.3,-119.3,12.0,8.8,300,9,,10.0,29.861221,,,TRUE,TRUE,,,,,,,SCT,9000,BKN,11000,,,,,VFR,,,,,,,,,,,,METAR,120.0
KRBW 280715Z AUTO 25006KT 10SM CLR 10/08 A3002 RMK AO2,KRBW,2018-10-28T07:15:00Z,32.92,-80.63,10.0,8.0,250,6,,10.0,30.02067,,,TRUE,TRUE,,,,,,,CLR,,,,,,,,VFR,,,,,,,,,,,,METAR,31.0
KRAW 280715Z AUTO 00000KT 10SM CLR A2986 RMK AO2,KRAW,2018-10-28T07:15:00Z,38.35,-93.35,,,0,0,,10.0,29.861221,,,TRUE,TRUE,,,,,,,CLR,,,,,,,,VFR,,,,,,,,,,,,METAR,285.0
KRAS 280715Z AUTO 17005KT 10SM CLR 22/21 A3014 RMK AO2 T02220206,KRAS,2018-10-28T07:15:00Z,27.82,-97.08,22.2,20.6,170,5,,10.0,30.138779,,,TRUE,TRUE,,,,,,,CLR,,,,,,,,VFR,,,,,,,,,,,,METAR,2.0
KPVW 280715Z AUTO 26005KT 10SM CLR 08/06 A3008 RMK AO2 T00760058,KPVW,2018-10-28T07:15:00Z,34.17,-101.72,7.6,5.8,260,5,,10.0,30.079725,,,TRUE,TRUE,,,,,,,CLR,,,,,,,,VFR,,,,,,,,,,,,METAR,1028.0
KPSN 280715Z AUTO 14003KT 10SM CLR 16/15 A3008 RMK AO2 T01670155,KPSN,2018-10-28T07:15:00Z,31.78,-95.7,16.7,15.5,140,3,,10.0,30.079725,,,TRUE,TRUE,,,,,,,CLR,,,,,,,,VFR,,,,,,,,,,,,METAR,129.0
KPOY 280715Z AUTO 12008KT 10SM BKN080 05/02 A3013 RMK AO2,KPOY,2018-10-28T07:15:00Z,44.87,-108.8,5.0,2.0,120,8,,10.0,30.129921,,,TRUE,TRUE,,,,,,,BKN,8000,,,,,,,VFR,,,,,,,,,,,,METAR,1552.0
KPMU 280715Z AUTO 00000KT 9SM CLR 08/08 A3004 RMK AO2,KPMU,2018-10-28T07:15:00Z,34.37,-89.9,8.0,8.0,0,0,,9.0,30.041338,,,TRUE,TRUE,,,,,,,CLR,,,,,,,,VFR,,,,,,,,,,,,METAR,67.0
KPLU 280715Z AUTO 00000KT 9SM -DZ FEW027 SCT038 BKN055 14/14 A2976 RMK AO2,KPLU,2018-10-28T07:15:00Z,47.1,-122.28,14.0,14.0,0,0,,9.0,29.760826,,,TRUE,TRUE,,,,,,-DZ,FEW,2700,SCT,3800,BKN,5500,,,VFR,,,,,,,,,,,,METAR,164.0
KPBX 280715Z AUTO 22004KT 7SM -DZ SCT009 OVC035 07/07 A2995 RMK AO2 T00670067,KPBX,2018-10-28T07:15:00Z,37.57,-82.57,6.7,6.7,220,4,,7.0,29.949802,,,TRUE,TRUE,,,,,,-DZ,SCT,900,OVC,3500,,,,,VFR,,,,,,,,,,,,METAR,449.0
KOXD 280715Z AUTO 24004KT 10SM SCT060 06/05 A2990 RMK AO2 T00590049,KOXD,2018-10-28T07:15:00Z,,,5.9,4.9,240,4,,10.0,29.899607,,,TRUE,TRUE,,,,,,,SCT,6000,,,,,,,VFR,,,,,,,,,,,,METAR,
KOKV 280715Z AUTO 23004KT 10SM BKN080 OVC095 08/06 A2976 RMK AO2,KOKV,2018-10-28T07:15:00Z,39.13,-78.15,8.0,6.0,230,4,,10.0,29.760826,,,TRUE,TRUE,,,,,,,BKN,8000,OVC,9500,,,,,VFR,,,,,,,,,,,,METAR,222.0
KMWO 280715Z AUTO 22004KT 7SM OVC047 07/06 A2992 RMK AO2 T00730064,KMWO,2018-10-28T07:15:00Z,39.53,-84.4,7.3,6.4,220,4,,7.0,29.920275,,,TRUE,TRUE,,,,,,,OVC,4700,,,,,,,VFR,,,,,,,,,,,,METAR,198.0
KMRJ 280715Z AUTO 15007KT 7SM -RA BKN044 OVC050 06/06 A2971 RMK AO2,KMRJ,2018-10-28T07:15:00Z,42.88,-90.23,6.0,6.0,150,7,,7.0,29.71063,,,TRUE,TRUE,,,,,,-RA,BKN,4400,OVC,5000,,,,,VFR,,,,,,,,,,,,METAR,359.0
KMQS 280715Z AUTO 27004KT 8SM SCT090 06/05 A2972 RMK AO2,KMQS,2018-10-28T07:15:00Z,39.98,-75.87,6.0,5.0,270,4,,8.0,29.719488,,,TRUE,TRUE,,,,,,,SCT,9000,,,,,,,VFR,,,,,,,,,,,,METAR,201.0
KMLE 280715Z AUTO 32012G20KT 10SM CLR 14/07 A2994 RMK AO2 T01360071,KMLE,2018-10-28T07:15:00Z,41.2,-96.12,13.6,7.1,320,12,20,10.0,29.940945,,,TRUE,TRUE,,,,,,,CLR,,,,,,,,VFR,,,,,,,,,,,,METAR,320.0
KMKS 280715Z AUTO 24003KT 10SM CLR 10/09 A3000 RMK AO2,KMKS,2018-10-28T07:15:00Z,33.18,-80.03,10.0,9.0,240,3,,10.0,30.0,,,TRUE,TRUE,,,,,,,CLR,,,,,,,,VFR,,,,,,,,,,,,METAR,23.0
KMKJ 280715Z AUTO 26011G19KT 10SM SCT019 SCT025 OVC032 07/04 A2993 RMK AO2 T00650043,KMKJ,2018-10-28T07:15:00Z,36.88,-81.33,6.5,4.3,260,11,19,10.0,29.929134,,,TRUE,TRUE,,,,,,,SCT,1900,SCT,2500,OVC,3200,,,VFR,,,,,,,,,,,,METAR,780.0
KLXN 280715Z AUTO 33008KT 10SM CLR 10/04 A3011 RMK AO2 T00970036,KLXN,2018-10-28T07:15:00Z,40.78,-99.77,9.7,3.6,330,8,,10.0,30.109253,,,TRUE,TRUE,,,,,,,CLR,,,,,,,,VFR,,,,,,,,,,,,METAR,734.0
KLVL 280715Z AUTO 10SM CLR 09/07 A2982 RMK AO1 T00850067,KLVL,2018-10-28T07:15:00Z,36.78,-77.8,8.5,6.7,,,,10.0,29.819881,,,TRUE,TRUE,,,,,,,CLR,,,,,,,,VFR,,,,,,,,,,,,METAR,100.0
KLCK 280715Z AUTO 23003KT 10SM OVC038 06/05 A2988 RMK AO2 T00570052,KLCK,2018-10-28T07:15:00Z,39.82,-82.92,5.7,5.2,230,3,,10.0,29.878937,,,TRUE,TRUE,,,,,,,OVC,3800,,,,,,,VFR,,,,,,,,,,,,METAR,227.0
KLCG 280715Z AUTO 32010G15KT 10SM CLR 08/03 A2998 RMK AO2 T00770033,KLCG,2018-10-28T07:15:00Z,42.25,-96.98,7.7,3.3,320,10,15,10.0,29.97933,,,TRUE,TRUE,,,,,,,CLR,,,,,,,,VFR,,,,,,,,,,,,METAR,436.0
KJWY 280715Z AUTO 22003KT 10SM CLR 17/14 A3005 RMK AO2 T01740140,KJWY,2018-10-28T07:15:00Z,32.45,-96.92,17.4,14.0,220,3,,10.0,30.050198,,,TRUE,TRUE,,,,,,,CLR,,,,,,,,VFR,,,,,,,,,,,,METAR,217.0
KJDD 280715Z AUTO 20006KT 10SM CLR 18/15 A3003 RMK AO2,KJDD,2018-10-28T07:15:00Z,32.75,-95.5,18.0,15.0,200,6,,10.0,30.029528,,,TRUE,TRUE,,,,,,,CLR,,,,,,,,VFR,,,,,,,,,,,,METAR,132.0
KJCA 280715Z AUTO 27008KT 10SM CLR 08/06 A3002 RMK AO2 T00810065,KJCA,2018-10-28T07:15:00Z,34.18,-83.57,8.1,6.5,270,8,,10.0,30.02067,,,TRUE,TRUE,,,,,,,CLR,,,,,,,,VFR,,,,,,,,,,,,METAR,290.0
KIWA 280715Z AUTO 13007KT 10SM CLR 18/08 A3003 RMK AO2 T01800080,KIWA,2018-10-28T07:15:00Z,33.3,-111.65,18.0,8.0,130,7,,10.0,30.029528,,,TRUE,TRUE,,,,,,,CLR,,,,,,,,VFR,,,,,,,,,,,,METAR,412.0
KI23 280715Z AUTO 24004KT 7SM BKN032 05/04 A2989 RMK AO1,KI23,2018-10-28T07:15:00Z,39.57,-83.42,5.0,4.0,240,4,,7.0,29.890747,,,TRUE,TRUE,,,,,,,BKN,3200,,,,,,,VFR,,,,,,,,,,,,METAR,299.0
KHWY 280715Z AUTO 00000KT 10SM OVC060 10/08 A2975 RMK AO2 T00950078,KHWY,2018-10-28T07:15:00Z,38.58,-77.72,9.5,7.8,0,0,,10.0,29.749016,,,TRUE,TRUE,,,,,,,OVC,6000,,,,,,,VFR,,,,,,,,,,,,METAR,103.0
KHQG 280715Z AUTO 01014KT 10SM CLR 12/06 A3008 RMK AO2 T01220060,KHQG,2018-10-28T07:15:00Z,37.17,-101.37,12.2,6.0,10,14,,10.0,30.079725,,,TRUE,TRUE,,,,,,,CLR,,,,,,,,VFR,,,,,,,,,,,,METAR,956.0
KHQG 280715Z AUTO 01014KT 10SM CLR 12/06 A3008 RMK AO2 T01220060,KHQG,2018-10-28T07:15:00Z,37.17,-101.37,12.2,6.0,10,14,,10.0,30.079725,,,TRUE,TRUE,,,,,,,CLR,,,,,,,,VFR,,,,,,,,,,,,METAR,956.0
KHJH 280715Z AUTO 35012KT 10SM SCT110 14/07 A3000 RMK AO2 T01350066,KHJH,2018-10-28T07:15:00Z,40.15,-97.58,13.5,6.6,350,12,,10.0,30.0,,,TRUE,TRUE,,,,,,,SCT,11000,,,,,,,VFR,,,,,,,,,,,,METAR,447.0
KGRN 280715Z AUTO 27004KT 10SM CLR 01/M01 A3014 RMK AO2 T00091008,KGRN,2018-10-28T07:15:00Z,42.8,-102.17,0.9,-0.8,270,4,,10.0,30.138779,,,TRUE,TRUE,,,,,,,CLR,,,,,,,,VFR,,,,,,,,,,,,METAR,1086.0
KGOP 280715Z AUTO 23007KT 10SM CLR 18/13 A3009 RMK AO2,KGOP,2018-10-28T07:15:00Z,31.42,-97.8,18.0,13.0,230,7,,10.0,30.088583,,,TRUE,TRUE,,,,,,,CLR,,,,,,,,VFR,,,,,,,,,,,,METAR,276.0
KGHG 280715Z AUTO 33008G16KT 290V360 2 1/2SM BR OVC004 09/09 A2963 RMK AO2,KGHG,2018-10-28T07:15:00Z,42.1,-70.67,9.0,9.0,330,8,16,2.5,29.630905,,,TRUE,TRUE,,,,,,BR,OVC,400,,,,,,,LIFR,,,,,,,,,,,,METAR,4.0
CMGB 280715Z AUTO 03005KT 02/01 RMK AO1 SLP070 T00210011 56029,CMGB,2018-10-28T07:15:00Z,45.37,-72.77,2.1,1.1,30,5,,,,1007.0,,TRUE,TRUE,,,,,,,,,,,,,,,,-2.9,,,,,,,,,,,METAR,86.0
PAAD 280715Z AUTO 24007KT 10SM SCT015 BKN023 OVC075 M10/M11 A2976 RMK AO2 T10981108,PAAD,2018-10-28T07:15:00Z,70.13,-146.28,-9.8,-10.8,240,7,,10.0,29.760826,,,TRUE,TRUE,,,,,,,SCT,1500,BKN,2300,OVC,7500,,,MVFR,,,,,,,,,,,,METAR,8.0
KULS 280715Z AUTO 01013G18KT 10SM CLR 11/06 A3008 RMK AO2,KULS,2018-10-28T07:15:00Z,37.6,-101.37,11.0,6.0,10,13,18,10.0,30.079725,,,TRUE,TRUE,,,,,,,CLR,,,,,,,,VFR,,,,,,,,,,,,METAR,936.0
KTQH 280715Z AUTO 00000KT 10SM CLR 07/07 A2999 RMK AO2,KTQH,2018-10-28T07:15:00Z,35.93,-95.0,7.0,7.0,0,0,,10.0,29.991142,,,TRUE,TRUE,,,,,,,CLR,,,,,,,,VFR,,,,,,,,,,,,METAR,266.0
KTNB 280715Z AUTO 31015G22KT 7SM -RA OVC013 04/04 A2991 RMK AO2 T00410036,KTNB,2018-10-28T07:15:00Z,36.2,-81.65,4.1,3.6,310,15,22,7.0,29.911417,,,TRUE,TRUE,,,,,,-RA,OVC,1300,,,,,,,MVFR,,,,,,,,,,,,METAR,911.0
KTMK 280715Z AUTO 14005KT 7SM DZ SCT034 BKN039 OVC050 13/12 A2985 RMK AO2,KTMK,2018-10-28T07:15:00Z,45.42,-123.82,13.0,12.0,140,5,,7.0,29.84941,,,TRUE,TRUE,,,,,,DZ,SCT,3400,BKN,3900,OVC,5000,,,VFR,,,,,,,,,,,,METAR,11.0
KTMA 280715Z AUTO 27003KT 10SM CLR 10/10 A3010 RMK AO2 T01040104,KTMA,2018-10-28T07:15:00Z,31.43,-83.48,10.4,10.4,270,3,,10.0,30.100393,,,TRUE,TRUE,,,,,,,CLR,,,,,,,,VFR,,,,,,,,,,,,METAR,109.0
KSZT 280715Z AUTO 04010KT 10SM -DZ OVC065 07/03 A2996 RMK AO2,KSZT,2018-10-28T07:15:00Z,48.3,-116.57,7.0,3.0,40,10,,10.0,29.958662,,,TRUE,TRUE,,,,,,-DZ,OVC,6500,,,,,,,VFR,,,,,,,,,,,,METAR,648.0
KSYN 280715Z AUTO 28018G27KT 10SM BKN020 OVC027 09/06 A2963 RMK AO2 T00920061,KSYN,2018-10-28T07:15:00Z,44.47,-93.02,9.2,6.1,280,18,27,10.0,29.630905,,,TRUE,TRUE,,,,,,,BKN,2000,OVC,2700,,,,,MVFR,,,,,,,,,,,,METAR,280.0
KSWW 280715Z AUTO 21012KT 10SM CLR 17/12 A3012 RMK AO2 T01720122,KSWW,2018-10-28T07:15:00Z,32.47,-100.47,17.2,12.2,210,12,,10.0,30.121063,,,TRUE,TRUE,,,,,,,CLR,,,,,,,,VFR,,,,,,,,,,,,METAR,727.0
KSUN 280715Z AUTO 30006KT 10SM CLR 07/02 A3016 RMK AO2,KSUN,2018-10-28T07:15:00Z,43.5,-114.28,7.0,2.0,300,6,,10.0,30.159449,,,TRUE,TRUE,,,,,,,CLR,,,,,,,,VFR,,,,,,,,,,,,METAR,1620.0
KSPR 280715Z AUTO 10SM CLR 23/15 A3012 RMK A01,KSPR,2018-10-28T07:15:00Z,28.6,-91.2,23.0,15.0,,,,10.0,30.121063,,,TRUE,TRUE,,,,,,,CLR,,,,,,,,VFR,,,,,,,,,,,,METAR,31.0
KSLR 280715Z AUTO 20005KT 10SM CLR 17/15 A3004 RMK AO2 T01740152,KSLR,2018-10-28T07:15:00Z,33.17,-95.62,17.4,15.2,200,5,,10.0,30.041338,,,TRUE,TRUE,,,,,,,CLR,,,,,,,,VFR,,,,,,,,,,,,METAR,149.0
KSGS 280715Z AUTO 30017G24KT 10SM BKN023 OVC031 08/08 A2960 RMK AO2 T00830083,KSGS,2018-10-28T07:15:00Z,44.87,-93.03,8.3,8.3,300,17,24,10.0,29.601377,,,TRUE,TRUE,,,,,,,BKN,2300,OVC,3100,,,,,MVFR,,,,,,,,,,,,METAR,250.0
KSCD 280715Z AUTO 00000KT 1 1/2SM BR BKN120 07/07 A3010 RMK AO2 VIS 1/2V4 T00740074,KSCD,2018-10-28T07:15:00Z,33.17,-86.3,7.4,7.4,0,0,,1.5,30.100393,,,TRUE,TRUE,,,,,,BR,BKN,12000,,,,,,,IFR,,,,,,,,,,,,METAR,173.0
KS52 280715Z AUTO 30004KT 10SM RA OVC012 05/03 A2996 RMK AO2 P0001 T00450033,KS52,2018-10-28T07:15:00Z,48.38,-120.15,4.5,3.3,300,4,,10.0,29.958662,,,TRUE,TRUE,,,,,,RA,OVC,1200,,,,,,,MVFR,,,,,,0.01,,,,,,METAR,520.0
KRZL 280715Z AUTO 16006KT 7SM CLR 05/04 A2987 RMK AO2,KRZL,2018-10-28T07:15:00Z,40.95,-87.18,5.0,4.0,160,6,,7.0,29.870079,,,TRUE,TRUE,,,,,,,CLR,,,,,,,,VFR,,,,,,,,,,,,METAR,213.0
KRNV 280715Z AUTO 19005KT 10SM CLR 13/13 A3004 RMK AO2 T01280128,KRNV,2018-10-28T07:15:00Z,33.77,-90.75,12.8,12.8,190,5,,10.0,30.041338,,,TRUE,TRUE,,,,,,,CLR,,,,,,,,VFR,,,,,,,,,,,,METAR,41.0
KRGA 280715Z AUTO 24007KT 10SM OVC070 08/06 A2998 RMK AO2,KRGA,2018-10-28T07:15:00Z,37.63,-84.33,8.0,6.0,240,7,,10.0,29.97933,,,TRUE,TRUE,,,,,,,OVC,7000,,,,,,,VFR,,,,,,,,,,,,METAR,305.0
KRFI 280715Z AUTO 1 1/2SM BR VV007 15/14 A3007 RMK AO2 VIS 1/4V5 T01460143,KRFI,2018-10-28T07:15:00Z,32.15,-94.85,14.6,14.3,,,,1.5,30.070866,,,TRUE,TRUE,,,,,,BR,OVX,0,,,,,,,LIFR,,,,,,,,,,,700,METAR,135.0
KPPA 280715Z AUTO 25008KT 10SM CLR 12/06 A3006 RMK AO2 T01180063,KPPA,2018-10-28T07:15:00Z,35.62,-101.0,11.8,6.3,250,8,,10.0,30.059055,,,TRUE,TRUE,,,,,,,CLR,,,,,,,,VFR,,,,,,,,,,,,METAR,989.0
KPMV 280715Z AUTO 32019G23KT 10SM CLR 13/07 A2993 RMK AO2 T01270074,KPMV,2018-10-28T07:15:00Z,40.95,-95.92,12.7,7.4,320,19,23,10.0,29.929134,,,TRUE,TRUE,,,,,,,CLR,,,,,,,,VFR,,,,,,,,,,,,METAR,367.0
KPEX 280715Z AUTO 29021G27KT 10SM SCT021 OVC028 07/05 A2969 RMK AO2 T00650051,KPEX,2018-10-28T07:15:00Z,45.37,-94.73,6.5,5.1,290,21,27,10.0,29.68996,,,TRUE,TRUE,,,,,,,SCT,2100,OVC,2800,,,,,MVFR,,,,,,,,,,,,METAR,360.0
KOZS 280715Z AUTO 19007KT 10SM CLR 15/05 A2988 RMK AO2,KOZS,2018-10-28T07:15:00Z,37.97,-92.68,15.0,5.0,190,7,,10.0,29.878937,,,TRUE,TRUE,,,,,,,CLR,,,,,,,,VFR,,,,,,,,,,,,METAR,324.0
KOSA 280715Z AUTO 00000KT 10SM CLR 14/13 A3004 RMK AO1 T01350125,KOSA,2018-10-28T07:15:00Z,33.1,-94.97,13.5,12.5,0,0,,10.0,30.041338,,,TRUE,TRUE,,,,,,,CLR,,,,,,,,VFR,,,,,,,,,,,,METAR,111.0
KONP 280715Z AUTO 19014G20KT 10SM DZ BKN004 OVC026 13/13 A2991 RMK AO2,KONP,2018-10-28T07:15:00Z,44.57,-124.03,13.0,13.0,190,14,20,10.0,29.911417,,,TRUE,TRUE,,,,,,DZ,BKN,400,OVC,2600,,,,,LIFR,,,,,,,,,,,,METAR,48.0
KOCQ 280715Z AUTO 00000KT 10SM OVC044 05/04 A2978 RMK AO1 T00530042,KOCQ,2018-10-28T07:15:00Z,44.87,-87.92,5.3,4.2,0,0,,10.0,29.778543,,,TRUE,TRUE,,,,,,,OVC,4400,,,,,,,VFR,,,,,,,,,,,,METAR,183.0
KMZG 280715Z AUTO 24004KT 10SM CLR 24/19 A3013 RMK A01,KMZG,2018-10-28T07:15:00Z,27.73,-96.18,24.0,19.0,240,4,,10.0,30.129921,,,TRUE,TRUE,,,,,,,CLR,,,,,,,,VFR,,,,,,,,,,,,METAR,29.0
KMQB 280715Z AUTO 16006KT 10SM OVC100 10/09 A2982 RMK AO2 T00970085,KMQB,2018-10-28T07:15:00Z,40.52,-90.65,9.7,8.5,160,6,,10.0,29.819881,,,TRUE,TRUE,,,,,,,OVC,10000,,,,,,,VFR,,,,,,,,,,,,METAR,215.0
KMPZ 280715Z AUTO 17004KT 10SM OVC075 11/08 A2977 RMK AO2,KMPZ,2018-10-28T07:15:00Z,40.95,-91.52,11.0,8.0,170,4,,10.0,29.769686,,,TRUE,TRUE,,,,,,,OVC,7500,,,,,,,VFR,,,,,,,,,,,,METAR,224.0
KMLJ 280715Z AUTO 29006KT 10SM CLR 09/08 A3007 RMK AO2,KMLJ,2018-10-28T07:15:00Z,33.15,-83.23,9.0,8.0,290,6,,10.0,30.070866,,,TRUE,TRUE,,,,,,,CLR,,,,,,,,VFR,,,,,,,,,,,,METAR,117.0
KMEZ 280715Z AUTO 00000KT 10SM CLR 10/10 A3005 RMK AO2,KMEZ,2018-10-28T07:15:00Z,34.55,-94.2,10.0,10.0,0,0,,10.0,30.050198,,,TRUE,TRUE,,,,,,,CLR,,,,,,,,VFR,,,,,,,,,,,,METAR,329.0
KMDJ 280715Z AUTO 00000KT 10SM CLR 22/15 A3013 RMK A01,KMDJ,2018-10-28T07:15:00Z,28.65,-89.8,22.0,15.0,0,0,,10.0,30.129921,,,TRUE,TRUE,,,,,,,CLR,,,,,,,,VFR,,,,,,,,,,,,METAR,31.0
KMCD 280715Z AUTO 12004KT 10SM UP OVC010 03/01 A2985 RMK AO2 T00270013,KMCD,2018-10-28T07:15:00Z,45.85,-84.63,2.7,1.3,120,4,,10.0,29.84941,,,TRUE,TRUE,,,,,,UP,OVC,1000,,,,,,,MVFR,,,,,,,,,,,,METAR,226.0
KLYO 280715Z AUTO 35015G25KT 10SM CLR 15/08 A3000 RMK AO2 T01480079,KLYO,2018-10-28T07:15:00Z,,,14.8,7.9,350,15,25,10.0,30.0,,,TRUE,TRUE,,,,,,,CLR,,,,,,,,VFR,,,,,,,,,,,,METAR,
KLUV 280715Z AUTO 24006KT 10SM CLR 12/09 A3013 RMK AO2,KLUV,2018-10-28T07:15:00Z,,,12.0,9.0,240,6,,10.0,30.129921,,,TRUE,TRUE,,,,,,,CLR,,,,,,,,VFR,,,,,,,,,,,,METAR,
KLUD 280715Z AUTO 00000KT 10SM CLR 19/12 A3003 RMK AO2 T01900123,KLUD,2018-10-28T07:15:00Z,33.25,-97.58,19.0,12.3,0,0,,10.0,30.029528,,,TRUE,TRUE,,,,,,,CLR,,,,,,,,VFR,,,,,,,,,,,,METAR,319.0
KLRU 280715Z AUTO 06003KT 10SM CLR 10/07 A3023 RMK AO2 T01000067,KLRU,2018-10-28T07:15:00Z,32.27,-106.92,10.0,6.7,60,3,,10.0,30.230314,,,TRUE,TRUE,,,,,,,CLR,,,,,,,,VFR,,,,,,,,,,,,METAR,1358.0
KL35 280715Z AUTO 00000KT 10SM CLR 02/M08 A3032 RMK AO2,KL35,2018-10-28T07:15:00Z,34.27,-116.85,2.0,-8.0,0,0,,10.0,30.318897,,,TRUE,TRUE,,,,,,,CLR,,,,,,,,VFR,,,,,,,,,,,,METAR,2059.0
KIZA 280715Z AUTO 00000KT 10SM CLR 12/09 A3001 RMK AO2,KIZA,2018-10-28T07:15:00Z,34.6,-120.07,12.0,9.0,0,0,,10.0,30.008858,,,TRUE,TRUE,,,,,,,CLR,,,,,,,,VFR,,,,,,,,,,,,METAR,205.0
KIOB 280715Z AUTO 26005KT 10SM SCT050 OVC065 08/06 A2997 RMK AO2,KIOB,2018-10-28T07:15:00Z,38.05,-83.98,8.0,6.0,260,5,,10.0,29.970472,,,TRUE,TRUE,,,,,,,SCT,5000,OVC,6500,,,,,VFR,,,,,,,,,,,,METAR,311.0
KIKW 280715Z AUTO 31003KT 10SM OVC005 04/03 A2984 RMK AO2 T00390032,KIKW,2018-10-28T07:15:00Z,43.67,-84.27,3.9,3.2,310,3,,10.0,29.840551,,,TRUE,TRUE,,,,,,,OVC,500,,,,,,,IFR,,,,,,,,,,,,METAR,194.0
KIKG 280715Z AUTO 4SM BR CLR 17/17 A3013 RMK AO2 T01700170,KIKG,2018-10-28T07:15:00Z,27.55,-98.03,17.0,17.0,,,,4.0,30.129921,,,TRUE,TRUE,,,,,,BR,CLR,,,,,,,,MVFR,,,,,,,,,,,,METAR,40.0
KIBM 280715Z AUTO 27009KT 10SM CLR 04/00 A3020 RMK AO2 T00360001,KIBM,2018-10-28T07:15:00Z,41.18,-103.68,3.6,0.1,270,9,,10.0,30.200787,,,TRUE,TRUE,,,,,,,CLR,,,,,,,,VFR,,,,,,,,,,,,METAR,1501.0
KHVE 280715Z AUTO 00000KT 10SM CLR 07/04 A3024 RMK AO2,KHVE,2018-10-28T07:15:00Z,38.42,-110.7,7.0,4.0,0,0,,10.0,30.239174,,,TRUE,TRUE,,,,,,,CLR,,,,,,,,VFR,,,,,,,,,,,,METAR,1350.0
KHQU 280715Z AUTO 32006KT 10SM CLR 09/08 A3008 RMK AO2 T00920079,KHQU,2018-10-28T07:15:00Z,33.53,-82.52,9.2,7.9,320,6,,10.0,30.079725,,,TRUE,TRUE,,,,,,,CLR,,,,,,,,VFR,,,,,,,,,,,,METAR,152.0
KHQI 280715Z AUTO 21010KT 10SM CLR 24/17 A3013 RMK A01,KHQI,2018-10-28T07:15:00Z,27.93,-93.67,24.0,17.0,210,10,,10.0,30.129921,,,TRUE,TRUE,,,,,,,CLR,,,,,,,,VFR,,,,,,,,,,,,METAR,26.0
KHHV 280715Z AUTO VRB05KT 10SM CLR 25/17 A3015 RMK A01,KHHV,2018-10-28T07:15:00Z,26.93,-94.68,25.0,17.0,0,5,,10.0,30.15059,,,TRUE,TRUE,,,,,,,CLR,,,,,,,,VFR,,,,,,,,,,,,METAR,25.0
KHDC 280715Z AUTO 00000KT 7SM CLR 13/12 A3011 RMK AO2,KHDC,2018-10-28T07:15:00Z,30.52,-90.42,13.0,12.0,0,0,,7.0,30.109253,,,TRUE,TRUE,,,,,,,CLR,,,,,,,,VFR,,,,,,,,,,,,METAR,13.0
KHCD 280715Z AUTO 28020G31KT 10SM BKN021 OVC026 07/05 A2970 RMK AO2 T00730050,KHCD,2018-10-28T07:15:00Z,44.87,-94.38,7.3,5.0,280,20,31,10.0,29.698818,,,TRUE,TRUE,,,,,,,BKN,2100,OVC,2600,,,,,MVFR,,,,,,,,,,,,METAR,323.0
KGYY 280715Z AUTO 16004KT 5SM BR CLR 07/06 A2985 RMK AO2 T00660062,KGYY,2018-10-28T07:15:00Z,41.62,-87.42,6.6,6.2,160,4,,5.0,29.84941,,,TRUE,TRUE,,,,,,BR,CLR,,,,,,,,MVFR,,,,,,,,,,,,METAR,180.0
KGYI 280715Z AUTO 00000KT 10SM CLR 15/13 A3002 RMK AO2 T01530132 TSNO,KGYI,2018-10-28T07:15:00Z,33.72,-96.67,15.3,13.2,0,0,,10.0,30.02067,,,TRUE,TRUE,,,TRUE,,,,CLR,,,,,,,,VFR,,,,,,,,,,,,METAR,228.0
KGUL 280715Z AUTO 22004KT 10SM CLR 24/16 A3015 RMK A01,KGUL,2018-10-28T07:15:00Z,27.3,-93.53,24.0,16.0,220,4,,10.0,30.15059,,,TRUE,TRUE,,,,,,,CLR,,,,,,,,VFR,,,,,,,,,,,,METAR,30.0
KGLY 280715Z AUTO 21006KT 10SM CLR 13/08 A2986 RMK AO2,KGLY,2018-10-28T07:15:00Z,38.35,-93.68,13.0,8.0,210,6,,10.0,29.861221,,,TRUE,TRUE,,,,,,,CLR,,,,,,,,VFR,,,,,,,,,,,,METAR,251.0
KGLE 280715Z AUTO 00000KT 10SM CLR 15/12 A3004 RMK AO2 T01450121,KGLE,2018-10-28T07:15:00Z,33.65,-97.2,14.5,12.1,0,0,,10.0,30.041338,,,TRUE,TRUE,,,,,,,CLR,,,,,,,,VFR,,,,,,,,,,,,METAR,256.0
KGIC 280715Z AUTO 27003KT 10SM CLR 07/07 A2994 RMK AO1,KGIC,2018-10-28T07:15:00Z,45.95,-116.12,7.0,7.0,270,3,,10.0,29.940945,,,TRUE,TRUE,,,,,,,CLR,,,,,,,,VFR,,,,,,,,,,,,METAR,1009.0
KGHB 280715Z AUTO 24007KT 10SM BKN021 BKN026 BKN031 24/15 A3015 RMK A01,KGHB,2018-10-28T07:15:00Z,27.83,-91.98,24.0,15.0,240,7,,10.0,30.15059,,,TRUE,TRUE,,,,,,,BKN,2100,BKN,2600,BKN,3100,,,MVFR,,,,,,,,,,,,METAR,30.0
KGCM 280715Z AUTO 00000KT 10SM CLR 11/08 A2997 RMK AO2 TSNO,KGCM,2018-10-28T07:15:00Z,36.3,-95.48,11.0,8.0,0,0,,10.0,29.970472,,,TRUE,TRUE,,,TRUE,,,,CLR,,,,,,,,VFR,,,,,,,,,,,,METAR,221.0
KGBK 280715Z AUTO 00000KT 10SM CLR 24/13 A3014 RMK A01,KGBK,2018-10-28T07:15:00Z,27.2,-92.2,24.0,13.0,0,0,,10.0,30.138779,,,TRUE,TRUE,,,,,,,CLR,,,,,,,,VFR,,,,,,,,,,,,METAR,59.0
KFKR 280715Z AUTO 00000KT 3SM BR CLR 02/01 A2991 RMK AO2 T00220008,KFKR,2018-10-28T07:15:00Z,40.27,-86.57,2.2,0.8,0,0,,3.0,29.911417,,,TRUE,TRUE,,,,,,BR,CLR,,,,,,,,MVFR,,,,,,,,,,,,METAR,262.0
KFKA 280715Z AUTO 27017G21KT 10SM SCT015 BKN029 OVC085 10/08 A2967 RMK AO2 T00950077,KFKA,2018-10-28T07:15:00Z,43.68,-92.17,9.5,7.7,270,17,21,10.0,29.66929,,,TRUE,TRUE,,,,,,,SCT,1500,BKN,2900,OVC,8500,,,MVFR,,,,,,,,,,,,METAR,389.0
KF70 280715Z AUTO 00000KT 10SM CLR 15/09 A3004 RMK AO1,KF70,2018-10-28T07:15:00Z,33.57,-117.13,15.0,9.0,0,0,,10.0,30.041338,,,TRUE,TRUE,,,,,,,CLR,,,,,,,,VFR,,,,,,,,,,,,METAR,412.0
KF46 280715Z AUTO 19006KT 10SM CLR 19/17 A3003 RMK AO2 T01900173,KF46,2018-10-28T07:15:00Z,32.93,-96.43,19.0,17.3,190,6,,10.0,30.029528,,,TRUE,TRUE,,,,,,,CLR,,,,,,,,VFR,,,,,,,,,,,,METAR,176.0
KF44 280715Z AUTO 00000KT 10SM CLR 15/13 A3004 RMK AO2,KF44,2018-10-28T07:15:00Z,32.17,-95.83,15.0,13.0,0,0,,10.0,30.041338,,,TRUE,TRUE,,,,,,,CLR,,,,,,,,VFR,,,,,,,,,,,,METAR,135.0
KEVU 280715Z AUTO 33019G24KT 10SM CLR 15/00 A2986 RMK AO2,KEVU,2018-10-28T07:15:00Z,40.35,-94.92,15.0,0.0,330,19,24,10.0,29.861221,,,TRUE,TRUE,,,,,,,CLR,,,,,,,,VFR,,,,,,,,,,,,METAR,349.0
KENL 280715Z AUTO 18007KT 10SM BKN110 11/09 A2991 RMK AO2 T01070087,KENL,2018-10-28T07:15:00Z,38.52,-89.1,10.7,8.7,180,7,,10.0,29.911417,,,TRUE,TRUE,,,,,,,BKN,11000,,,,,,,VFR,,,,,,,,,,,,METAR,163.0
KEIR 280715Z AUTO VRB06KT 10SM CLR 24/16 A3014 RMK A01,KEIR,2018-10-28T07:15:00Z,28.63,-91.48,24.0,16.0,0,6,,10.0,30.138779,,,TRUE,TRUE,,,,,,,CLR,,,,,,,,VFR,,,,,,,,,,,,METAR,28.0
KE80 280715Z AUTO 32005KT 10SM CLR 08/04 A3026 RMK AO2 T00750040,KE80,2018-10-28T07:15:00Z,34.65,-106.83,7.5,4.0,320,5,,10.0,30.259842,,,TRUE,TRUE,,,,,,,CLR,,,,,,,,VFR,,,,,,,,,,,,METAR,1582.0
KDZJ 280715Z AUTO 00000KT 7SM CLR 05/05 A3003 RMK AO2 T00540052,KDZJ,2018-10-28T07:15:00Z,34.85,-84.0,5.4,5.2,0,0,,7.0,30.029528,,,TRUE,TRUE,,,,,,,CLR,,,,,,,,VFR,,,,,,,,,,,,METAR,582.0
KXPY 280715Z AUTO 00000KT 10SM CLR 19/17 A3013 RMK A01,KXPY,2018-10-28T07:15:00Z,29.12,-90.2,19.0,17.0,0,0,,10.0,30.129921,,,TRUE,TRUE,,,,,,,CLR,,,,,,,,VFR,,,,,,,,,,,,METAR,2.0
KXIH 280715Z AUTO 24009KT 10SM 23/20 A3010 RMK A01,KXIH,2018-10-28T07:15:00Z,29.18,-94.52,23.0,20.0,240,9,,10.0,30.100393,,,TRUE,TRUE,,,,,,,,,,,,,,,,,,,,,,,,,,,METAR,75.0
KXER 280715Z AUTO 00000KT 10SM CLR 24/13 A3015 RMK A01,KXER,2018-10-28T07:15:00Z,,,24.0,13.0,0,0,,10.0,30.15059,,,TRUE,TRUE,,,,,,,CLR,,,,,,,,VFR,,,,,,,,,,,,METAR,
KXBP 280715Z AUTO 00000KT 10SM CLR 16/12 A3005 RMK AO2 T01590120,KXBP,2018-10-28T07:15:00Z,33.18,-97.83,15.9,12.0,0,0,,10.0,30.050198,,,TRUE,TRUE,,,,,,,CLR,,,,,,,,VFR,,,,,,,,,,,,METAR,260.0
KWDG 280715Z AUTO 19004KT 10SM CLR 12/10 A2994 RMK AO2,KWDG,2018-10-28T07:15:00Z,36.37,-97.77,12.0,10.0,190,4,,10.0,29.940945,,,TRUE,TRUE,,,,,,,CLR,,,,,,,,VFR,,,,,,,,,,,,METAR,356.0
KW81 280715Z AUTO 26004KT 10SM CLR 08/07 A2980 RMK AO1 T00760070,KW81,2018-10-28T07:15:00Z,37.18,-78.1,7.6,7.0,260,4,,10.0,29.799213,,,TRUE,TRUE,,,,,,,CLR,,,,,,,,VFR,,,,,,,,,,,,METAR,129.0
KVQT 280715Z AUTO VRB04G11KT 10SM CLR 24/17 A3014 RMK A01,KVQT,2018-10-28T07:15:00Z,28.27,-92.27,24.0,17.0,0,4,11,10.0,30.138779,,,TRUE,TRUE,,,,,,,CLR,,,,,,,,VFR,,,,,,,,,,,,METAR,25.0
KVOA 280715Z AUTO 30010KT 10SM CLR 22/13 A3011 RMK A01,KVOA,2018-10-28T07:15:00Z,29.23,-87.78,22.0,13.0,300,10,,10.0,30.109253,,,TRUE,TRUE,,,,,,,CLR,,,,,,,,VFR,,,,,,,,,,,,METAR,53.0
KVKY 280715Z AUTO 29008KT 10SM CLR 22/14 A3013 RMK A01,KVKY,2018-10-28T07:15:00Z,29.25,-88.43,22.0,14.0,290,8,,10.0,30.129921,,,TRUE,TRUE,,,,,,,CLR,,,,,,,,VFR,,,,,,,,,,,,METAR,32.0
KVBS 280715Z AUTO 29009KT 10SM CLR 23/19 A3011 RMK A01,KVBS,2018-10-28T07:15:00Z,29.48,-93.63,23.0,19.0,290,9,,10.0,30.109253,,,TRUE,TRUE,,,,,,,CLR,,,,,,,,VFR,,,,,,,,,,,,METAR,31.0
KVAF 280715Z AUTO 21004KT 8SM CLR 24/17 A3013 RMK A01,KVAF,2018-10-28T07:15:00Z,27.35,-94.63,24.0,17.0,210,4,,8.0,30.129921,,,TRUE,TRUE,,,,,,,CLR,,,,,,,,VFR,,,,,,,,,,,,METAR,46.0
KUYF 280715Z AUTO 26005KT 7SM OVC035 06/05 A2988 RMK AO2,KUYF,2018-10-28T07:15:00Z,39.93,-83.47,6.0,5.0,260,5,,7.0,29.878937,,,TRUE,TRUE,,,,,,,OVC,3500,,,,,,,VFR,,,,,,,,,,,,METAR,330.0
KDUX 280715Z AUTO 25008KT 10SM CLR 10/05 A3007 RMK AO2 T01030045,KDUX,2018-10-28T07:15:00Z,35.85,-102.02,10.3,4.5,250,8,,10.0,30.070866,,,TRUE,TRUE,,,,,,,CLR,,,,,,,,VFR,,,,,,,,,,,,METAR,1129.0
KDSF 280715Z AUTO 32003KT 10SM CLR 24/13 A3013 RMK A01,KDSF,2018-10-28T07:15:00Z,28.35,-88.27,24.0,13.0,320,3,,10.0,30.129921,,,TRUE,TRUE,,,,,,,CLR,,,,,,,,VFR,,,,,,,,,,,,METAR,130.0
KDLP 280715Z AUTO VRB03KT 10SM CLR 22/15 A3011 RMK A01,KDLP,2018-10-28T07:15:00Z,29.12,-89.55,22.0,15.0,0,3,,10.0,30.109253,,,TRUE,TRUE,,,,,,,CLR,,,,,,,,VFR,,,,,,,,,,,,METAR,36.0
KDLO 280715Z AUTO 00000KT 10SM CLR 13/07 A3003 RMK AO2 T01270066,KDLO,2018-10-28T07:15:00Z,35.75,-119.23,12.7,6.6,0,0,,10.0,30.029528,,,TRUE,TRUE,,,,,,,CLR,,,,,,,,VFR,,,,,,,,,,,,METAR,96.0
KD39 280715Z AUTO 30020G27KT 10SM OVC020 06/04 A2968 RMK AO2 T00640037,KD39,2018-10-28T07:15:00Z,45.7,-94.93,6.4,3.7,300,20,27,10.0,29.681103,,,TRUE,TRUE,,,,,,,OVC,2000,,,,,,,MVFR,,,,,,,,,,,,METAR,380.0
KCUH 280715Z AUTO 19004KT 10SM CLR 15/10 A2995 RMK AO2 T01480099,KCUH,2018-10-28T07:15:00Z,35.95,-96.77,14.8,9.9,190,4,,10.0,29.949802,,,TRUE,TRUE,,,,,,,CLR,,,,,,,,VFR,,,,,,,,,,,,METAR,279.0
KCQB 280715Z AUTO 19006KT 10SM CLR 13/10 A2997 RMK AO2 T01290096,KCQB,2018-10-28T07:15:00Z,35.72,-96.82,12.9,9.6,190,6,,10.0,29.970472,,,TRUE,TRUE,,,,,,,CLR,,,,,,,,VFR,,,,,,,,,,,,METAR,300.0
KCNB 280715Z AUTO 31016G22KT 10SM CLR 09/04 A2985 RMK AO2 T00910043,KCNB,2018-10-28T07:15:00Z,44.73,-96.27,9.1,4.3,310,16,22,10.0,29.84941,,,TRUE,TRUE,,,,,,,CLR,,,,,,,,VFR,,,,,,,,,,,,METAR,364.0
KCKZ 280715Z AUTO 00000KT 10SM OVC008 06/06 A2970 RMK AO2,KCKZ,2018-10-28T07:15:00Z,40.38,-75.28,6.0,6.0,0,0,,10.0,29.698818,,,TRUE,TRUE,,,,,,,OVC,800,,,,,,,IFR,,,,,,,,,,,,METAR,173.0
KCFE 280715Z AUTO 26018G25KT 10SM -RA OVC022 08/05 A2963 RMK AO2 T00800047,KCFE,2018-10-28T07:15:00Z,45.17,-93.85,8.0,4.7,260,18,25,10.0,29.630905,,,TRUE,TRUE,,,,,,-RA,OVC,2200,,,,,,,MVFR,,,,,,,,,,,,METAR,295.0
KBTA 280715Z AUTO 32015G20KT 10SM CLR 12/07 A2994 RMK AO2 T01160067,KBTA,2018-10-28T07:15:00Z,41.42,-96.12,11.6,6.7,320,15,20,10.0,29.940945,,,TRUE,TRUE,,,,,,,CLR,,,,,,,,VFR,,,,,,,,,,,,METAR,396.0
KBQX 280715Z AUTO 21010KT 10SM CLR 24/19 A3013 RMK A01,KBQX,2018-10-28T07:15:00Z,28.5,-95.72,24.0,19.0,210,10,,10.0,30.129921,,,TRUE,TRUE,,,,,,,CLR,,,,,,,,VFR,,,,,,,,,,,,METAR,34.0
KBQP 280715Z AUTO 20003KT 10SM CLR 15/14 A3007 RMK AO2 T01460143,KBQP,2018-10-28T07:15:00Z,32.75,-91.88,14.6,14.3,200,3,,10.0,30.070866,,,TRUE,TRUE,,,,,,,CLR,,,,,,,,VFR,,,,,,,,,,,,METAR,51.0
KBKT 280715Z AUTO 24006KT 10SM BKN047 08/08 A2980 RMK AO1 T00750075,KBKT,2018-10-28T07:15:00Z,37.07,-77.95,7.5,7.5,240,6,,10.0,29.799213,,,TRUE,TRUE,,,,,,,BKN,4700,,,,,,,VFR,,,,,,,,,,,,METAR,134.0
KBIJ 280715Z AUTO 00000KT 10SM CLR 08/07 A3013 RMK AO2,KBIJ,2018-10-28T07:15:00Z,31.4,-84.9,8.0,7.0,0,0,,10.0,30.129921,,,TRUE,TRUE,,,,,,,CLR,,,,,,,,VFR,,,,,,,,,,,,METAR,65.0
KBIE 280715Z AUTO 34009KT 10SM CLR 13/08 A2998 RMK AO2 T01300076,KBIE,2018-10-28T07:15:00Z,40.28,-96.75,13.0,7.6,340,9,,10.0,29.97933,,,TRUE,TRUE,,,,,,,CLR,,,,,,,,VFR,,,,,,,,,,,,METAR,403.0
KBBG 280715Z AUTO 21005KT 10SM CLR 14/07 A2997 RMK AO2,KBBG,2018-10-28T07:15:00Z,36.53,-93.2,14.0,7.0,210,5,,10.0,29.970472,,,TRUE,TRUE,,,,,,,CLR,,,,,,,,VFR,,,,,,,,,,,,METAR,397.0
KBBF 280715Z AUTO 21010KT 10SM CLR 25/18 A3012 RMK A01,KBBF,2018-10-28T07:15:00Z,27.83,-96.02,25.0,18.0,210,10,,10.0,30.121063,,,TRUE,TRUE,,,,,,,CLR,,,,,,,,VFR,,,,,,,,,,,,METAR,36.0
KATW 280715Z AUTO 14008KT 10SM OVC039 06/02 A2974 RMK AO2,KATW,2018-10-28T07:15:00Z,44.27,-88.52,6.0,2.0,140,8,,10.0,29.740158,,,TRUE,TRUE,,,,,,,OVC,3900,,,,,,,VFR,,,,,,,,,,,,METAR,280.0
KATP 280715Z AUTO 04005KT 10SM CLR 23/15 A3014 RMK A01,KATP,2018-10-28T07:15:00Z,27.2,-90.03,23.0,15.0,40,5,,10.0,30.138779,,,TRUE,TRUE,,,,,,,CLR,,,,,,,,VFR,,,,,,,,,,,,METAR,62.0
KASN 280715Z AUTO 00000KT 10SM SCT039 SCT047 BKN055 07/07 A3009 RMK AO2 T00710071,KASN,2018-10-28T07:15:00Z,33.57,-86.05,7.1,7.1,0,0,,10.0,30.088583,,,TRUE,TRUE,,,,,,,SCT,3900,SCT,4700,BKN,5500,,,VFR,,,,,,,,,,,,METAR,162.0
KANW 280715Z AUTO 27006KT 10SM CLR 02/M01 A3009 RMK AO2 T00211015,KANW,2018-10-28T07:15:00Z,42.57,-100.0,2.1,-1.5,270,6,,10.0,30.088583,,,TRUE,TRUE,,,,,,,CLR,,,,,,,,VFR,,,,,,,,,,,,METAR,789.0
KAJR 280715Z AUTO 28003KT 10SM CLR 08/04 A3000 RMK AO2 T00810041,KAJR,2018-10-28T07:15:00Z,34.5,-83.55,8.1,4.1,280,3,,10.0,30.0,,,TRUE,TRUE,,,,,,,CLR,,,,,,,,VFR,,,,,,,,,,,,METAR,441.0
KAEL 280715Z AUTO 28011G19KT 10SM SCT022 SCT034 08/06 A2972 RMK AO2,KAEL,2018-10-28T07:15:00Z,43.68,-93.37,8.0,6.0,280,11,19,10.0,29.719488,,,TRUE,TRUE,,,,,,,SCT,2200,SCT,3400,,,,,VFR,,,,,,,,,,,,METAR,383.0
KADS 280715Z AUTO 00000KT 10SM CLR 19/14 A3004 RMK AO2 T01900141,KADS,2018-10-28T07:15:00Z,32.97,-96.82,19.0,14.1,0,0,,10.0,30.041338,,,TRUE,TRUE,,,,,,,CLR,,,,,,,,VFR,,,,,,,,,,,,METAR,196.0
KADM 280715Z AUTO 00000KT 10SM CLR 11/11 A3001 RMK AO2 T01100110,KADM,2018-10-28T07:15:00Z,34.28,-97.02,11.0,11.0,0,0,,10.0,30.008858,,,TRUE,TRUE,,,,,,,CLR,,,,,,,,VFR,,,,,,,,,,,,METAR,232.0
KA39 280715Z AUTO 13006KT 10SM CLR 16/10 A3006 RMK AO2,KA39,2018-10-28T07:15:00Z,32.98,-111.92,16.0,10.0,130,6,,10.0,30.059055,,,TRUE,TRUE,,,,,,,CLR,,,,,,,,VFR,,,,,,,,,,,,METAR,396.0
K9MN 280715Z AUTO 28017G29KT 10SM SCT017 BKN029 OVC036 10/07 A2964 RMK AO1 T00960068,K9MN,2018-10-28T07:15:00Z,44.02,-92.48,9.6,6.8,280,17,29,10.0,29.639763,,,TRUE,TRUE,,,,,,,SCT,1700,BKN,2900,OVC,3600,,,MVFR,,,,,,,,,,,,METAR,355.0
K6S2 280715Z AUTO 19006G15KT 10SM RA SCT005 OVC028 13/12 A2993 RMK AO2 P0001,K6S2,2018-10-28T07:15:00Z,43.98,-124.12,13.0,12.0,190,6,15,10.0,29.929134,,,TRUE,TRUE,,,,,,RA,SCT,500,OVC,2800,,,,,MVFR,,,,,,0.01,,,,,,METAR,16.0
K5R8 280715Z AUTO 00000KT 10SM CLR 13/13 A3010 RMK AO2 P0001 T01320126,K5R8,2018-10-28T07:15:00Z,30.43,-93.47,13.2,12.6,0,0,,10.0,30.100393,,,TRUE,TRUE,,,,,,,CLR,,,,,,,,VFR,,,,,,0.01,,,,,,METAR,24.0
K3D2 280715Z AUTO 13004KT 10SM OVC002 05/05 A2979 RMK AO2 T00500047,K3D2,2018-10-28T07:15:00Z,45.13,-87.18,5.0,4.7,130,4,,10.0,29.790354,,,TRUE,TRUE,,,,,,,OVC,200,,,,,,,LIFR,,,,,,,,,,,,METAR,234.0
K2G9 280715Z AUTO 24009KT 7SM DZ OVC008 05/04 A2971 RMK AO2,K2G9,2018-10-28T07:15:00Z,40.03,-79.02,5.0,4.0,240,9,,7.0,29.71063,,,TRUE,TRUE,,,,,,DZ,OVC,800,,,,,,,IFR,,,,,,,,,,,,METAR,693.0
K1K1 280715Z AUTO 29008G18KT 10SM CLR 15/09 A2994 RMK AO2 T01530090,K1K1,2018-10-28T07:15:00Z,37.77,-97.12,15.3,9.0,290,8,18,10.0,29.940945,,,TRUE,TRUE,,,,,,,CLR,,,,,,,,VFR,,,,,,,,,,,,METAR,416.0
K18H 280715Z AUTO 07004KT 10SM CLR 25/14 A3013 RMK A01,K18H,2018-10-28T07:15:00Z,26.13,-92.03,25.0,14.0,70,4,,10.0,30.129921,,,TRUE,TRUE,,,,,,,CLR,,,,,,,,VFR,,,,,,,,,,,,METAR,10.0
K0F2 280715Z AUTO 10SM CLR 13/12 A3003 RMK AO2 T01250120,K0F2,2018-10-28T07:15:00Z,33.6,-97.78,12.5,12.0,,,,10.0,30.029528,,,TRUE,TRUE,,,,,,,CLR,,,,,,,,VFR,,,,,,,,,,,,METAR,336.0
K0E0 280715Z AUTO 00000KT 10SM CLR 03/02 A3031 RMK AO2 T00270018,K0E0,2018-10-28T07:15:00Z,34.98,-106.0,2.7,1.8,0,0,,10.0,30.31004,,,TRUE,TRUE,,,,,,,CLR,,,,,,,,VFR,,,,,,,,,,,,METAR,1890.0
PAUT 280715Z AUTO 36009KT 10SM SCT030 SCT035 SCT042 04/M01 A3000 RMK AO2 T00421012,PAUT,2018-10-28T07:15:00Z,54.15,-165.6,4.2,-1.2,360,9,,10.0,30.0,,,TRUE,TRUE,,,,,,,SCT,3000,SCT,3500,SCT,4200,,,VFR,,,,,,,,,,,,METAR,25.0
KL18 280715Z AUTO 00000KT 10SM CLR 15/12 A3001 RMK AO2,KL18,2018-10-28T07:15:00Z,33.35,-117.25,15.0,12.0,0,0,,10.0,30.008858,,,TRUE,TRUE,,,,,,,CLR,,,,,,,,VFR,,,,,,,,,,,,METAR,216.0
KK88 280715Z AUTO 19007KT 10SM 11/08 A2989 RMK AO1 T01080079,KK88,2018-10-28T07:15:00Z,37.87,-95.38,10.8,7.9,190,7,,10.0,29.890747,,,TRUE,TRUE,,,,,,,,,,,,,,,,,,,,,,,,,,,METAR,309.0
KJYR 280715Z AUTO 34010G17KT 10SM CLR 10/04 A3002 RMK AO2,KJYR,2018-10-28T07:15:00Z,40.9,-97.62,10.0,4.0,340,10,17,10.0,30.02067,,,TRUE,TRUE,,,,,,,CLR,,,,,,,,VFR,,,,,,,,,,,,METAR,509.0
KJYM 280715Z AUTO 31003KT 10SM OVC010 04/02 A2984 RMK AO2,KJYM,2018-10-28T07:15:00Z,41.92,-84.58,4.0,2.0,310,3,,10.0,29.840551,,,TRUE,TRUE,,,,,,,OVC,1000,,,,,,,MVFR,,,,,,,,,,,,METAR,360.0
KJYL 280715Z AUTO 00000KT 10SM CLR 11/10 A3005 RMK AO2 T01070097,KJYL,2018-10-28T07:15:00Z,32.65,-81.6,10.7,9.7,0,0,,10.0,30.050198,,,TRUE,TRUE,,,,,,,CLR,,,,,,,,VFR,,,,,,,,,,,,METAR,57.0
KJXI 280715Z AUTO 19004KT 10SM CLR 17/15 A3003 RMK AO2 T01700151,KJXI,2018-10-28T07:15:00Z,32.7,-94.95,17.0,15.1,190,4,,10.0,30.029528,,,TRUE,TRUE,,,,,,,CLR,,,,,,,,VFR,,,,,,,,,,,,METAR,127.0
KJWG 280715Z AUTO 20008KT 10SM CLR 18/13 A2999 RMK AO2 T01760126,KJWG,2018-10-28T07:15:00Z,35.87,-98.42,17.6,12.6,200,8,,10.0,29.991142,,,TRUE,TRUE,,,,,,,CLR,,,,,,,,VFR,,,,,,,,,,,,METAR,472.0
KJSV 280715Z AUTO 00000KT 10SM CLR 09/06 A3000 RMK AO2,KJSV,2018-10-28T07:15:00Z,35.43,-94.8,9.0,6.0,0,0,,10.0,30.0,,,TRUE,TRUE,,,,,,,CLR,,,,,,,,VFR,,,,,,,,,,,,METAR,161.0
KJAQ 280715Z AUTO 16003KT 10SM CLR 16/09 A3008 RMK AO1 T01550085,KJAQ,2018-10-28T07:15:00Z,38.37,-120.8,15.5,8.5,160,3,,10.0,30.079725,,,TRUE,TRUE,,,,,,,CLR,,,,,,,,VFR,,,,,,,,,,,,METAR,512.0
KINJ 280715Z AUTO 16004KT 10SM CLR 16/15 A3004 RMK AO2 T01600150,KINJ,2018-10-28T07:15:00Z,32.08,-97.1,16.0,15.0,160,4,,10.0,30.041338,,,TRUE,TRUE,,,,,,,CLR,,,,,,,,VFR,,,,,,,,,,,,METAR,209.0
KIMS 280715Z AUTO 00000KT 10SM CLR 05/04 A2996 RMK AO1,KIMS,2018-10-28T07:15:00Z,38.75,-85.47,5.0,4.0,0,0,,10.0,29.958662,,,TRUE,TRUE,,,,,,,CLR,,,,,,,,VFR,,,,,,,,,,,,METAR,250.0
KIGQ 280715Z AUTO 17004KT 5SM BR CLR 05/05 A2985 RMK AO2 T00450045,KIGQ,2018-10-28T07:15:00Z,41.53,-87.53,4.5,4.5,170,4,,5.0,29.84941,,,TRUE,TRUE,,,,,,BR,CLR,,,,,,,,MVFR,,,,,,,,,,,,METAR,188.0
KIER 280715Z AUTO 00000KT 10SM CLR 16/15 A3007 RMK AO2 T01600151,KIER,2018-10-28T07:15:00Z,31.73,-93.1,16.0,15.1,0,0,,10.0,30.070866,,,TRUE,TRUE,,,,,,,CLR,,,,,,,,VFR,,,,,,,,,,,,METAR,37.0
KI67 280715Z AUTO 00000KT 10SM SCT050 07/04 A2992 RMK AO1,KI67,2018-10-28T07:15:00Z,39.25,-84.78,7.0,4.0,0,0,,10.0,29.920275,,,TRUE,TRUE,,,,,,,SCT,5000,,,,,,,VFR,,,,,,,,,,,,METAR,178.0
KI35 280715Z AUTO 27003KT 10SM OVC017 07/06 A2999 RMK AO2 T00720060,KI35,2018-10-28T07:15:00Z,36.87,-83.37,7.2,6.0,270,3,,10.0,29.991142,,,TRUE,TRUE,,,,,,,OVC,1700,,,,,,,MVFR,,,,,,,,,,,,METAR,473.0
KHYX 280715Z AUTO 30004KT 10SM SCT004 OVC012 05/03 A2983 RMK AO2,KHYX,2018-10-28T07:15:00Z,43.43,-83.87,5.0,3.0,300,4,,10.0,29.828741,,,TRUE,TRUE,,,,,,,SCT,400,OVC,1200,,,,,MVFR,,,,,,,,,,,,METAR,183.0
KHUM 280715Z AUTO 00000KT 7SM CLR 13/13 A3012 RMK AO2 T01300128,KHUM,2018-10-28T07:15:00Z,29.57,-90.67,13.0,12.8,0,0,,7.0,30.121063,,,TRUE,TRUE,,,,,,,CLR,,,,,,,,VFR,,,,,,,,,,,,METAR,3.0
KHSB 280715Z AUTO 00000KT 7SM SCT120 05/05 A2996 RMK AO2 T00500050,KHSB,2018-10-28T07:15:00Z,37.82,-88.55,5.0,5.0,0,0,,7.0,29.958662,,,TRUE,TRUE,,,,,,,SCT,12000,,,,,,,VFR,,,,,,,,,,,,METAR,121.0
KHRX 280715Z AUTO 00000KT 10SM CLR 08/07 A3010 RMK AO2 T00830065,KHRX,2018-10-28T07:15:00Z,34.87,-102.33,8.3,6.5,0,0,,10.0,30.100393,,,TRUE,TRUE,,,,,,,CLR,,,,,,,,VFR,,,,,,,,,,,,METAR,1154.0
KHQZ 280715Z AUTO 00000KT 10SM CLR 14/14 A3003 RMK AO1 T01410139,KHQZ,2018-10-28T07:15:00Z,32.75,-96.53,14.1,13.9,0,0,,10.0,30.029528,,,TRUE,TRUE,,,,,,,CLR,,,,,,,,VFR,,,,,,,,,,,,METAR,136.0
KHMZ 280715Z AUTO 00000KT 3SM UP SCT004 OVC017 06/06 A2971 RMK AO2 T00610057,KHMZ,2018-10-28T07:15:00Z,40.08,-78.52,6.1,5.7,0,0,,3.0,29.71063,,,TRUE,TRUE,,,,,,UP,SCT,400,OVC,1700,,,,,MVFR,,,,,,,,,,,,METAR,354.0
KHMP 280715Z AUTO 00000KT 7SM SCT040 07/06 A3007 RMK AO2 T00700063,KHMP,2018-10-28T07:15:00Z,33.38,-84.33,7.0,6.3,0,0,,7.0,30.070866,,,TRUE,TRUE,,,,,,,SCT,4000,,,,,,,VFR,,,,,,,,,,,,METAR,269.0
KHHF 280715Z AUTO 00000KT 10SM CLR 12/07 A3002 RMK AO2 T01180072,KHHF,2018-10-28T07:15:00Z,35.9,-100.4,11.8,7.2,0,0,,10.0,30.02067,,,TRUE,TRUE,,,,,,,CLR,,,,,,,,VFR,,,,,,,,,,,,METAR,712.0
KHFY 280715Z AUTO 00000KT 7SM CLR 05/05 A2992 RMK AO2 T00500045,KHFY,2018-10-28T07:15:00Z,39.63,-86.08,5.0,4.5,0,0,,7.0,29.920275,,,TRUE,TRUE,,,,,,,CLR,,,,,,,,VFR,,,,,,,,,,,,METAR,251.0
KHFJ 280715Z AUTO 00000KT 10SM CLR 13/07 A2994 RMK AO2,KHFJ,2018-10-28T07:15:00Z,36.9,-94.02,13.0,7.0,0,0,,10.0,29.940945,,,TRUE,TRUE,,,,,,,CLR,,,,,,,,VFR,,,,,,,,,,,,METAR,401.0
KHAE 280715Z AUTO 18006KT 10SM OVC110 12/05 A2982 RMK AO2,KHAE,2018-10-28T07:15:00Z,39.73,-91.45,12.0,5.0,180,6,,10.0,29.819881,,,TRUE,TRUE,,,,,,,OVC,11000,,,,,,,VFR,,,,,,,,,,,,METAR,234.0
KGYB 280715Z AUTO 00000KT 10SM CLR 15/13 A3011 RMK AO2 T01530130,KGYB,2018-10-28T07:15:00Z,30.17,-96.98,15.3,13.0,0,0,,10.0,30.109253,,,TRUE,TRUE,,,,,,,CLR,,,,,,,,VFR,,,,,,,,,,,,METAR,148.0
KGWB 280715Z AUTO 00000KT 10SM OVC049 05/04 A2986 RMK AO2,KGWB,2018-10-28T07:15:00Z,41.3,-85.07,5.0,4.0,0,0,,10.0,29.861221,,,TRUE,TRUE,,,,,,,OVC,4900,,,,,,,VFR,,,,,,,,,,,,METAR,269.0
KGPM 280715Z AUTO 18003KT 10SM CLR 17/14 A3003 RMK AO2 T01710138,KGPM,2018-10-28T07:15:00Z,32.7,-97.05,17.1,13.8,180,3,,10.0,30.029528,,,TRUE,TRUE,,,,,,,CLR,,,,,,,,VFR,,,,,,,,,,,,METAR,180.0
KGPC 280715Z AUTO 00000KT 4SM BR CLR 04/03 A2991 RMK AO2,KGPC,2018-10-28T07:15:00Z,39.63,-86.82,4.0,3.0,0,0,,4.0,29.911417,,,TRUE,TRUE,,,,,,BR,CLR,,,,,,,,MVFR,,,,,,,,,,,,METAR,257.0
KGMJ 280715Z AUTO 00000KT 10SM CLR 13/08 A2996 RMK AO2,KGMJ,2018-10-28T07:15:00Z,36.6,-94.73,13.0,8.0,0,0,,10.0,29.958662,,,TRUE,TRUE,,,,,,,CLR,,,,,,,,VFR,,,,,,,,,,,,SPECI,254.0
KGLW 280715Z AUTO 00000KT 1/2SM FG OVC003 04/04 A3001 RMK AO2 T00400036,KGLW,2018-10-28T07:15:00Z,37.03,-85.95,4.0,3.6,0,0,,0.5,30.008858,,,TRUE,TRUE,,,,,,FG,OVC,300,,,,,,,LIFR,,,,,,,,,,,,SPECI,218.0
KGDB 280715Z AUTO 28015KT 10SM OVC021 08/05 A2981 RMK AO2 T00770052,KGDB,2018-10-28T07:15:00Z,44.75,-95.55,7.7,5.2,280,15,,10.0,29.811024,,,TRUE,TRUE,,,,,,,OVC,2100,,,,,,,MVFR,,,,,,,,,,,,METAR,319.0
KGCD 280715Z AUTO 00000KT 10SM CLR 14/08 A2996 RMK AO2 T01390080,KGCD,2018-10-28T07:15:00Z,44.38,-118.97,13.9,8.0,0,0,,10.0,29.958662,,,TRUE,TRUE,,,,,,,CLR,,,,,,,,VFR,,,,,,,,,,,,METAR,1127.0
KW31 280715Z AUTO 26003KT 10SM CLR 07/07 A2981 RMK AO1 T00710067,KW31,2018-10-28T07:15:00Z,36.95,-78.18,7.1,6.7,260,3,,10.0,29.811024,,,TRUE,TRUE,,,,,,,CLR,,,,,,,,VFR,,,,,,,,,,,,SPECI,162.0
KW13 280715Z AUTO 27004KT 10SM SCT050 SCT065 OVC075 08/03 A2978 RMK AO1 T00810031,KW13,2018-10-28T07:15:00Z,38.08,-78.95,8.1,3.1,270,4,,10.0,29.778543,,,TRUE,TRUE,,,,,,,SCT,5000,SCT,6500,OVC,7500,,,VFR,,,,,,,,,,,,SPECI,443.0
KVBW 280715Z AUTO 00000KT 10SM SCT040 SCT070 OVC080 08/05 A2977 RMK AO2 T00790052,KVBW,2018-10-28T07:15:00Z,38.37,-78.97,7.9,5.2,0,0,,10.0,29.769686,,,TRUE,TRUE,,,,,,,SCT,4000,SCT,7000,OVC,8000,,,VFR,,,,,,,,,,,,SPECI,355.0
KUVA 280715Z AUTO 00000KT 10SM CLR 13/12 A3014 RMK AO2 T01300122,KUVA,2018-10-28T07:15:00Z,29.22,-99.75,13.0,12.2,0,0,,10.0,30.138779,,,TRUE,TRUE,,,,,,,CLR,,,,,,,,VFR,,,,,,,,,,,,METAR,287.0
KUNV 280715Z AUTO 00000KT 10SM -RA SCT006 BKN012 OVC031 04/04 A2971 RMK AO2 T00430040,KUNV,2018-10-28T07:15:00Z,40.85,-77.83,4.3,4.0,0,0,,10.0,29.71063,,,TRUE,TRUE,,,,,,-RA,SCT,600,BKN,1200,OVC,3100,,,MVFR,,,,,,,,,,,,METAR,378.0
KUNI 280715Z AUTO 25005KT 10SM SCT011 SCT016 BKN042 06/06 A2989 RMK AO2 T00620062,KUNI,2018-10-28T07:15:00Z,39.22,-82.23,6.2,6.2,250,5,,10.0,29.890747,,,TRUE,TRUE,,,,,,,SCT,1100,SCT,1600,BKN,4200,,,VFR,,,,,,,,,,,,METAR,193.0
KUES 280715Z AUTO 16006KT 7SM SCT037 05/03 A2980 RMK AO2,KUES,2018-10-28T07:15:00Z,43.05,-88.25,5.0,3.0,160,6,,7.0,29.799213,,,TRUE,TRUE,,,,,,,SCT,3700,,,,,,,VFR,,,,,,,,,,,,METAR,278.0
KUBE 280715Z AUTO 00000KT 4SM RA OVC005 06/05 A2958 RMK AO2 P0003,KUBE,2018-10-28T07:15:00Z,45.5,-91.98,6.0,5.0,0,0,,4.0,29.58071,,,TRUE,TRUE,,,,,,RA,OVC,500,,,,,,,IFR,,,,,,0.03,,,,,,METAR,379.0
KU68 280715Z AUTO 03003KT 10SM CLR 02/M41 A3014 RMK AO2,KU68,2018-10-28T07:15:00Z,44.92,-108.45,2.0,-41.0,30,3,,10.0,30.138779,,,TRUE,TRUE,,,,,,,CLR,,,,,,,,VFR,,,,,,,,,,,,METAR,1247.0
KU42 280715Z AUTO 20007KT 10SM CLR 11/03 A3015 RMK AO1 T01120025,KU42,2018-10-28T07:15:00Z,40.62,-111.98,11.2,2.5,200,7,,10.0,30.15059,,,TRUE,TRUE,,,,,,,CLR,,,,,,,,VFR,,,,,,,,,,,,METAR,1402.0
KTZR 280715Z AUTO 26005KT 10SM OVC037 06/05 A2988 RMK AO2 T00610051,KTZR,2018-10-28T07:15:00Z,39.9,-83.13,6.1,5.1,260,5,,10.0,29.878937,,,TRUE,TRUE,,,,,,,OVC,3700,,,,,,,VFR,,,,,,,,,,,,METAR,276.0
KTYQ 280715Z AUTO 00000KT 1/4SM FG VV002 02/02 A2991 RMK AO2 T00230023,KTYQ,2018-10-28T07:15:00Z,40.03,-86.25,2.3,2.3,0,0,,0.25,29.911417,,,TRUE,TRUE,,,,,,FG,OVX,0,,,,,,,LIFR,,,,,,,,,,,200,METAR,281.0
KTTF 280715Z AUTO 28006KT 10SM OVC017 04/04 A2984 RMK AO2 T00420037,KTTF,2018-10-28T07:15:00Z,41.93,-83.42,4.2,3.7,280,6,,10.0,29.840551,,,TRUE,TRUE,,,,,,,OVC,1700,,,,,,,MVFR,,,,,,,,,,,,METAR,188.0
KTKV 280715Z AUTO 11003KT 4SM RA OVC011 05/03 A2970 RMK AO2 T00460030,KTKV,2018-10-28T07:15:00Z,45.47,-89.82,4.6,3.0,110,3,,4.0,29.698818,,,TRUE,TRUE,,,,,,RA,OVC,1100,,,,,,,MVFR,,,,,,,,,,,,METAR,453.0
KTBX 280715Z AUTO 14015KT 10SM CLR 03/00 A3028 RMK AO2,KTBX,2018-10-28T07:15:00Z,43.47,-108.23,3.0,0.0,140,15,,10.0,30.280512,,,TRUE,TRUE,,,,,,,CLR,,,,,,,,VFR,,,,,,,,,,,,METAR,2225.0
KSXU 280715Z AUTO 25006KT 10SM CLR 11/03 A3015 RMK AO2 T01120029,KSXU,2018-10-28T07:15:00Z,34.93,-104.65,11.2,2.9,250,6,,10.0,30.15059,,,TRUE,TRUE,,,,,,,CLR,,,,,,,,VFR,,,,,,,,,,,,METAR,1460.0
KSNK 280715Z AUTO 21007KT 10SM CLR 14/11 A3011 RMK AO2 T01380110,KSNK,2018-10-28T07:15:00Z,32.7,-100.95,13.8,11.0,210,7,,10.0,30.109253,,,TRUE,TRUE,,,,,,,CLR,,,,,,,,VFR,,,,,,,,,,,,METAR,741.0
KSLO 280715Z AUTO 18007KT 10SM OVC110 11/08 A2991 RMK AO2 T01110077,KSLO,2018-10-28T07:15:00Z,38.65,-88.97,11.1,7.7,180,7,,10.0,29.911417,,,TRUE,TRUE,,,,,,,OVC,11000,,,,,,,VFR,,,,,,,,,,,,METAR,175.0
KSEZ 280715Z AUTO 02012KT 10SM CLR 15/00 A3023 RMK AO2,KSEZ,2018-10-28T07:15:00Z,34.85,-111.78,15.0,0.0,20,12,,10.0,30.230314,,,TRUE,TRUE,,,,,,,CLR,,,,,,,,VFR,,,,,,,,,,,,METAR,1473.0
KSEP 280715Z AUTO 00000KT 10SM CLR 16/11 A3009 RMK AO2 T01620113,KSEP,2018-10-28T07:15:00Z,32.22,-98.17,16.2,11.3,0,0,,10.0,30.088583,,,TRUE,TRUE,,,,,,,CLR,,,,,,,,VFR,,,,,,,,,,,,METAR,402.0
KSAR 280715Z AUTO 19007KT 10SM CLR 11/10 A2992 RMK AO2 T01050095,KSAR,2018-10-28T07:15:00Z,38.15,-89.7,10.5,9.5,190,7,,10.0,29.920275,,,TRUE,TRUE,,,,,,,CLR,,,,,,,,VFR,,,,,,,,,,,,METAR,164.0
KSAA 280715Z AUTO 00000KT 10SM CLR 02/M01 A3026 RMK AO2,KSAA,2018-10-28T07:15:00Z,41.45,-106.83,2.0,-1.0,0,0,,10.0,30.259842,,,TRUE,TRUE,,,,,,,CLR,,,,,,,,VFR,,,,,,,,,,,,METAR,2138.0
KRZN 280715Z AUTO 00000KT 4SM -DZ SCT006 OVC011 07/06 A2957 RMK AO2 T00670061,KRZN,2018-10-28T07:15:00Z,45.82,-92.37,6.7,6.1,0,0,,4.0,29.568897,,,TRUE,TRUE,,,,,,-DZ,SCT,600,OVC,1100,,,,,MVFR,,,,,,,,,,,,METAR,301.0
KRYW 280715Z AUTO 23005KT 10SM CLR 19/14 A3012 RMK AO2 T01910137,KRYW,2018-10-28T07:15:00Z,30.5,-97.97,19.1,13.7,230,5,,10.0,30.121063,,,TRUE,TRUE,,,,,,,CLR,,,,,,,,VFR,,,,,,,,,,,,METAR,376.0
KRSV 280715Z AUTO 00000KT 10SM CLR 03/03 A2993 RMK AO2 T00300030,KRSV,2018-10-28T07:15:00Z,39.02,-87.65,3.0,3.0,0,0,,10.0,29.929134,,,TRUE,TRUE,,,,,,,CLR,,,,,,,,VFR,,,,,,,,,,,,METAR,141.0
KRSN 280715Z AUTO 21005KT 10SM CLR 16/14 A3009 RMK AO2 T01600143,KRSN,2018-10-28T07:15:00Z,32.52,-92.58,16.0,14.3,210,5,,10.0,30.088583,,,TRUE,TRUE,,,,,,,CLR,,,,,,,,VFR,,,,,,,,,,,,SPECI,95.0
KRQB 280715Z AUTO 00000KT 10SM OVC010 04/03 A2983 RMK AO2 T00360025,KRQB,2018-10-28T07:15:00Z,43.72,-85.5,3.6,2.5,0,0,,10.0,29.828741,,,TRUE,TRUE,,,,,,,OVC,1000,,,,,,,MVFR,,,,,,,,,,,,METAR,302.0
KRMY 280715Z AUTO 00000KT 10SM BKN010 OVC034 05/04 A2985 RMK AO2 T00540040,KRMY,2018-10-28T07:15:00Z,42.23,-84.95,5.4,4.0,0,0,,10.0,29.84941,,,TRUE,TRUE,,,,,,,BKN,1000,OVC,3400,,,,,MVFR,,,,,,,,,,,,METAR,287.0
KRKR 280715Z AUTO 19004KT 10SM CLR 11/10 A3000 RMK AO2,KRKR,2018-10-28T07:15:00Z,35.02,-94.62,11.0,10.0,190,4,,10.0,30.0,,,TRUE,TRUE,,,,,,,CLR,,,,,,,,VFR,,,,,,,,,,,,SPECI,138.0
KPYX 280715Z AUTO 26007KT 10SM CLR 13/07 A3002 RMK AO2 T01300070,KPYX,2018-10-28T07:15:00Z,36.42,-100.75,13.0,7.0,260,7,,10.0,30.02067,,,TRUE,TRUE,,,,,,,CLR,,,,,,,,VFR,,,,,,,,,,,,METAR,889.0
KPWC 280715Z AUTO 35015G23KT 5SM RA BKN007 OVC015 06/05 A2968 RMK AO2,KPWC,2018-10-28T07:15:00Z,46.72,-94.37,6.0,5.0,350,15,23,5.0,29.681103,,,TRUE,TRUE,,,,,,RA,BKN,700,OVC,1500,,,,,IFR,,,,,,,,,,,,METAR,395.0
KPVJ 280715Z AUTO 00000KT 10SM CLR 13/12 A3000 RMK AO2 T01260116,KPVJ,2018-10-28T07:15:00Z,34.72,-97.22,12.6,11.6,0,0,,10.0,30.0,,,TRUE,TRUE,,,,,,,CLR,,,,,,,,VFR,,,,,,,,,,,,SPECI,295.0
KPVB 280715Z AUTO 18010G15KT 7SM SCT050 OVC055 08/07 A2973 RMK AO1 T00760074,KPVB,2018-10-28T07:15:00Z,42.68,-90.43,7.6,7.4,180,10,15,7.0,29.731298,,,TRUE,TRUE,,,,,,,SCT,5000,OVC,5500,,,,,VFR,,,,,,,,,,,,METAR,313.0
KY70 280715Z AUTO 00000KT 10SM OVC009 04/02 A2985 RMK AO2 T00440021,KY70,2018-10-28T07:15:00Z,42.93,-85.07,4.4,2.1,0,0,,10.0,29.84941,,,TRUE,TRUE,,,,,,,OVC,900,,,,,,,IFR,,,,,,,,,,,,METAR,250.0
KXSA 280715Z AUTO 00000KT 10SM OVC006 11/11 A2977 RMK AO2 T01080107,KXSA,2018-10-28T07:15:00Z,37.87,-76.9,10.8,10.7,0,0,,10.0,29.769686,,,TRUE,TRUE,,,,,,,OVC,600,,,,,,,IFR,,,,,,,,,,,,SPECI,42.0
KWWR 280715Z AUTO 23009KT 10SM CLR 12/05 A3001 RMK AO2,KWWR,2018-10-28T07:15:00Z,36.45,-99.52,12.0,5.0,230,9,,10.0,30.008858,,,TRUE,TRUE,,,,,,,CLR,,,,,,,,VFR,,,,,,,,,,,,SPECI,667.0
KW99 280715Z AUTO 00000KT 10SM -DZ BKN041 OVC080 09/04 A2976 RMK AO2 T00900036,KW99,2018-10-28T07:15:00Z,39.0,-79.15,9.0,3.6,0,0,,10.0,29.760826,,,TRUE,TRUE,,,,,,-DZ,BKN,4100,OVC,8000,,,,,VFR,,,,,,,,,,,,METAR,293.0
KW96 280715Z AUTO 25003KT 10SM SCT100 OVC120 11/10 A2977 RMK AO1 T01050100,KW96,2018-10-28T07:15:00Z,37.5,-77.12,10.5,10.0,250,3,,10.0,29.769686,,,TRUE,TRUE,,,,,,,SCT,10000,OVC,12000,,,,,VFR,,,,,,,,,,,,SPECI,37.0
KW75 280715Z AUTO 22004KT 10SM OVC120 12/12 A2976 RMK AO1 T01150115,KW75,2018-10-28T07:15:00Z,37.6,-76.45,11.5,11.5,220,4,,10.0,29.760826,,,TRUE,TRUE,,,,,,,OVC,12000,,,,,,,VFR,,,,,,,,,,,,SPECI,9.0
KPUJ 280715Z AUTO 28003KT 10SM CLR 07/07 A3006 RMK AO2,KPUJ,2018-10-28T07:15:00Z,33.92,-84.93,7.0,7.0,280,3,,10.0,30.059055,,,TRUE,TRUE,,,,,,,CLR,,,,,,,,VFR,,,,,,,,,,,,SPECI,393.0
KPTB 280715Z AUTO 24007KT 10SM CLR 09/07 A2980 RMK AO2 T00850065,KPTB,2018-10-28T07:15:00Z,37.17,-77.52,8.5,6.5,240,7,,10.0,29.799213,,,TRUE,TRUE,,,,,,,CLR,,,,,,,,VFR,,,,,,,,,,,,SPECI,59.0
KPRS 280715Z AUTO 35007KT 10SM CLR 16/09 A3017 RMK AO2 T01600088,KPRS,2018-10-28T07:15:00Z,29.63,-104.35,16.0,8.8,350,7,,10.0,30.171259,,,TRUE,TRUE,,,,,,,CLR,,,,,,,,VFR,,,,,,,,,,,,METAR,896.0
KPKV 280715Z AUTO 21004KT 1SM BR VV007 19/18 A3013 RMK AO2 T01850176,KPKV,2018-10-28T07:15:00Z,28.65,-96.68,18.5,17.6,210,4,,1.0,30.129921,,,TRUE,TRUE,,,,,,BR,OVX,0,,,,,,,LIFR,,,,,,,,,,,700,METAR,9.0
KPIM 280715Z AUTO 00000KT 10SM BKN050 07/07 A3008 RMK AO2 T00700065 PWINO,KPIM,2018-10-28T07:15:00Z,32.83,-84.88,7.0,6.5,0,0,,10.0,30.079725,,,TRUE,TRUE,,,,,TRUE,,BKN,5000,,,,,,,VFR,,,,,,,,,,,,SPECI,275.0
KPEZ 280715Z AUTO 00000KT 10SM CLR 15/14 A3013 RMK AO2 T01500139,KPEZ,2018-10-28T07:15:00Z,28.95,-98.52,15.0,13.9,0,0,,10.0,30.129921,,,TRUE,TRUE,,,,,,,CLR,,,,,,,,VFR,,,,,,,,,,,,METAR,132.0
KPCD 280715Z AUTO 09004KT 10SM CLR 08/07 A2992 RMK AO2 T00750067,KPCD,2018-10-28T07:15:00Z,37.87,-89.87,7.5,6.7,90,4,,10.0,29.920275,,,TRUE,TRUE,,,,,,,CLR,,,,,,,,VFR,,,,,,,,,,,,SPECI,113.0
KOWP 280715Z AUTO 21005KT 10SM CLR 19/10 A2995 RMK AO2 T01900097,KOWP,2018-10-28T07:15:00Z,36.18,-96.15,19.0,9.7,210,5,,10.0,29.949802,,,TRUE,TRUE,,,,,,,CLR,,,,,,,,VFR,,,,,,,,,,,,SPECI,272.0
KOVL 280715Z AUTO 30019G25KT 10SM OVC020 07/05 A2975 RMK AO2,KOVL,2018-10-28T07:15:00Z,44.78,-95.03,7.0,5.0,300,19,25,10.0,29.749016,,,TRUE,TRUE,,,,,,,OVC,2000,,,,,,,MVFR,,,,,,,,,,,,METAR,328.0
KOOA 280715Z AUTO 35004KT 10SM OVC080 11/08 A2979 RMK AO2 T01110080,KOOA,2018-10-28T07:15:00Z,41.23,-92.5,11.1,8.0,350,4,,10.0,29.790354,,,TRUE,TRUE,,,,,,,OVC,8000,,,,,,,VFR,,,,,,,,,,,,METAR,256.0
KOLE 280715Z AUTO 30003KT 1/4SM FG OVC002 00/00 A2968 RMK AO2,KOLE,2018-10-28T07:15:00Z,42.23,-78.37,0.0,0.0,300,3,,0.25,29.681103,,,TRUE,TRUE,,,,,,FG,OVC,200,,,,,,,LIFR,,,,,,,,,,,,METAR,651.0
KOJA 280715Z AUTO 20006KT 10SM CLR 16/12 A2999 RMK AO2,KOJA,2018-10-28T07:15:00Z,35.55,-98.67,16.0,12.0,200,6,,10.0,29.991142,,,TRUE,TRUE,,,,,,,CLR,,,,,,,,VFR,,,,,,,,,,,,SPECI,490.0
KOBE 280715Z AUTO 33003KT 15/13 A3007 RMK AO2 PWINO,KOBE,2018-10-28T07:15:00Z,27.27,-80.85,15.0,13.0,330,3,,,30.070866,,,TRUE,TRUE,,,,,TRUE,,,,,,,,,,,,,,,,,,,,,,SPECI,11.0
KO54 280715Z AUTO 19003KT 10SM CLR 13/08 A3007 RMK AO1,KO54,2018-10-28T07:15:00Z,40.75,-122.92,13.0,8.0,190,3,,10.0,30.070866,,,TRUE,TRUE,,,,,,,CLR,,,,,,,,VFR,,,,,,,,,,,,METAR,717.0
KN03 280715Z AUTO 25003KT 3SM -RA BKN010 OVC013 02/02 A2966 RMK AO2,KN03,2018-10-28T07:15:00Z,42.6,-76.22,2.0,2.0,250,3,,3.0,29.660433,,,TRUE,TRUE,,,,,,-RA,BKN,1000,OVC,1300,,,,,MVFR,,,,,,,,,,,,METAR,366.0
KMRT 280715Z AUTO 28006KT 10SM SCT020 SCT025 OVC034 06/05 A2988 RMK AO2 T00580047,KMRT,2018-10-28T07:15:00Z,40.22,-83.35,5.8,4.7,280,6,,10.0,29.878937,,,TRUE,TRUE,,,,,,,SCT,2000,SCT,2500,OVC,3400,,,VFR,,,,,,,,,,,,METAR,312.0
KMOP 280715Z AUTO 00000KT 10SM OVC011 04/02 A2984 RMK AO2 T00350023,KMOP,2018-10-28T07:15:00Z,43.62,-84.73,3.5,2.3,0,0,,10.0,29.840551,,,TRUE,TRUE,,,,,,,OVC,1100,,,,,,,MVFR,,,,,,,,,,,,METAR,230.0
KMNZ 280715Z AUTO 24008KT 10SM CLR 18/13 A3009 RMK AO2 T01780125,KMNZ,2018-10-28T07:15:00Z,31.67,-98.15,17.8,12.5,240,8,,10.0,30.088583,,,TRUE,TRUE,,,,,,,CLR,,,,,,,,VFR,,,,,,,,,,,,METAR,396.0
KMNE 280715Z AUTO 00000KT 7SM CLR 15/15 A3006 RMK AO2 T01520145,KMNE,2018-10-28T07:15:00Z,32.65,-93.3,15.2,14.5,0,0,,7.0,30.059055,,,TRUE,TRUE,,,,,,,CLR,,,,,,,,VFR,,,,,,,,,,,,SPECI,85.0
KMMH 280715Z AUTO 00000KT 10SM CLR 00/M11 A3031 RMK AO2 T10021112,KMMH,2018-10-28T07:15:00Z,37.62,-118.82,-0.2,-11.2,0,0,,10.0,30.31004,,,TRUE,TRUE,,,,,,,CLR,,,,,,,,VFR,,,,,,,,,,,,METAR,2173.0
KMKN 280715Z 10SM CLR 19/12 A3008 RMK AO2 T01870121,KMKN,2018-10-28T07:15:00Z,31.92,-98.6,18.7,12.1,,,,10.0,30.079725,,,,TRUE,,,,,,,CLR,,,,,,,,VFR,,,,,,,,,,,,METAR,423.0
KMJQ 280715Z 29020G26KT 10SM CLR 07/03 A2982 RMK AO2 PWINO,KMJQ,2018-10-28T07:15:00Z,43.63,-94.97,7.0,3.0,290,20,26,10.0,29.819881,,,,TRUE,,,,,TRUE,,CLR,,,,,,,,VFR,,,,,,,,,,,,METAR,441.0
KMGG 280715Z AUTO 27016G22KT 10SM -RA OVC022 08/06 A2963 RMK AO2 T00810060,KMGG,2018-10-28T07:15:00Z,45.23,-93.98,8.1,6.0,270,16,22,10.0,29.630905,,,TRUE,TRUE,,,,,,-RA,OVC,2200,,,,,,,MVFR,,,,,,,,,,,,METAR,313.0
KMFV 280715Z AUTO 24005KT 10SM SCT016 BKN022 OVC033 13/12 A2976 RMK AO2 T01300122,KMFV,2018-10-28T07:15:00Z,37.63,-75.77,13.0,12.2,240,5,,10.0,29.760826,,,TRUE,TRUE,,,,,,,SCT,1600,BKN,2200,OVC,3300,,,MVFR,,,,,,,,,,,,SPECI,15.0
KLZZ 280715Z AUTO 26004KT 10SM CLR 16/13 A3009 RMK AO2 T01620125,KLZZ,2018-10-28T07:15:00Z,31.1,-98.2,16.2,12.5,260,4,,10.0,30.088583,,,TRUE,TRUE,,,,,,,CLR,,,,,,,,VFR,,,,,,,,,,,,METAR,371.0
KLXY 280715Z AUTO 21008KT 10SM CLR 19/15 A3006 RMK AO2 T01850145,KLXY,2018-10-28T07:15:00Z,31.63,-96.52,18.5,14.5,210,8,,10.0,30.059055,,,TRUE,TRUE,,,,,,,CLR,,,,,,,,VFR,,,,,,,,,,,,METAR,166.0
KLXL 280715Z AUTO 30017G25KT 5SM -RA SCT012 BKN017 OVC032 06/06 A2960 RMK AO2,KLXL,2018-10-28T07:15:00Z,45.95,-94.33,6.0,6.0,300,17,25,5.0,29.601377,,,TRUE,TRUE,,,,,,-RA,SCT,1200,BKN,1700,OVC,3200,,,MVFR,,,,,,,,,,,,METAR,342.0
KLNC 280715Z AUTO 00000KT 10SM CLR 17/14 A3004 RMK AO2 T01650144,KLNC,2018-10-28T07:15:00Z,32.58,-96.72,16.5,14.4,0,0,,10.0,30.041338,,,TRUE,TRUE,,,,,,,CLR,,,,,,,,VFR,,,,,,,,,,,,METAR,153.0
KLNA 280715Z AUTO 32006KT 10SM CLR 19/15 A3005 RMK AO2 T01910148,KLNA,2018-10-28T07:15:00Z,26.6,-80.02,19.1,14.8,320,6,,10.0,30.050198,,,TRUE,TRUE,,,,,,,CLR,,,,,,,,VFR,,,,,,,,,,,,METAR,11.0
KLMO 280715Z AUTO 00000KT 10SM CLR 06/02 A3027 RMK AO2 T00550022,KLMO,2018-10-28T07:15:00Z,40.17,-105.17,5.5,2.2,0,0,,10.0,30.268702,,,TRUE,TRUE,,,,,,,CLR,,,,,,,,VFR,,,,,,,,,,,,METAR,1541.0
KLJF 280715Z AUTO 29020G27KT 10SM OVC024 08/06 A2968 RMK AO2,KLJF,2018-10-28T07:15:00Z,45.1,-94.52,8.0,6.0,290,20,27,10.0,29.681103,,,TRUE,TRUE,,,,,,,OVC,2400,,,,,,,MVFR,,,,,,,,,,,,METAR,348.0
KLHM 280715Z AUTO 15006KT 10SM CLR 18/12 A3001 RMK AO1,KLHM,2018-10-28T07:15:00Z,38.92,-121.35,18.0,12.0,150,6,,10.0,30.008858,,,TRUE,TRUE,,,,,,,CLR,,,,,,,,VFR,,,,,,,,,,,,METAR,37.0
KLHB 280715Z AUTO 18005KT 10SM CLR 16/14 A3009 RMK AO2 T01630140,KLHB,2018-10-28T07:15:00Z,30.87,-96.62,16.3,14.0,180,5,,10.0,30.088583,,,TRUE,TRUE,,,,,,,CLR,,,,,,,,VFR,,,,,,,,,,,,METAR,87.0
KGAO 280715Z AUTO 00000KT 3/4SM HZ VV005 12/09 A3013 RMK AO2 T01200087,KGAO,2018-10-28T07:15:00Z,29.45,-90.27,12.0,8.7,0,0,,0.75,30.129921,,,TRUE,TRUE,,,,,,HZ,OVX,0,,,,,,,LIFR,,,,,,,,,,,500,SPECI,1.0
KFXY 280715Z AUTO 30015G21KT 10SM SCT025 08/06 A2977 RMK AO2,KFXY,2018-10-28T07:15:00Z,43.23,-93.62,8.0,6.0,300,15,21,10.0,29.769686,,,TRUE,TRUE,,,,,,,SCT,2500,,,,,,,VFR,,,,,,,,,,,,METAR,375.0
KFSW 280715Z AUTO 19005KT 10SM OVC090 12/08 A2979 RMK AO2,KFSW,2018-10-28T07:15:00Z,40.67,-91.32,12.0,8.0,190,5,,10.0,29.790354,,,TRUE,TRUE,,,,,,,OVC,9000,,,,,,,VFR,,,,,,,,,,,,METAR,221.0
KFSO 280715Z AUTO 35004KT 10SM OVC008 02/02 A2971 RMK AO2 T00170016,KFSO,2018-10-28T07:15:00Z,44.93,-73.1,1.7,1.6,350,4,,10.0,29.71063,,,TRUE,TRUE,,,,,,,OVC,800,,,,,,,IFR,,,,,,,,,,,,METAR,70.0
KFRR 280715Z AUTO 24004KT 10SM OVC070 09/07 A2974 RMK AO1,KFRR,2018-10-28T07:15:00Z,38.92,-78.25,9.0,7.0,240,4,,10.0,29.740158,,,TRUE,TRUE,,,,,,,OVC,7000,,,,,,,VFR,,,,,,,,,,,,SPECI,216.0
KFLY 280715Z AUTO 01007KT 10SM CLR 05/01 A3029 RMK AO2 T00470008,KFLY,2018-10-28T07:15:00Z,38.95,-104.57,4.7,0.8,10,7,,10.0,30.28937,,,TRUE,TRUE,,,,,,,CLR,,,,,,,,VFR,,,,,,,,,,,,METAR,2096.0
KFGN 280715Z AUTO 27004KT 5SM HZ OVC024 05/ A2973 RMK AO2,KFGN,2018-10-28T07:15:00Z,49.32,-94.9,5.0,,270,4,,5.0,29.731298,,,TRUE,TRUE,,,,,,HZ,OVC,2400,,,,,,,MVFR,,,,,,,,,,,,METAR,328.0
KFEP 280715Z AUTO 19011KT 5SM -RA BKN060 OVC080 07/05 A2979 RMK AO2 P0001 T00700050,KFEP,2018-10-28T07:15:00Z,42.25,-89.58,7.0,5.0,190,11,,5.0,29.790354,,,TRUE,TRUE,,,,,,-RA,BKN,6000,OVC,8000,,,,,MVFR,,,,,,0.01,,,,,,METAR,262.0
KF05 280715Z AUTO 22006KT 10SM CLR 15/13 A3003 RMK AO1 T01490131,KF05,2018-10-28T07:15:00Z,34.23,-99.28,14.9,13.1,220,6,,10.0,30.029528,,,TRUE,TRUE,,,,,,,CLR,,,,,,,,VFR,,,,,,,,,,,,METAR,386.0
KERV 280715Z AUTO 00000KT 10SM CLR 11/10 A3015 RMK AO2 T01110097,KERV,2018-10-28T07:15:00Z,29.98,-99.08,11.1,9.7,0,0,,10.0,30.15059,,,TRUE,TRUE,,,,,,,CLR,,,,,,,,VFR,,,,,,,,,,,,METAR,510.0
KEDN 280715Z AUTO 00000KT 7SM CLR 09/09 A3011 RMK AO2 T00900090,KEDN,2018-10-28T07:15:00Z,31.3,-85.9,9.0,9.0,0,0,,7.0,30.109253,,,TRUE,TRUE,,,,,,,CLR,,,,,,,,VFR,,,,,,,,,,,,SPECI,110.0
KECU 280715Z AUTO 18007KT 10SM SCT022 17/13 A3020 RMK AO2,KECU,2018-10-28T07:15:00Z,29.95,-100.17,17.0,13.0,180,7,,10.0,30.200787,,,TRUE,TRUE,,,,,,,SCT,2200,,,,,,,VFR,,,,,,,,,,,,METAR,725.0
KECS 280715Z AUTO 01005KT 10SM CLR 00/00 A3015 RMK AO2,KECS,2018-10-28T07:15:00Z,43.88,-104.32,0.0,0.0,10,5,,10.0,30.15059,,,TRUE,TRUE,,,,,,,CLR,,,,,,,,VFR,,,,,,,,,,,,METAR,1273.0
KDZB 280715Z AUTO 21004KT 10SM CLR 20/14 A3012 RMK AO2 T01990137,KDZB,2018-10-28T07:15:00Z,30.53,-98.37,19.9,13.7,210,4,,10.0,30.121063,,,TRUE,TRUE,,,,,,,CLR,,,,,,,,VFR,,,,,,,,,,,,METAR,334.0
KDTL 280715Z AUTO 32013G20KT 10SM OVC004 05/04 A2978 RMK AO2,KDTL,2018-10-28T07:15:00Z,46.82,-95.87,5.0,4.0,320,13,20,10.0,29.778543,,,TRUE,TRUE,,,,,,,OVC,400,,,,,,,LIFR,,,,,,,,,,,,METAR,426.0
KDNN 280715Z AUTO 00000KT 7SM SCT048 07/07 A3007 RMK AO2,KDNN,2018-10-28T07:15:00Z,34.72,-84.87,7.0,7.0,0,0,,7.0,30.070866,,,TRUE,TRUE,,,,,,,SCT,4800,,,,,,,VFR,,,,,,,,,,,,SPECI,216.0
KD25 280715Z AUTO 13005KT 10SM OVC015 05/04 A2969 RMK AO2 T00530042,KD25,2018-10-28T07:15:00Z,46.12,-89.88,5.3,4.2,130,5,,10.0,29.68996,,,TRUE,TRUE,,,,,,,OVC,1500,,,,,,,MVFR,,,,,,,,,,,,METAR,491.0
KCZT 280715Z AUTO 00000KT 10SM CLR 14/14 A3011 RMK AO2,KCZT,2018-10-28T07:15:00Z,28.52,-99.82,14.0,14.0,0,0,,10.0,30.109253,,,TRUE,TRUE,,,,,,,CLR,,,,,,,,VFR,,,,,,,,,,,,METAR,183.0
KCZL 280715Z AUTO 00000KT 7SM SCT046 08/08 A3008 RMK AO2,KCZL,2018-10-28T07:15:00Z,34.47,-84.93,8.0,8.0,0,0,,7.0,30.079725,,,TRUE,TRUE,,,,,,,SCT,4600,,,,,,,VFR,,,,,,,,,,,,SPECI,195.0
KCXU 280715Z AUTO 00000KT 10SM CLR 09/08 A3011 RMK AO1 T00940082,KCXU,2018-10-28T07:15:00Z,31.22,-84.23,9.4,8.2,0,0,,10.0,30.109253,,,TRUE,TRUE,,,,,,,CLR,,,,,,,,VFR,,,,,,,,,,,,SPECI,53.0
KCWV 280715Z AUTO 23003KT 10SM CLR 11/10 A3006 RMK AO2 T01070096,KCWV,2018-10-28T07:15:00Z,32.2,-81.87,10.7,9.6,230,3,,10.0,30.059055,,,TRUE,TRUE,,,,,,,CLR,,,,,,,,VFR,,,,,,,,,,,,SPECI,33.0
KCWC 280715Z AUTO 19003KT 10SM CLR 16/13 A3004 RMK AO2 T01620130,KCWC,2018-10-28T07:15:00Z,33.85,-98.48,16.2,13.0,190,3,,10.0,30.041338,,,TRUE,TRUE,,,,,,,CLR,,,,,,,,VFR,,,,,,,,,,,,METAR,305.0
KCPK 280715Z AUTO 23003KT 10SM CLR 10/09 A2981 RMK AO2 T00990092,KCPK,2018-10-28T07:15:00Z,36.67,-76.32,9.9,9.2,230,3,,10.0,29.811024,,,TRUE,TRUE,,,,,,,CLR,,,,,,,,VFR,,,,,,,,,,,,SPECI,6.0
KCMY 280715Z AUTO 00000KT 5SM RA SCT009 SCT015 BKN042 06/05 A2966 RMK AO2 P0001 T00560052,KCMY,2018-10-28T07:15:00Z,43.97,-90.73,5.6,5.2,0,0,,5.0,29.660433,,,TRUE,TRUE,,,,,,RA,SCT,900,SCT,1500,BKN,4200,,,MVFR,,,,,,0.01,,,,,,METAR,256.0
KCMD 280715Z AUTO 00000KT 10SM BKN029 OVC040 08/08 A3008 RMK AO2 T00810076,KCMD,2018-10-28T07:15:00Z,34.27,-86.85,8.1,7.6,0,0,,10.0,30.079725,,,TRUE,TRUE,,,,,,,BKN,2900,OVC,4000,,,,,MVFR,,,,,,,,,,,,SPECI,294.0
KCLW 280715Z AUTO 03006KT 10SM CLR 17/12 A3009 RMK AO2,KCLW,2018-10-28T07:15:00Z,27.98,-82.75,17.0,12.0,30,6,,10.0,30.088583,,,TRUE,TRUE,,,,,,,CLR,,,,,,,,VFR,,,,,,,,,,,,SPECI,22.0
KCLS 280715Z AUTO 00000KT 6SM -RA SCT031 OVC037 14/14 A2977 RMK AO2,KCLS,2018-10-28T07:15:00Z,46.68,-122.98,14.0,14.0,0,0,,6.0,29.769686,,,TRUE,TRUE,,,,,,-RA,SCT,3100,OVC,3700,,,,,VFR,,,,,,,,,,,,METAR,54.0
KCKP 280715Z AUTO 31010G16KT 10SM CLR 08/06 A2990 RMK AO2 T00830060,KCKP,2018-10-28T07:15:00Z,42.73,-95.55,8.3,6.0,310,10,16,10.0,29.899607,,,TRUE,TRUE,,,,,,,CLR,,,,,,,,VFR,,,,,,,,,,,,METAR,374.0
KCKF 280715Z AUTO 00000KT 10SM CLR 09/08 A3011 RMK AO2 T00900084,KCKF,2018-10-28T07:15:00Z,31.98,-83.77,9.0,8.4,0,0,,10.0,30.109253,,,TRUE,TRUE,,,,,,,CLR,,,,,,,,VFR,,,,,,,,,,,,SPECI,91.0
KCKC 280715Z AUTO 12004KT 1 1/2SM RA OVC002 03/02 A2971 RMK AO2 P0001 P0001,KCKC,2018-10-28T07:15:00Z,47.83,-90.37,3.0,2.0,120,4,,1.5,29.71063,,,TRUE,TRUE,,,,,,RA,OVC,200,,,,,,,LIFR,,,,,,0.01,,,,,,METAR,548.0
KCIC 280715Z AUTO 12003KT 10SM CLR 19/07 A2999 RMK AO1,KCIC,2018-10-28T07:15:00Z,39.78,-121.83,19.0,7.0,120,3,,10.0,29.991142,,,TRUE,TRUE,,,,,,,CLR,,,,,,,,VFR,,,,,,,,,,,,METAR,73.0
KCDI 280715Z AUTO 25005KT 10SM -DZ OVC011 06/05 A2986 RMK AO2 T00620052,KCDI,2018-10-28T07:15:00Z,39.97,-81.58,6.2,5.2,250,5,,10.0,29.861221,,,TRUE,TRUE,,,,,,-DZ,OVC,1100,,,,,,,MVFR,,,,,,,,,,,,METAR,244.0
KCDH 280715Z AUTO 00000KT 1 1/4SM BR 11/10 A3004 RMK AO2 VIS 1/2V5,KCDH,2018-10-28T07:15:00Z,33.62,-92.77,11.0,10.0,0,0,,1.25,30.041338,,,TRUE,TRUE,,,,,,BR,,,,,,,,,,,,,,,,,,,,,SPECI,35.0
KCDA 280715Z AUTO 03008KT 10SM BKN032 OVC045 03/00 A2968 RMK AO2 T00330002,KCDA,2018-10-28T07:15:00Z,44.57,-72.02,3.3,0.2,30,8,,10.0,29.681103,,,TRUE,TRUE,,,,,,,BKN,3200,OVC,4500,,,,,VFR,,,,,,,,,,,,METAR,363.0
KBYY 280715Z AUTO 00000KT 1 1/2SM BR VV007 16/16 A3012 RMK AO2 T01640164,KBYY,2018-10-28T07:15:00Z,28.97,-95.87,16.4,16.4,0,0,,1.5,30.121063,,,TRUE,TRUE,,,,,,BR,OVX,0,,,,,,,LIFR,,,,,,,,,,,700,METAR,14.0
KBXA 280715Z AUTO 00000KT 10SM CLR 12/11 A3012 RMK AO2 T01210106,KBXA,2018-10-28T07:15:00Z,30.82,-89.87,12.1,10.6,0,0,,10.0,30.121063,,,TRUE,TRUE,,,,,,,CLR,,,,,,,,VFR,,,,,,,,,,,,SPECI,36.0
KBQK 280715Z AUTO 28003KT 10SM CLR 10/08 A3008 RMK AO2,KBQK,2018-10-28T07:15:00Z,31.25,-81.47,10.0,8.0,280,3,,10.0,30.079725,,,TRUE,TRUE,,,,,,,CLR,,,,,,,,VFR,,,,,,,,,,,,SPECI,8.0
KBPC 280715Z AUTO 24004KT 10SM CLR 10/06 A3004 RMK AO2,KBPC,2018-10-28T07:15:00Z,35.88,-101.03,10.0,6.0,240,4,,10.0,30.041338,,,TRUE,TRUE,,,,,,,CLR,,,,,,,,VFR,,,,,,,,,,,,METAR,845.0
KBKD 280715Z AUTO 23005KT 10SM CLR 18/11 A3005 RMK AO2 T01750111,KBKD,2018-10-28T07:15:00Z,32.72,-98.88,17.5,11.1,230,5,,10.0,30.050198,,,TRUE,TRUE,,,,,,,CLR,,,,,,,,VFR,,,,,,,,,,,,METAR,392.0
KBJI 280715Z AUTO 36008KT 10SM RA BKN042 OVC050 04/03 A2972 RMK AO2 T00410032,KBJI,2018-10-28T07:15:00Z,47.5,-94.92,4.1,3.2,360,8,,10.0,29.719488,,,TRUE,TRUE,,,,,,RA,BKN,4200,OVC,5000,,,,,VFR,,,,,,,,,,,,METAR,420.0
KBEC 280715Z AUTO 29011G19KT 10SM CLR 16/09 A2995 RMK AO2 T01560090,KBEC,2018-10-28T07:15:00Z,37.7,-97.22,15.6,9.0,290,11,19,10.0,29.949802,,,TRUE,TRUE,,,,,,,CLR,,,,,,,,VFR,,,,,,,,,,,,SPECI,429.0
KBEA 280715Z AUTO 23003KT 10SM CLR 17/17 A3013 RMK AO2 T01680165,KBEA,2018-10-28T07:15:00Z,28.37,-97.78,16.8,16.5,230,3,,10.0,30.129921,,,TRUE,TRUE,,,,,,,CLR,,,,,,,,VFR,,,,,,,,,,,,METAR,82.0
KBBP 280715Z AUTO 29004KT 10SM CLR 09/07 A2994 RMK AO2,KBBP,2018-10-28T07:15:00Z,34.62,-79.73,9.0,7.0,290,4,,10.0,29.940945,,,TRUE,TRUE,,,,,,,CLR,,,,,,,,VFR,,,,,,,,,,,,SPECI,45.0
KBAM 280715Z AUTO 17006KT 10SM CLR 07/M01 A3010 RMK AO1,KBAM,2018-10-28T07:15:00Z,,,7.0,-1.0,170,6,,10.0,30.100393,,,TRUE,TRUE,,,,,,,CLR,,,,,,,,VFR,,,,,,,,,,,,METAR,
KAZC 280715Z AUTO 09005KT 10SM CLR 05/01 A3026 RMK AO2,KAZC,2018-10-28T07:15:00Z,36.97,-113.02,5.0,1.0,90,5,,10.0,30.259842,,,TRUE,TRUE,,,,,,,CLR,,,,,,,,VFR,,,,,,,,,,,,METAR,1486.0
KAXV 280715Z AUTO 25003KT 10SM SCT035 OVC048 06/06 A2989 RMK AO2,KAXV,2018-10-28T07:15:00Z,40.5,-84.3,6.0,6.0,250,3,,10.0,29.890747,,,TRUE,TRUE,,,,,,,SCT,3500,OVC,4800,,,,,VFR,,,,,,,,,,,,METAR,279.0
KAXS 280715Z AUTO 17004KT 10SM CLR 15/12 A3003 RMK AO2 T01450115,KAXS,2018-10-28T07:15:00Z,34.7,-99.33,14.5,11.5,170,4,,10.0,30.029528,,,TRUE,TRUE,,,,,,,CLR,,,,,,,,VFR,,,,,,,,,,,,SPECI,437.0
KAXH 280715Z AUTO 00000KT 10SM CLR 16/16 A3012 RMK AO2 T01600157,KAXH,2018-10-28T07:15:00Z,29.52,-95.48,16.0,15.7,0,0,,10.0,30.121063,,,TRUE,TRUE,,,,,,,CLR,,,,,,,,VFR,,,,,,,,,,,,METAR,21.0
KAVQ 280715Z AUTO 00000KT 10SM CLR 18/08 A3006 RMK AO2 T01790079,KAVQ,2018-10-28T07:15:00Z,32.4,-111.22,17.9,7.9,0,0,,10.0,30.059055,,,TRUE,TRUE,,,,,,,CLR,,,,,,,,VFR,,,,,,,,,,,,METAR,619.0
KASW 280715Z AUTO 00000KT 5SM BR OVC048 05/04 A2988 RMK AO2,KASW,2018-10-28T07:15:00Z,41.27,-85.83,5.0,4.0,0,0,,5.0,29.878937,,,TRUE,TRUE,,,,,,BR,OVC,4800,,,,,,,MVFR,,,,,,,,,,,,METAR,259.0
KARW 280715Z AUTO 28010G14KT 7SM CLR 12/10 A3002 RMK AO2,KARW,2018-10-28T07:15:00Z,32.42,-80.63,12.0,10.0,280,10,14,7.0,30.02067,,,TRUE,TRUE,,,,,,,CLR,,,,,,,,VFR,,,,,,,,,,,,SPECI,4.0
KARM 280715Z AUTO 20003KT 5SM BR CLR 17/15 A3012 RMK AO2 T01650153,KARM,2018-10-28T07:15:00Z,29.25,-96.15,16.5,15.3,200,3,,5.0,30.121063,,,TRUE,TRUE,,,,,,BR,CLR,,,,,,,,MVFR,,,,,,,,,,,,METAR,31.0
KAIG 280715Z AUTO 15008KT 7SM OVC011 04/03 A2974 RMK AO2 T00420034,KAIG,2018-10-28T07:15:00Z,45.15,-89.12,4.2,3.4,150,8,,7.0,29.740158,,,TRUE,TRUE,,,,,,,OVC,1100,,,,,,,MVFR,,,,,,,,,,,,METAR,464.0
KADC 280715Z AUTO 32014G18KT 10SM BKN017 05/03 A2970 RMK AO2,KADC,2018-10-28T07:15:00Z,46.45,-95.22,5.0,3.0,320,14,18,10.0,29.698818,,,TRUE,TRUE,,,,,,,BKN,1700,,,,,,,MVFR,,,,,,,,,,,,METAR,418.0
KACQ 280715Z AUTO 28018G28KT 10SM OVC021 07/03 A2972 RMK AO2,KACQ,2018-10-28T07:15:00Z,44.07,-93.55,7.0,3.0,280,18,28,10.0,29.719488,,,TRUE,TRUE,,,,,,,OVC,2100,,,,,,,MVFR,,,,,,,,,,,,METAR,343.0
KAAS 280715Z AUTO 00000KT 4SM CLR 06/06 A3004 RMK AO1,KAAS,2018-10-28T07:15:00Z,,,6.0,6.0,0,0,,4.0,30.041338,,,TRUE,TRUE,,,,,,,CLR,,,,,,,,MVFR,,,,,,,,,,,,SPECI,
K7W4 280715Z AUTO 00000KT 10SM BKN050 OVC065 10/09 A2976 RMK AO1 T00950087,K7W4,2018-10-28T07:15:00Z,37.97,-77.75,9.5,8.7,0,0,,10.0,29.760826,,,TRUE,TRUE,,,,,,,BKN,5000,OVC,6500,,,,,VFR,,,,,,,,,,,,SPECI,106.0
K6A2 280715Z AUTO 30004KT 10SM CLR 07/07 A3007 RMK AO2,K6A2,2018-10-28T07:15:00Z,33.23,-84.27,7.0,7.0,300,4,,10.0,30.070866,,,TRUE,TRUE,,,,,,,CLR,,,,,,,,VFR,,,,,,,,,,,,SPECI,292.0
K54J 280715Z AUTO 00000KT 10SM CLR 12/09 A3013 RMK AO2 T01160088,K54J,2018-10-28T07:15:00Z,30.73,-86.15,11.6,8.8,0,0,,10.0,30.129921,,,TRUE,TRUE,,,,,,,CLR,,,,,,,,VFR,,,,,,,,,,,,SPECI,88.0
K4V0 280715Z AUTO 00000KT 10SM CLR 02/00 A3024 RMK AO2 T00220004,K4V0,2018-10-28T07:15:00Z,40.1,-108.77,2.2,0.4,0,0,,10.0,30.239174,,,TRUE,TRUE,,,,,,,CLR,,,,,,,,VFR,,,,,,,,,,,,METAR,1608.0
K4S2 280715Z AUTO 00000KT 4SM -RA SCT008 BKN060 OVC110 11/10 A2986 RMK AO2 P0002,K4S2,2018-10-28T07:15:00Z,45.68,-121.55,11.0,10.0,0,0,,4.0,29.861221,,,TRUE,TRUE,,,,,,-RA,SCT,800,BKN,6000,OVC,11000,,,MVFR,,,,,,0.02,,,,,,METAR,192.0
K4S1 280715Z AUTO 20012G17KT 2 1/2SM RA OVC010 A3000 RMK AO1,K4S1,2018-10-28T07:15:00Z,42.42,-124.42,,,200,12,17,2.5,30.0,,,TRUE,TRUE,,,,,,RA,OVC,1000,,,,,,,IFR,,,,,,,,,,,,METAR,5.0
K4O4 280715Z AUTO 00000KT 10SM CLR 11/10 A3003 RMK AO2,K4O4,2018-10-28T07:15:00Z,33.92,-94.87,11.0,10.0,0,0,,10.0,30.029528,,,TRUE,TRUE,,,,,,,CLR,,,,,,,,VFR,,,,,,,,,,,,SPECI,144.0
K3T5 280715Z AUTO 22003KT 10SM CLR 16/15 A3009 RMK AO2 T01610147,K3T5,2018-10-28T07:15:00Z,29.9,-96.95,16.1,14.7,220,3,,10.0,30.088583,,,TRUE,TRUE,,,,,,,CLR,,,,,,,,VFR,,,,,,,,,,,,METAR,99.0
K3R7 280715Z AUTO 00000KT 10SM CLR 16/15 A3011 RMK AO2 T01640150,K3R7,2018-10-28T07:15:00Z,30.25,-92.67,16.4,15.0,0,0,,10.0,30.109253,,,TRUE,TRUE,,,,,,,CLR,,,,,,,,VFR,,,,,,,,,,,,SPECI,7.0
K3LF 280715Z AUTO 17005KT 10SM OVC110 09/07 A2989 RMK AO2 T00860071,K3LF,2018-10-28T07:15:00Z,39.17,-89.67,8.6,7.1,170,5,,10.0,29.890747,,,TRUE,TRUE,,,,,,,OVC,11000,,,,,,,VFR,,,,,,,,,,,,METAR,210.0
K22N 280715Z AUTO 00000KT 10SM OVC010 06/06 A2970 RMK AO2,K22N,2018-10-28T07:15:00Z,40.8,-75.77,6.0,6.0,0,0,,10.0,29.698818,,,TRUE,TRUE,,,,,,,OVC,1000,,,,,,,MVFR,,,,,,,,,,,,METAR,163.0
K1A9 280715Z AUTO 00000KT 7SM CLR 07/07 A3010 RMK AO2 T00720072,K1A9,2018-10-28T07:15:00Z,32.43,-86.52,7.2,7.2,0,0,,7.0,30.100393,,,TRUE,TRUE,,,,,,,CLR,,,,,,,,VFR,,,,,,,,,,,,SPECI,69.0
K18A 280715Z AUTO 28003KT 10SM CLR 08/05 A3000 RMK AO2 T00800053 TSNO,K18A,2018-10-28T07:15:00Z,34.35,-83.13,8.0,5.3,280,3,,10.0,30.0,,,TRUE,TRUE,,,TRUE,,,,CLR,,,,,,,,VFR,,,,,,,,,,,,SPECI,271.0
K04W 280715Z AUTO 00000KT 7SM -DZ OVC004 07/07 A2956 RMK AO2,K04W,2018-10-28T07:15:00Z,46.02,-92.9,7.0,7.0,0,0,,7.0,29.56004,,,TRUE,TRUE,,,,,,-DZ,OVC,400,,,,,,,LIFR,,,,,,,,,,,,METAR,311.0
CWPF 280715Z AUTO 01005KT 11/10 RMK AO1 T01100098,CWPF,2018-10-28T07:15:00Z,48.43,-123.43,11.0,9.8,10,5,,,,,,TRUE,TRUE,,,,,,,,,,,,,,,,,,,,,,,,,,,METAR,12.0
OAMS 280715Z 26023KT 3000 BLDU SCTOOO BKN020 BKN040 16/11 Q1030 YLO YLO TEMPO AMB,OAMS,2018-10-28T07:15:00Z,36.7,67.2,16.0,11.0,260,23,,1.86,30.413385,,,,,,,,,,BLDU,BKN,2000,BKN,4000,,,,,IFR,,,,,,,,,,,,SPECI,378.0
KY31 280715Z AUTO 00000KT 10SM SCT007 OVC040 02/02 A2982 RMK AO2 T00220015,KY31,2018-10-28T07:15:00Z,44.25,-84.18,2.2,1.5,0,0,,10.0,29.819881,,,TRUE,TRUE,,,,,,,SCT,700,OVC,4000,,,,,VFR,,,,,,,,,,,,SPECI,269.0
KY23 280715Z AUTO 14008KT 3SM RA OVC006 06/06 A2960 RMK AO2 P0004 T00600060,KY23,2018-10-28T07:15:00Z,45.3,-91.63,6.0,6.0,140,8,,3.0,29.601377,,,TRUE,TRUE,,,,,,RA,OVC,600,,,,,,,IFR,,,,,,0.04,,,,,,METAR,322.0
KVWU 280715Z AUTO 03005KT 10SM -RA SCT031 OVC039 05/05 A2974 RMK AO2 P0001 P0001,KVWU,2018-10-28T07:15:00Z,48.15,-94.52,5.0,5.0,30,5,,10.0,29.740158,,,TRUE,TRUE,,,,,,-RA,SCT,3100,OVC,3900,,,,,VFR,,,,,,0.01,,,,,,SPECI,360.0
KVLL 280715Z AUTO 28006KT 10SM BKN012 OVC028 06/04 A2984 RMK AO2 T00580035,KVLL,2018-10-28T07:15:00Z,42.55,-83.18,5.8,3.5,280,6,,10.0,29.840551,,,TRUE,TRUE,,,,,,,BKN,1200,OVC,2800,,,,,MVFR,,,,,,,,,,,,SPECI,222.0
KUOX 280715Z AUTO 10SM CLR 10/10 A3006 RMK AO2,KUOX,2018-10-28T07:15:00Z,34.38,-89.53,10.0,10.0,,,,10.0,30.059055,,,TRUE,TRUE,,,,,,,CLR,,,,,,,,VFR,,,,,,,,,,,,SPECI,137.0
KTOB 280715Z AUTO 28021G29KT 10SM BKN018 BKN024 OVC031 09/06 A2966 RMK AO2,KTOB,2018-10-28T07:15:00Z,44.02,-92.82,9.0,6.0,280,21,29,10.0,29.660433,,,TRUE,TRUE,,,,,,,BKN,1800,BKN,2400,OVC,3100,,,MVFR,,,,,,,,,,,,SPECI,398.0
KTKX 280715Z AUTO 5SM BR CLR 10/10 RMK AO2,KTKX,2018-10-28T07:15:00Z,36.22,-90.02,10.0,10.0,,,,5.0,,,,TRUE,TRUE,,,,,,BR,CLR,,,,,,,,MVFR,,,,,,,,,,,,SPECI,80.0
KTEW 280715Z AUTO 30004KT 10SM OVC007 05/03 A2985 RMK AO2 T00500030,KTEW,2018-10-28T07:15:00Z,42.57,-84.42,5.0,3.0,300,4,,10.0,29.84941,,,TRUE,TRUE,,,,,,,OVC,700,,,,,,,IFR,,,,,,,,,,,,SPECI,280.0
KSTE 280715Z AUTO 12005KT 5SM RA SCT030 OVC036 05/05 A2972 RMK AO2 T00500047,KSTE,2018-10-28T07:15:00Z,44.55,-89.53,5.0,4.7,120,5,,5.0,29.719488,,,TRUE,TRUE,,,,,,RA,SCT,3000,OVC,3600,,,,,MVFR,,,,,,,,,,,,SPECI,338.0
KSNC 280715Z AUTO 35006G12KT 1 3/4SM -RA OVC003 08/07 A2961 RMK AO2,KSNC,2018-10-28T07:15:00Z,41.38,-72.5,8.0,7.0,350,6,12,1.75,29.610237,,,TRUE,TRUE,,,,,,-RA,OVC,300,,,,,,,LIFR,,,,,,,,,,,,METAR,127.0
KSLB 280715Z AUTO 31014G21KT 10SM CLR 08/06 A2987 RMK AO2,KSLB,2018-10-28T07:15:00Z,42.6,-95.22,8.0,6.0,310,14,21,10.0,29.870079,,,TRUE,TRUE,,,,,,,CLR,,,,,,,,VFR,,,,,,,,,,,,SPECI,454.0
KSHN 280715Z AUTO 00000KT 9SM OVC008 11/10 A2973 RMK AO2 RAE14 CIG 004V013 P0001 T01110100,KSHN,2018-10-28T07:15:00Z,47.23,-123.13,11.1,10.0,0,0,,9.0,29.731298,,,TRUE,TRUE,,,,,,,OVC,800,,,,,,,IFR,,,,,,0.01,,,,,,SPECI,82.0
KSHL 280715Z AUTO 29011KT 10SM 07/06 A2988 RMK AO2,KSHL,2018-10-28T07:15:00Z,43.22,-95.82,7.0,6.0,290,11,,10.0,29.878937,,,TRUE,TRUE,,,,,,,,,,,,,,,,,,,,,,,,,,,SPECI,432.0
KSDA 280715Z AUTO 33013G19KT 10SM CLR 14/08 A2991 RMK AO2,KSDA,2018-10-28T07:15:00Z,40.75,-95.42,14.0,8.0,330,13,19,10.0,29.911417,,,TRUE,TRUE,,,,,,,CLR,,,,,,,,VFR,,,,,,,,,,,,SPECI,296.0
KSAZ 280715Z AUTO 34022G27KT 10SM DZ SCT017 BKN030 OVC039 05/05 A2965 RMK AO2,KSAZ,2018-10-28T07:15:00Z,46.37,-94.8,5.0,5.0,340,22,27,10.0,29.648623,,,TRUE,TRUE,,,,,,DZ,SCT,1700,BKN,3000,OVC,3900,,,MVFR,,,,,,,,,,,,SPECI,392.0
KS33 280715Z AUTO 19011KT 7SM SCT070 BKN100 BKN120 12/07 A2989 RMK AO2,KS33,2018-10-28T07:15:00Z,44.67,-121.15,12.0,7.0,190,11,,7.0,29.890747,,,TRUE,TRUE,,,,,,,SCT,7000,BKN,10000,BKN,12000,,,VFR,,,,,,,,,,,,SPECI,743.0
KRNP 280715Z AUTO 30005KT 10SM BKN006 BKN012 BKN023 05/04 A2984 RMK AO2 T00460037,KRNP,2018-10-28T07:15:00Z,43.0,-84.13,4.6,3.7,300,5,,10.0,29.840551,,,TRUE,TRUE,,,,,,,BKN,600,BKN,1200,BKN,2300,,,IFR,,,,,,,,,,,,SPECI,224.0
KRGK 280715Z AUTO 28008KT 10SM SCT016 BKN026 OVC048 10/08 A2960 RMK AO2,KRGK,2018-10-28T07:15:00Z,44.58,-92.48,10.0,8.0,280,8,,10.0,29.601377,,,TRUE,TRUE,,,,,,,SCT,1600,BKN,2600,OVC,4800,,,MVFR,,,,,,,,,,,,SPECI,239.0
KRCE 280715Z AUTO 21009KT 10SM CLR 15/11 A2998 RMK AO2,KRCE,2018-10-28T07:15:00Z,35.48,-97.82,15.0,11.0,210,9,,10.0,29.97933,,,TRUE,TRUE,,,,,,,CLR,,,,,,,,VFR,,,,,,,,,,,,SPECI,413.0
KPZQ 280715Z AUTO 26003KT 10SM SCT028 SCT035 OVC043 03/01 A2986 RMK AO2 T00250012,KPZQ,2018-10-28T07:15:00Z,45.4,-83.82,2.5,1.2,260,3,,10.0,29.861221,,,TRUE,TRUE,,,,,,,SCT,2800,SCT,3500,OVC,4300,,,VFR,,,,,,,,,,,,SPECI,204.0
KPMH 280715Z AUTO 00000KT 5SM BR BKN032 OVC050 06/06 A2993 RMK AO2 T00610061,KPMH,2018-10-28T07:15:00Z,38.83,-82.85,6.1,6.1,0,0,,5.0,29.929134,,,TRUE,TRUE,,,,,,BR,BKN,3200,OVC,5000,,,,,MVFR,,,,,,,,,,,,SPECI,202.0
KPHN 280715Z AUTO 00000KT 2SM -RA OVC005 04/03 A2981 RMK AO2,KPHN,2018-10-28T07:15:00Z,42.92,-82.52,4.0,3.0,0,0,,2.0,29.811024,,,TRUE,TRUE,,,,,,-RA,OVC,500,,,,,,,IFR,,,,,,,,,,,,SPECI,198.0
KPDC 280715Z AUTO 08003KT 7SM SCT019 BKN028 OVC035 09/07 A2969 RMK AO2 T00850070,KPDC,2018-10-28T07:15:00Z,43.02,-91.12,8.5,7.0,80,3,,7.0,29.68996,,,TRUE,TRUE,,,,,,,SCT,1900,BKN,2800,OVC,3500,,,MVFR,,,,,,,,,,,,SPECI,201.0
KOZW 280715Z AUTO 30003KT 10SM OVC015 04/04 A2984 RMK AO2 T00410037,KOZW,2018-10-28T07:15:00Z,42.62,-83.97,4.1,3.7,300,3,,10.0,29.840551,,,TRUE,TRUE,,,,,,,OVC,1500,,,,,,,MVFR,,,,,,,,,,,,SPECI,293.0
KOWA 280715Z AUTO 29017G23KT 10SM OVC020 08/06 A2969 RMK AO2,KOWA,2018-10-28T07:15:00Z,44.12,-93.25,8.0,6.0,290,17,23,10.0,29.68996,,,TRUE,TRUE,,,,,,,OVC,2000,,,,,,,MVFR,,,,,,,,,,,,SPECI,350.0
KOSC 280715Z AUTO 31005KT 10SM OVC028 03/03 A2983 RMK AO2 T00310031,KOSC,2018-10-28T07:15:00Z,44.45,-83.4,3.1,3.1,310,5,,10.0,29.828741,,,TRUE,TRUE,,,,,,,OVC,2800,,,,,,,MVFR,,,,,,,,,,,,METAR,193.0
KONZ 280715Z AUTO 30004KT 10SM SCT007 SCT011 OVC021 05/04 A2982 RMK AO2 T00500041,KONZ,2018-10-28T07:15:00Z,42.1,-83.15,5.0,4.1,300,4,,10.0,29.819881,,,TRUE,TRUE,,,,,,,SCT,700,SCT,1100,OVC,2100,,,MVFR,,,,,,,,,,,,SPECI,180.0
KONA 280715Z AUTO 00000KT 5SM BR BKN018 BKN026 OVC035 08/07 A2964 RMK AO2,KONA,2018-10-28T07:15:00Z,44.07,-91.7,8.0,7.0,0,0,,5.0,29.639763,,,TRUE,TRUE,,,,,,BR,BKN,1800,BKN,2600,OVC,3500,,,MVFR,,,,,,,,,,,,SPECI,200.0
KOEO 280715Z AUTO 22003KT 4SM BKN010 OVC014 08/08 A2960 RMK AO2 P0001 T00780075 PWINO,KOEO,2018-10-28T07:15:00Z,45.32,-92.7,7.8,7.5,220,3,,4.0,29.601377,,,TRUE,TRUE,,,,,TRUE,,BKN,1000,OVC,1400,,,,,MVFR,,,,,,0.01,,,,,,SPECI,275.0
KOEB 280715Z AUTO 00000KT 10SM SCT043 05/04 A2985 RMK AO2 T00450040,KOEB,2018-10-28T07:15:00Z,41.92,-85.03,4.5,4.0,0,0,,10.0,29.84941,,,TRUE,TRUE,,,,,,,SCT,4300,,,,,,,VFR,,,,,,,,,,,,SPECI,292.0
KMZH 280715Z AUTO 08003KT 4SM RA OVC007 06/05 A2957 RMK AO2 P0001,KMZH,2018-10-28T07:15:00Z,46.42,-92.8,6.0,5.0,80,3,,4.0,29.568897,,,TRUE,TRUE,,,,,,RA,OVC,700,,,,,,,IFR,,,,,,0.01,,,,,,SPECI,328.0
KMVE 280715Z AUTO 34012G20KT 10SM OVC019 07/04 A2980 RMK AO2,KMVE,2018-10-28T07:15:00Z,44.97,-95.72,7.0,4.0,340,12,20,10.0,29.799213,,,TRUE,TRUE,,,,,,,OVC,1900,,,,,,,MVFR,,,,,,,,,,,,SPECI,315.0
KMDZ 280715Z AUTO 13006G14KT 5SM -DZ BKN025 OVC033 04/04 A2966 RMK AO2 T00430035,KMDZ,2018-10-28T07:15:00Z,45.1,-90.3,4.3,3.5,130,6,14,5.0,29.660433,,,TRUE,TRUE,,,,,,-DZ,BKN,2500,OVC,3300,,,,,MVFR,,,,,,,,,,,,SPECI,448.0
KMDS 280715Z AUTO 29014KT 10SM CLR 05/05 A2991 RMK AO2,KMDS,2018-10-28T07:15:00Z,44.02,-97.08,5.0,5.0,290,14,,10.0,29.911417,,,TRUE,TRUE,,,,,,,CLR,,,,,,,,VFR,,,,,,,,,,,,SPECI,524.0
KMCW 280715Z AUTO 30024G33KT 10SM SCT021 SCT033 10/08 A2976 RMK AO2 PK WND 30033/0713 T01000078,KMCW,2018-10-28T07:15:00Z,43.15,-93.33,10.0,7.8,300,24,33,10.0,29.760826,,,TRUE,TRUE,,,,,,,SCT,2100,SCT,3300,,,,,VFR,,,,,,,,,,,,SPECI,369.0
KM40 280715Z AUTO 00000KT 1/4SM FG VV002 07/08 A3007 RMK AO2,KM40,2018-10-28T07:15:00Z,33.87,-88.48,7.0,8.0,0,0,,0.25,30.070866,,,TRUE,TRUE,,,,,,FG,OVX,0,,,,,,,LIFR,,,,,,,,,,,200,SPECI,69.0
KM21 280715Z AUTO 00000KT 1 1/2SM BR VV007 03/03 A2999 RMK AO2 T00310031,KM21,2018-10-28T07:15:00Z,37.22,-87.15,3.1,3.1,0,0,,1.5,29.991142,,,TRUE,TRUE,,,,,,BR,OVX,0,,,,,,,LIFR,,,,,,,,,,,700,SPECI,129.0
KLYV 280715Z AUTO 29011KT 10SM CLR 05/02 A2990 RMK AO2,KLYV,2018-10-28T07:15:00Z,43.62,-96.22,5.0,2.0,290,11,,10.0,29.899607,,,TRUE,TRUE,,,,,,,CLR,,,,,,,,VFR,,,,,,,,,,,,METAR,436.0
KLDM 280715Z AUTO 00000KT 10SM OVC039 05/03 A2982 RMK AO2 T00510031,KLDM,2018-10-28T07:15:00Z,43.97,-86.4,5.1,3.1,0,0,,10.0,29.819881,,,TRUE,TRUE,,,,,,,OVC,3900,,,,,,,VFR,,,,,,,,,,,,SPECI,197.0
KISQ 280715Z AUTO 00000KT 10SM BKN014 OVC022 03/00 A2983 RMK AO2 T00300003,KISQ,2018-10-28T07:15:00Z,45.97,-86.17,3.0,0.3,0,0,,10.0,29.828741,,,TRUE,TRUE,,,,,,,BKN,1400,OVC,2200,,,,,MVFR,,,,,,,,,,,,SPECI,209.0
KIRS 280715Z AUTO 00000KT 10SM OVC046 06/04 A2984 RMK AO2 T00600038,KIRS,2018-10-28T07:15:00Z,41.8,-85.43,6.0,3.8,0,0,,10.0,29.840551,,,TRUE,TRUE,,,,,,,OVC,4600,,,,,,,VFR,,,,,,,,,,,,SPECI,282.0
KI75 280715Z AUTO 28007KT 10SM SCT100 11/06 A2981 RMK AO2 T01120064,KI75,2018-10-28T07:15:00Z,41.05,-93.68,11.2,6.4,280,7,,10.0,29.811024,,,TRUE,TRUE,,,,,,,SCT,10000,,,,,,,VFR,,,,,,,,,,,,SPECI,339.0
KHZX 280715Z AUTO 04005KT 5SM OVC006 06/06 A2959 RMK AO2 P0004,KHZX,2018-10-28T07:15:00Z,46.62,-93.32,6.0,6.0,40,5,,5.0,29.589567,,,TRUE,TRUE,,,,,,,OVC,600,,,,,,,IFR,,,,,,0.04,,,,,,SPECI,374.0
KHPT 280715Z AUTO 29016G22KT 10SM CLR 10/08 A2976 RMK AO2,KHPT,2018-10-28T07:15:00Z,42.58,-93.23,10.0,8.0,290,16,22,10.0,29.760826,,,TRUE,TRUE,,,,,,,CLR,,,,,,,,VFR,,,,,,,,,,,,SPECI,358.0
KHOB 280715Z AUTO 21007KT 10SM CLR 11/07 A3014 RMK AO2,KHOB,2018-10-28T07:15:00Z,32.67,-103.22,11.0,7.0,210,7,,10.0,30.138779,,,TRUE,TRUE,,,,,,,CLR,,,,,,,,VFR,,,,,,,,,,,,SPECI,1115.0
KFYG 280715Z AUTO 00000KT 10SM FEW060 FEW095 SCT120 07/07 A2988 RMK AO2,KFYG,2018-10-28T07:15:00Z,38.58,-91.0,7.0,7.0,0,0,,10.0,29.878937,,,TRUE,TRUE,,,,,,,FEW,6000,FEW,9500,SCT,12000,,,VFR,,,,,,,,,,,,SPECI,149.0
KFRH 280715Z AUTO 00000KT 7SM CLR 05/01 A2995 RMK AO1,KFRH,2018-10-28T07:15:00Z,38.5,-86.63,5.0,1.0,0,0,,7.0,29.949802,,,TRUE,TRUE,,,,,,,CLR,,,,,,,,VFR,,,,,,,,,,,,SPECI,241.0
KFPK 280715Z AUTO 00000KT 10SM OVC010 04/02 A2984 RMK AO2 T00380023,KFPK,2018-10-28T07:15:00Z,42.57,-84.82,3.8,2.3,0,0,,10.0,29.840551,,,TRUE,TRUE,,,,,,,OVC,1000,,,,,,,MVFR,,,,,,,,,,,,SPECI,272.0
KFMH 280715Z AUTO 22013G24KT 1 1/4SM -DZ OVC005 13/13 A2964 RMK AO2,KFMH,2018-10-28T07:15:00Z,41.63,-70.52,13.0,13.0,220,13,24,1.25,29.639763,,,TRUE,TRUE,,,,,,-DZ,OVC,500,,,,,,,IFR,,,,,,,,,,,,METAR,40.0
KFIN 280715Z AUTO 31003KT 10SM CLR 12/11 A3009 RMK AO2 T01210113,KFIN,2018-10-28T07:15:00Z,29.47,-81.2,12.1,11.3,310,3,,10.0,30.088583,,,TRUE,TRUE,,,,,,,CLR,,,,,,,,VFR,,,,,,,,,,,,SPECI,10.0
KFFM 280715Z AUTO 33013G16KT 10SM OVC009 05/05 A2982 RMK AO2,KFFM,2018-10-28T07:15:00Z,46.28,-96.15,5.0,5.0,330,13,16,10.0,29.819881,,,TRUE,TRUE,,,,,,,OVC,900,,,,,,,IFR,,,,,,,,,,,,SPECI,361.0
KEVM 280715Z AUTO 04003KT 3SM DZ SCT002 BKN008 OVC023 05/05 A2966 RMK AO2 P0001 T00510050,KEVM,2018-10-28T07:15:00Z,47.42,-92.5,5.1,5.0,40,3,,3.0,29.660433,,,TRUE,TRUE,,,,,,DZ,SCT,200,BKN,800,OVC,2300,,,IFR,,,,,,0.01,,,,,,SPECI,421.0
KERY 280715Z AUTO 10005KT 10SM SCT003 BKN016 OVC021 02/01 A2984 RMK AO2 T00180013,KERY,2018-10-28T07:15:00Z,46.3,-85.45,1.8,1.3,100,5,,10.0,29.840551,,,TRUE,TRUE,,,,,,,SCT,300,BKN,1600,OVC,2100,,,MVFR,,,,,,,,,,,,SPECI,265.0
KELO 280715Z AUTO 00000KT 5SM RA BKN008 BKN022 05/05 A2968 RMK AO2,KELO,2018-10-28T07:15:00Z,47.82,-91.82,5.0,5.0,0,0,,5.0,29.681103,,,TRUE,TRUE,,,,,,RA,BKN,800,BKN,2200,,,,,IFR,,,,,,,,,,,,SPECI,443.0
KEFT 280715Z AUTO 18009KT 7SM -RA SCT043 BKN050 OVC060 06/04 A2975 RMK AO2 T00630043,KEFT,2018-10-28T07:15:00Z,42.62,-89.6,6.3,4.3,180,9,,7.0,29.749016,,,TRUE,TRUE,,,,,,-RA,SCT,4300,BKN,5000,OVC,6000,,,VFR,,,,,,,,,,,,SPECI,331.0
KEDC 280715Z AUTO 23006KT 10SM CLR 17/13 A3011 RMK AO2,KEDC,2018-10-28T07:15:00Z,30.4,-97.57,17.0,13.0,230,6,,10.0,30.109253,,,TRUE,TRUE,,,,,,,CLR,,,,,,,,VFR,,,,,,,,,,,,SPECI,189.0
KDXX 280715Z AUTO 30016KT 10SM CLR 08/04 A2982 RMK AO2,KDXX,2018-10-28T07:15:00Z,44.98,-96.18,8.0,4.0,300,16,,10.0,29.819881,,,TRUE,TRUE,,,,,,,CLR,,,,,,,,VFR,,,,,,,,,,,,SPECI,330.0
KDUH 280715Z AUTO 00000KT 10SM OVC019 06/03 A2986 RMK AO2 T00560033,KDUH,2018-10-28T07:15:00Z,41.73,-83.65,5.6,3.3,0,0,,10.0,29.861221,,,TRUE,TRUE,,,,,,,OVC,1900,,,,,,,MVFR,,,,,,,,,,,,SPECI,204.0
KDRM 280715Z AUTO 00000KT 10SM OVC029 02/01 A2985 RMK AO2 T00240013,KDRM,2018-10-28T07:15:00Z,46.0,-83.75,2.4,1.3,0,0,,10.0,29.84941,,,TRUE,TRUE,,,,,,,OVC,2900,,,,,,,MVFR,,,,,,,,,,,,SPECI,204.0
KD95 280715Z AUTO 32003KT 10SM BKN005 OVC013 04/04 A2982 RMK AO2 T00410040,KD95,2018-10-28T07:15:00Z,43.07,-83.27,4.1,4.0,320,3,,10.0,29.819881,,,TRUE,TRUE,,,,,,,BKN,500,OVC,1300,,,,,IFR,,,,,,,,,,,,METAR,255.0
KD50 280715Z AUTO 28011KT 10SM CLR 03/M00 A2997 RMK AO2,KD50,2018-10-28T07:15:00Z,48.93,-103.3,3.0,0.0,280,11,,10.0,29.970472,,,TRUE,TRUE,,,,,,,CLR,,,,,,,,VFR,,,,,,,,,,,,SPECI,595.0
KCXO 280715Z AUTO 00000KT 4SM BR CLR 14/14 A3011 RMK AO2 T01390139,KCXO,2018-10-28T07:15:00Z,30.35,-95.42,13.9,13.9,0,0,,4.0,30.109253,,,TRUE,TRUE,,,,,,BR,CLR,,,,,,,,MVFR,,,,,,,,,,,,SPECI,75.0
KCQM 280715Z AUTO 00000KT 2SM RA SCT002 OVC031 05/05 A2969 RMK AO2,KCQM,2018-10-28T07:15:00Z,47.82,-92.68,5.0,5.0,0,0,,2.0,29.68996,,,TRUE,TRUE,,,,,,RA,SCT,200,OVC,3100,,,,,IFR,,,,,,,,,,,,METAR,404.0
KCMR 280715Z AUTO 17010KT 10SM CLR 04/M03 A3032 RMK AO2,KCMR,2018-10-28T07:15:00Z,35.3,-112.2,4.0,-3.0,170,10,,10.0,30.318897,,,TRUE,TRUE,,,,,,,CLR,,,,,,,,VFR,,,,,,,,,,,,SPECI,2036.0
KCKN 280715Z AUTO 26004KT 1/4SM FG BKN001 03/03 A2981 RMK AO2,KCKN,2018-10-28T07:15:00Z,47.85,-96.62,3.0,3.0,260,4,,0.25,29.811024,,,TRUE,TRUE,,,,,,FG,BKN,100,,,,,,,LIFR,,,,,,,,,,,,METAR,273.0
KCKI 280715Z AUTO 00000KT 10SM CLR 09/08 A2998 RMK AO2,KCKI,2018-10-28T07:15:00Z,33.72,-79.85,9.0,8.0,0,0,,10.0,29.97933,,,TRUE,TRUE,,,,,,,CLR,,,,,,,,VFR,,,,,,,,,,,,SPECI,21.0
KCGC 280715Z AUTO 00000KT 10SM CLR 11/11 A3011 RMK AO2,KCGC,2018-10-28T07:15:00Z,28.87,-82.57,11.0,11.0,0,0,,10.0,30.109253,,,TRUE,TRUE,,,,,,,CLR,,,,,,,,VFR,,,,,,,,,,,,SPECI,3.0
KCFS 280715Z AUTO 00000KT 10SM BKN013 BKN024 OVC038 04/03 A2982 RMK AO2 T00400027,KCFS,2018-10-28T07:15:00Z,43.47,-83.45,4.0,2.7,0,0,,10.0,29.819881,,,TRUE,TRUE,,,,,,,BKN,1300,BKN,2400,OVC,3800,,,MVFR,,,,,,,,,,,,SPECI,214.0
KCEY 280715Z AUTO 16004KT 10SM CLR 08/08 A2999 RMK AO1,KCEY,2018-10-28T07:15:00Z,36.67,-88.37,8.0,8.0,160,4,,10.0,29.991142,,,TRUE,TRUE,,,,,,,CLR,,,,,,,,VFR,,,,,,,,,,,,SPECI,176.0
KCBK 280715Z AUTO 34011KT 10SM CLR 08/03 A3014 RMK AO2,KCBK,2018-10-28T07:15:00Z,39.43,-101.05,8.0,3.0,340,11,,10.0,30.138779,,,TRUE,TRUE,,,,,,,CLR,,,,,,,,VFR,,,,,,,,,,,,SPECI,971.0
KBWW 280715Z AUTO 26009KT 10SM CLR 01/M04 A2991 RMK AO2,KBWW,2018-10-28T07:15:00Z,46.17,-103.3,1.0,-4.0,260,9,,10.0,29.911417,,,TRUE,TRUE,,,,,,,CLR,,,,,,,,VFR,,,,,,,,,,,,METAR,910.0
KBOW 280715Z AUTO 00000KT 10SM CLR 16/12 A3007 RMK AO2,KBOW,2018-10-28T07:15:00Z,27.93,-81.77,16.0,12.0,0,0,,10.0,30.070866,,,TRUE,TRUE,,,,,,,CLR,,,,,,,,VFR,,,,,,,,,,,,SPECI,39.0
KBNW 280715Z AUTO 31015G21KT 10SM CLR 11/09 A2981 RMK AO2,KBNW,2018-10-28T07:15:00Z,42.03,-93.83,11.0,9.0,310,15,21,10.0,29.811024,,,TRUE,TRUE,,,,,,,CLR,,,,,,,,VFR,,,,,,,,,,,,METAR,354.0
KBBB 280715Z AUTO 35021G32KT 10SM SCT019 BKN026 07/04 A2979 RMK AO2,KBBB,2018-10-28T07:15:00Z,45.32,-95.65,7.0,4.0,350,21,32,10.0,29.790354,,,TRUE,TRUE,,,,,,,SCT,1900,BKN,2600,,,,,MVFR,,,,,,,,,,,,SPECI,317.0
KAUM 280715Z AUTO 29020G30KT 10SM SCT029 SCT037 09/06 A2969 RMK AO2,KAUM,2018-10-28T07:15:00Z,43.67,-92.92,9.0,6.0,290,20,30,10.0,29.68996,,,TRUE,TRUE,,,,,,,SCT,2900,SCT,3700,,,,,VFR,,,,,,,,,,,,METAR,375.0
KATS 280715Z AUTO 20008KT 10SM CLR 12/07 A3013 RMK AO2,KATS,2018-10-28T07:15:00Z,32.85,-104.47,12.0,7.0,200,8,,10.0,30.129921,,,TRUE,TRUE,,,,,,,CLR,,,,,,,,VFR,,,,,,,,,,,,SPECI,1081.0
KAIT 280715Z AUTO 02004KT 7SM -RA OVC006 06/04 A2956 RMK AO2 P0001,KAIT,2018-10-28T07:15:00Z,46.53,-93.67,6.0,4.0,20,4,,7.0,29.56004,,,TRUE,TRUE,,,,,,-RA,OVC,600,,,,,,,IFR,,,,,,0.01,,,,,,SPECI,367.0
KAEJ 280715Z AUTO 00000KT 10SM CLR 01/M03 A3036 RMK AO2 T00141028,KAEJ,2018-10-28T07:15:00Z,38.82,-106.12,1.4,-2.8,0,0,,10.0,30.360237,,,TRUE,TRUE,,,,,,,CLR,,,,,,,,VFR,,,,,,,,,,,,SPECI,2422.0
K8B0 280715Z AUTO 07010KT 3SM UP BKN003 BKN007 OVC018 00/00 A2976 RMK AO2,K8B0,2018-10-28T07:15:00Z,,,0.0,0.0,70,10,,3.0,29.760826,,,TRUE,TRUE,,,,,,UP,BKN,300,BKN,700,OVC,1800,,,LIFR,,,,,,,,,,,,SPECI,
K6L4 280715Z AUTO 26007KT 220V290 9SM BKN026 BKN030 OVC036 07/06 A2992 RMK AO2,K6L4,2018-10-28T07:15:00Z,37.85,-81.92,7.0,6.0,260,7,,9.0,29.920275,,,TRUE,TRUE,,,,,,,BKN,2600,BKN,3000,OVC,3600,,,MVFR,,,,,,,,,,,,METAR,508.0
K42J 280715Z AUTO 32005KT 10SM FEW042 SCT050 SCT065 09/09 A3010 RMK A01 TSNO,K42J,2018-10-28T07:15:00Z,29.85,-82.05,9.0,9.0,320,5,,10.0,30.100393,,,TRUE,TRUE,,,TRUE,,,,FEW,4200,SCT,5000,SCT,6500,,,VFR,,,,,,,,,,,,SPECI,60.0
K0S9 280715Z AUTO 17004G11KT 10SM 12/11 A2969 RMK AO2,K0S9,2018-10-28T07:15:00Z,48.05,-122.82,12.0,11.0,170,4,11,10.0,29.68996,,,TRUE,TRUE,,,,,,,,,,,,,,,,,,,,,,,,,,,METAR,33.0
CWEU 280715Z VRB02KT 15SM IC BKN220 M28/M31 A2976 RMK CS6 SLP082,CWEU,2018-10-28T07:15:00Z,80.0,-85.92,-28.0,-31.0,0,2,,15.0,29.760826,1008.2,,,,,,,,,IC,BKN,22000,,,,,,,VFR,,,,,,,,,,,,SPECI,10.0
PAGS 280715Z AUTO 00000KT 4SM BR CLR 02/02 A2952 RMK AO2 FZRANO,PAGS,2018-10-28T07:15:00Z,58.42,-135.73,2.0,2.0,0,0,,4.0,29.518702,,,TRUE,TRUE,,,,TRUE,,BR,CLR,,,,,,,,MVFR,,,,,,,,,,,,SPECI,9.0
KOQN 280715Z AUTO 23004KT 7SM CLR 07/06 A2972 RMK AO2,KOQN,2018-10-28T07:15:00Z,39.98,-75.58,7.0,6.0,230,4,,7.0,29.719488,,,TRUE,TRUE,,,,,,,CLR,,,,,,,,VFR,,,,,,,,,,,,METAR,142.0
KRVL 280715Z AUTO 00000KT 10SM SCT018 OVC024 06/06 A2970 RMK AO2,KRVL,2018-10-28T07:15:00Z,,,6.0,6.0,0,0,,10.0,29.698818,,,TRUE,TRUE,,,,,,,SCT,1800,OVC,2400,,,,,MVFR,,,,,,,,,,,,METAR,
KRDK 280715Z AUTO 33012G18KT 10SM CLR 13/08 A2990 RMK AO2,KRDK,2018-10-28T07:15:00Z,41.02,-95.27,13.0,8.0,330,12,18,10.0,29.899607,,,TRUE,TRUE,,,,,,,CLR,,,,,,,,VFR,,,,,,,,,,,,SPECI,318.0
KRCX 280715Z AUTO 13008KT 5SM -RA BKN008 BKN021 OVC026 06/05 A2964 RMK AO2 T00600054,KRCX,2018-10-28T07:15:00Z,45.5,-91.0,6.0,5.4,130,8,,5.0,29.639763,,,TRUE,TRUE,,,,,,-RA,BKN,800,BKN,2100,OVC,2600,,,IFR,,,,,,,,,,,,SPECI,377.0
KRCV 280715Z AUTO 26011KT 10SM CLR 05/M03 A3038 RMK AO2 T00521030,KRCV,2018-10-28T07:15:00Z,37.72,-106.35,5.2,-3.0,260,11,,10.0,30.380905,,,TRUE,TRUE,,,,,,,CLR,,,,,,,,VFR,,,,,,,,,,,,SPECI,2424.0
KPSO 280715Z AUTO 00000KT 10SM CLR 02/00 A3038 RMK AO2 T00151005,KPSO,2018-10-28T07:15:00Z,37.28,-107.05,1.5,-0.5,0,0,,10.0,30.380905,,,TRUE,TRUE,,,,,,,CLR,,,,,,,,VFR,,,,,,,,,,,,SPECI,2334.0
KPQN 280715Z AUTO 30009G14KT 10SM 06 A2987 RMK AO2,KPQN,2018-10-28T07:15:00Z,43.97,-96.32,,,300,9,14,10.0,29.870079,,,TRUE,TRUE,,,,,,,,,,,,,,,,,,,,,,,,,,,SPECI,529.0
KPLR 280715Z AUTO 00000KT 6SM BR CLR 07/07 A3009 RMK A01,KPLR,2018-10-28T07:15:00Z,33.57,-86.25,7.0,7.0,0,0,,6.0,30.088583,,,TRUE,TRUE,,,,,,BR,CLR,,,,,,,,VFR,,,,,,,,,,,,METAR,148.0
KPCZ 280715Z AUTO 16004KT 10SM OVC038 07/04 A2976 RMK AO2 T00730042,KPCZ,2018-10-28T07:15:00Z,44.33,-89.02,7.3,4.2,160,4,,10.0,29.760826,,,TRUE,TRUE,,,,,,,OVC,3800,,,,,,,VFR,,,,,,,,,,,,SPECI,252.0
KPCM 280715Z AUTO 00000KT 10SM CLR 15/13 A3011 RMK AO2,KPCM,2018-10-28T07:15:00Z,28.0,-82.17,15.0,13.0,0,0,,10.0,30.109253,,,TRUE,TRUE,,,,,,,CLR,,,,,,,,VFR,,,,,,,,,,,,METAR,47.0
KPAN 280715Z AUTO 00000KT 10SM CLR 11/02 A3024 RMK AO2,KPAN,2018-10-28T07:15:00Z,34.25,-111.33,11.0,2.0,0,0,,10.0,30.239174,,,TRUE,TRUE,,,,,,,CLR,,,,,,,,VFR,,,,,,,,,,,,SPECI,1572.0
KOXV 280715Z AUTO 27005KT 10SM BKN070 BKN120 12/09 A2977 RMK AO2,KOXV,2018-10-28T07:15:00Z,41.28,-93.12,12.0,9.0,270,5,,10.0,29.769686,,,TRUE,TRUE,,,,,,,BKN,7000,BKN,12000,,,,,VFR,,,,,,,,,,,,SPECI,283.0
KORS 280715Z AUTO VRB05G13KT 10SM OVC019 13/11 A2967 RMK AO2,KORS,2018-10-28T07:15:00Z,48.7,-122.92,13.0,11.0,0,5,13,10.0,29.66929,,,TRUE,TRUE,,,,,,,OVC,1900,,,,,,,MVFR,,,,,,,,,,,,SPECI,9.0
KORC 280715Z AUTO 31011KT 10SM CLR 07/06 A2991 RMK AO2,KORC,2018-10-28T07:15:00Z,42.97,-96.07,7.0,6.0,310,11,,10.0,29.911417,,,TRUE,TRUE,,,,,,,CLR,,,,,,,,VFR,,,,,,,,,,,,SPECI,431.0
KOLV 280715Z AUTO 00000KT 6SM BR CLR 09/09 A3002 RMK A01,KOLV,2018-10-28T07:15:00Z,34.98,-89.78,9.0,9.0,0,0,,6.0,30.02067,,,TRUE,TRUE,,,,,,BR,CLR,,,,,,,,VFR,,,,,,,,,,,,METAR,122.0
KOLG 280715Z AUTO 09006KT 5SM OVC007 05/05 A2962 RMK AO1 P0001,KOLG,2018-10-28T07:15:00Z,46.3,-91.82,5.0,5.0,90,6,,5.0,29.619095,,,TRUE,TRUE,,,,,,,OVC,700,,,,,,,IFR,,,,,,0.01,,,,,,SPECI,336.0
KOGS 280715Z AUTO 06007KT 10SM OVC011 01/01 A2973 RMK AO2 T00130010,KOGS,2018-10-28T07:15:00Z,44.67,-75.47,1.3,1.0,60,7,,10.0,29.731298,,,TRUE,TRUE,,,,,,,OVC,1100,,,,,,,MVFR,,,,,,,,,,,,SPECI,91.0
KMXO 280715Z AUTO 23008KT 7SM -RA FEW040 BKN060 OVC075 10/10 A2974 RMK AO2,KMXO,2018-10-28T07:15:00Z,42.22,-91.17,10.0,10.0,230,8,,7.0,29.740158,,,TRUE,TRUE,,,,,,-RA,FEW,4000,BKN,6000,OVC,7500,,,VFR,,,,,,,,,,,,SPECI,259.0
KMWC 280715Z AUTO 14004KT 7SM SCT043 BKN060 06/03 A2980 RMK AO2,KMWC,2018-10-28T07:15:00Z,43.12,-88.03,6.0,3.0,140,4,,7.0,29.799213,,,TRUE,TRUE,,,,,,,SCT,4300,BKN,6000,,,,,VFR,,,,,,,,,,,,SPECI,227.0
KMUT 280715Z AUTO 00000KT 6SM -RA FEW031 BKN075 OVC090 10/09 A2978 RMK AO2,KMUT,2018-10-28T07:15:00Z,41.37,-91.15,10.0,9.0,0,0,,6.0,29.778543,,,TRUE,TRUE,,,,,,-RA,FEW,3100,BKN,7500,OVC,9000,,,VFR,,,,,,,,,,,,SPECI,167.0
KMOX 280715Z AUTO 32020G26KT 10SM OVC014 07/06 A2978 RMK AO2,KMOX,2018-10-28T07:15:00Z,45.57,-95.97,7.0,6.0,320,20,26,10.0,29.778543,,,TRUE,TRUE,,,,,,,OVC,1400,,,,,,,MVFR,,,,,,,,,,,,SPECI,344.0
KMNI 280715Z AUTO 00000KT 10SM CLR 08/07 A2998 RMK AO2,KMNI,2018-10-28T07:15:00Z,33.58,-80.22,8.0,7.0,0,0,,10.0,29.97933,,,TRUE,TRUE,,,,,,,CLR,,,,,,,,VFR,,,,,,,,,,,,METAR,32.0
KMGN 280715Z AUTO 07003KT 10SM OVC033 02/01 A2984 RMK AO2 T00230018,KMGN,2018-10-28T07:15:00Z,45.43,-84.92,2.3,1.8,70,3,,10.0,29.840551,,,TRUE,TRUE,,,,,,,OVC,3300,,,,,,,VFR,,,,,,,,,,,,SPECI,209.0
KMGC 280715Z AUTO 17003KT 10SM BKN050 06/03 A2986 RMK AO2,KMGC,2018-10-28T07:15:00Z,41.7,-86.82,6.0,3.0,170,3,,10.0,29.861221,,,TRUE,TRUE,,,,,,,BKN,5000,,,,,,,VFR,,,,,,,,,,,,SPECI,200.0
KMCJ 280715Z AUTO 21011G17KT 180V250 10SM CLR 20/16 A3010 RMK A01,KMCJ,2018-10-28T07:15:00Z,29.72,-95.4,20.0,16.0,210,11,17,10.0,30.100393,,,TRUE,TRUE,,,,,,,CLR,,,,,,,,VFR,,,,,,,,,,,,SPECI,69.0
KMBO 280715Z AUTO 00000KT 7SM CLR 10/10 A3008 RMK AO2,KMBO,2018-10-28T07:15:00Z,32.43,-90.1,10.0,10.0,0,0,,7.0,30.079725,,,TRUE,TRUE,,,,,,,CLR,,,,,,,,VFR,,,,,,,,,,,,METAR,99.0
KMAW 280715Z AUTO 17003KT 10SM CLR 10/08 A2998 RMK AO2,KMAW,2018-10-28T07:15:00Z,36.6,-90.0,10.0,8.0,170,3,,10.0,29.97933,,,TRUE,TRUE,,,,,,,CLR,,,,,,,,VFR,,,,,,,,,,,,METAR,90.0
KLUM 280715Z AUTO 15007KT 3SM BR BKN006 OVC013 05/05 A2960 RMK AO2 P0002 T00530045,KLUM,2018-10-28T07:15:00Z,44.9,-91.87,5.3,4.5,150,7,,3.0,29.601377,,,TRUE,TRUE,,,,,,BR,BKN,600,OVC,1300,,,,,IFR,,,,,,0.02,,,,,,SPECI,273.0
KLRY 280715Z AUTO 20003KT 10SM CLR 12/07 A2987 RMK AO2,KLRY,2018-10-28T07:15:00Z,38.62,-94.35,12.0,7.0,200,3,,10.0,29.870079,,,TRUE,TRUE,,,,,,,CLR,,,,,,,,VFR,,,,,,,,,,,,METAR,279.0
KLRJ 280715Z AUTO 30009G14KT 10SM CLR 08/05 A2993 RMK AO2,KLRJ,2018-10-28T07:15:00Z,42.77,-96.2,8.0,5.0,300,9,14,10.0,29.929134,,,TRUE,TRUE,,,,,,,CLR,,,,,,,,VFR,,,,,,,,,,,,SPECI,365.0
KLBE 280715Z AUTO 23008KT 4SM -RA BKN006 OVC009 07/07 A2974 RMK AO2,KLBE,2018-10-28T07:15:00Z,40.27,-79.4,7.0,7.0,230,8,,4.0,29.740158,,,TRUE,TRUE,,,,,,-RA,BKN,600,OVC,900,,,,,IFR,,,,,,,,,,,,SPECI,361.0
KL52 280715Z AUTO 00000KT 1/4SM FG OVC002 13/12 A3001 RMK A01,KL52,2018-10-28T07:15:00Z,,,13.0,12.0,0,0,,0.25,30.008858,,,TRUE,TRUE,,,,,,FG,OVC,200,,,,,,,LIFR,,,,,,,,,,,,SPECI,
KL08 280715Z AUTO 26003KT 10SM CLR 17/M01 A2996 RMK AO2,KL08,2018-10-28T07:15:00Z,33.27,-116.32,17.0,-1.0,260,3,,10.0,29.958662,,,TRUE,TRUE,,,,,,,CLR,,,,,,,,VFR,,,,,,,,,,,,SPECI,159.0
KKY8 280715Z AUTO 00000KT 8SM FEW042 FEW049 FEW100 05/05 A2997 RMK A01,KKY8,2018-10-28T07:15:00Z,37.95,-86.87,5.0,5.0,0,0,,8.0,29.970472,,,TRUE,TRUE,,,,,,,FEW,4200,FEW,4900,FEW,10000,,,VFR,,,,,,,,,,,,METAR,126.0
KJZI 280715Z AUTO 27007KT 7SM CLR 12/10 A3001 RMK AO2 PWINO,KJZI,2018-10-28T07:15:00Z,32.7,-80.0,12.0,10.0,270,7,,7.0,30.008858,,,TRUE,TRUE,,,,,TRUE,,CLR,,,,,,,,VFR,,,,,,,,,,,,METAR,6.0
KJVW 280715Z AUTO 00000KT 3SM BR CLR 10/10 A3008 RMK AO2,KJVW,2018-10-28T07:15:00Z,32.3,-90.42,10.0,10.0,0,0,,3.0,30.079725,,,TRUE,TRUE,,,,,,BR,CLR,,,,,,,,MVFR,,,,,,,,,,,,METAR,76.0
KJVL 280715Z AUTO 17006KT 5SM RA SCT048 SCT050 OVC075 07/06 A2978 RMK AO2 P0001,KJVL,2018-10-28T07:15:00Z,42.62,-89.05,7.0,6.0,170,6,,5.0,29.778543,,,TRUE,TRUE,,,,,,RA,SCT,4800,SCT,5000,OVC,7500,,,MVFR,,,,,,0.01,,,,,,SPECI,246.0
KJKJ 280715Z AUTO 31005KT 10SM OVC012 05/04 A2982 RMK AO2,KJKJ,2018-10-28T07:15:00Z,46.83,-96.67,5.0,4.0,310,5,,10.0,29.819881,,,TRUE,TRUE,,,,,,,OVC,1200,,,,,,,MVFR,,,,,,,,,,,,SPECI,280.0
KJFX 280715Z AUTO 00000KT 10SM 05/05 A3008 RMK AO2 PWINO,KJFX,2018-10-28T07:15:00Z,33.9,-87.32,5.0,5.0,0,0,,10.0,30.079725,,,TRUE,TRUE,,,,,TRUE,,,,,,,,,,,,,,,,,,,,,,METAR,148.0
KIKV 280715Z AUTO 31011KT 10SM FEW075 SCT095 BKN110 13/08 A2982 RMK AO2,KIKV,2018-10-28T07:15:00Z,41.68,-93.57,13.0,8.0,310,11,,10.0,29.819881,,,TRUE,TRUE,,,,,,,FEW,7500,SCT,9500,BKN,11000,,,VFR,,,,,,,,,,,,SPECI,275.0
KIIB 280715Z AUTO 24007KT 10SM SCT037 SCT050 OVC065 11/10 A2974 RMK AO2 T01080096,KIIB,2018-10-28T07:15:00Z,42.45,-91.95,10.8,9.6,240,7,,10.0,29.740158,,,TRUE,TRUE,,,,,,,SCT,3700,SCT,5000,OVC,6500,,,VFR,,,,,,,,,,,,SPECI,298.0
KICL 280715Z AUTO 34013G18KT 10SM CLR 13/08 A2990 RMK AO2,KICL,2018-10-28T07:15:00Z,40.72,-95.02,13.0,8.0,340,13,18,10.0,29.899607,,,TRUE,TRUE,,,,,,,CLR,,,,,,,,VFR,,,,,,,,,,,,SPECI,303.0
KHZE 280715Z AUTO 00000KT 10SM FEW090 04/M02 A2999 RMK AO2 TSNO,KHZE,2018-10-28T07:15:00Z,47.28,-101.58,4.0,-2.0,0,0,,10.0,29.991142,,,TRUE,TRUE,,,TRUE,,,,FEW,9000,,,,,,,VFR,,,,,,,,,,,,SPECI,553.0
KHXD 280715Z AUTO 24006G11KT 10SM CLR 13/09 A3004 RMK AO2,KHXD,2018-10-28T07:15:00Z,32.22,-80.7,13.0,9.0,240,6,11,10.0,30.041338,,,TRUE,TRUE,,,,,,,CLR,,,,,,,,VFR,,,,,,,,,,,,METAR,6.0
KHVS 280715Z AUTO 26003KT 10SM CLR 07/07 A2995 RMK AO2,KHVS,2018-10-28T07:15:00Z,34.4,-80.12,7.0,7.0,260,3,,10.0,29.949802,,,TRUE,TRUE,,,,,,,CLR,,,,,,,,VFR,,,,,,,,,,,,METAR,111.0
KHNR 280715Z AUTO 32014KT 10SM CLR 11/08 A2991 RMK AO2,KHNR,2018-10-28T07:15:00Z,41.58,-95.33,11.0,8.0,320,14,,10.0,29.911417,,,TRUE,TRUE,,,,,,,CLR,,,,,,,,VFR,,,,,,,,,,,,SPECI,375.0
KSVE 280715Z AUTO 28005KT 10SM CLR 13/01 A3011 RMK AO2,KSVE,2018-10-28T07:15:00Z,40.37,-120.57,13.0,1.0,280,5,,10.0,30.109253,,,TRUE,TRUE,,,,,,,CLR,,,,,,,,VFR,,,,,,,,,,,,METAR,1263.0
KSOW 280715Z AUTO 19005KT 10SM CLR 06/M00 A3032 RMK AO2,KSOW,2018-10-28T07:15:00Z,34.27,-110.0,6.0,0.0,190,5,,10.0,30.318897,,,TRUE,TRUE,,,,,,,CLR,,,,,,,,VFR,,,,,,,,,,,,SPECI,1954.0
KSMS 280715Z AUTO 00000KT 10SM CLR 07/07 A2997 RMK AO2,KSMS,2018-10-28T07:15:00Z,34.0,-80.37,7.0,7.0,0,0,,10.0,29.970472,,,TRUE,TRUE,,,,,,,CLR,,,,,,,,VFR,,,,,,,,,,,,METAR,56.0
KPTS 280715Z AUTO 20006KT 10SM CLR 13/10 A2990 RMK AO2 T01330095,KPTS,2018-10-28T07:15:00Z,37.45,-94.73,13.3,9.5,200,6,,10.0,29.899607,,,TRUE,TRUE,,,,,,,CLR,,,,,,,,VFR,,,,,,,,,,,,METAR,290.0
KTVY 280715Z AUTO 19005KT 10SM CLR 08/02 A3014 RMK AO2,KTVY,2018-10-28T07:15:00Z,40.62,-112.35,8.0,2.0,190,5,,10.0,30.138779,,,TRUE,TRUE,,,,,,,CLR,,,,,,,,VFR,,,,,,,,,,,,SPECI,1317.0
KTPF 280715Z AUTO 00000KT 10SM BKN110 16/15 A3009 RMK AO2,KTPF,2018-10-28T07:15:00Z,27.92,-82.45,16.0,15.0,0,0,,10.0,30.088583,,,TRUE,TRUE,,,,,,,BKN,11000,,,,,,,VFR,,,,,,,,,,,,METAR,3.0
KTNU 280715Z AUTO 32004KT 10SM FEW055 OVC070 11/09 A2979 RMK AO2 PWINO,KTNU,2018-10-28T07:15:00Z,41.67,-93.02,11.0,9.0,320,4,,10.0,29.790354,,,TRUE,TRUE,,,,,TRUE,,FEW,5500,OVC,7000,,,,,VFR,,,,,,,,,,,,SPECI,290.0
KTME 280715Z AUTO 22005KT 7SM CLR 17/16 A3012 RMK AO2,KTME,2018-10-28T07:15:00Z,29.8,-95.9,17.0,16.0,220,5,,7.0,30.121063,,,TRUE,TRUE,,,,,,,CLR,,,,,,,,VFR,,,,,,,,,,,,SPECI,51.0
KSYM 280715Z AUTO 24004KT 8SM OVC037 08/06 A2996 RMK AO2,KSYM,2018-10-28T07:15:00Z,38.22,-83.58,8.0,6.0,240,4,,8.0,29.958662,,,TRUE,TRUE,,,,,,,OVC,3700,,,,,,,VFR,,,,,,,,,,,,METAR,313.0
KSVC 280715Z AUTO 35009KT 10SM CLR 08/04 A3027 RMK AO2 T00800035,KSVC,2018-10-28T07:15:00Z,32.63,-108.15,8.0,3.5,350,9,,10.0,30.268702,,,TRUE,TRUE,,,,,,,CLR,,,,,,,,VFR,,,,,,,,,,,,SPECI,1659.0
KSUA 280715Z AUTO 33006KT 10SM CLR 18/13 A3007 RMK AO2,KSUA,2018-10-28T07:15:00Z,27.18,-80.22,18.0,13.0,330,6,,10.0,30.070866,,,TRUE,TRUE,,,,,,,CLR,,,,,,,,VFR,,,,,,,,,,,,METAR,6.0
KSIK 280715Z AUTO 20003KT 10SM CLR 10/10 A2997 RMK AO2,KSIK,2018-10-28T07:15:00Z,36.9,-89.57,10.0,10.0,200,3,,10.0,29.970472,,,TRUE,TRUE,,,,,,,CLR,,,,,,,,VFR,,,,,,,,,,,,METAR,96.0
KSEM 280715Z AUTO 00000KT 10SM CLR 08/07 A3010 RMK AO2,KSEM,2018-10-28T07:15:00Z,32.35,-86.98,8.0,7.0,0,0,,10.0,30.100393,,,TRUE,TRUE,,,,,,,CLR,,,,,,,,VFR,,,,,,,,,,,,METAR,51.0
KS32 280715Z AUTO 30010KT 10SM CLR 03/02 A2985 RMK AO2,KS32,2018-10-28T07:15:00Z,47.42,-98.1,3.0,2.0,300,10,,10.0,29.84941,,,TRUE,TRUE,,,,,,,CLR,,,,,,,,VFR,,,,,,,,,,,,SPECI,684.0
KS25 280715Z AUTO 28008KT 10SM CLR 04/M00 A2999 RMK AO2,KS25,2018-10-28T07:15:00Z,47.8,-103.25,4.0,0.0,280,8,,10.0,29.991142,,,TRUE,TRUE,,,,,,,CLR,,,,,,,,VFR,,,,,,,,,,,,SPECI,644.0
KRZT 280715Z AUTO 25004KT 10SM OVC040 06/05 A2990 RMK AO2,KRZT,2018-10-28T07:15:00Z,39.43,-83.02,6.0,5.0,250,4,,10.0,29.899607,,,TRUE,TRUE,,,,,,,OVC,4000,,,,,,,VFR,,,,,,,,,,,,SPECI,221.0
KRYV 280715Z AUTO 14005KT 7SM OVC036 06/06 A2977 RMK AO2 T00600060,KRYV,2018-10-28T07:15:00Z,43.17,-88.72,6.0,6.0,140,5,,7.0,29.769686,,,TRUE,TRUE,,,,,,,OVC,3600,,,,,,,VFR,,,,,,,,,,,,SPECI,254.0
KRUG 280715Z AUTO 30008KT 10SM CLR 00/M00 A2987 RMK AO2,KRUG,2018-10-28T07:15:00Z,48.38,-100.02,0.0,0.0,300,8,,10.0,29.870079,,,TRUE,TRUE,,,,,,,CLR,,,,,,,,VFR,,,,,,,,,,,,SPECI,472.0
KRRT 280715Z AUTO 26004KT 4SM BR BKN030 BKN049 OVC060 04/02 A2976 RMK AO2,KRRT,2018-10-28T07:15:00Z,48.93,-95.33,4.0,2.0,260,4,,4.0,29.760826,,,TRUE,TRUE,,,,,,BR,BKN,3000,BKN,4900,OVC,6000,,,MVFR,,,,,,,,,,,,SPECI,327.0
KROX 280715Z AUTO 00000KT 7SM BKN029 OVC060 05/02 A2976 RMK AO2,KROX,2018-10-28T07:15:00Z,48.85,-95.7,5.0,2.0,0,0,,7.0,29.760826,,,TRUE,TRUE,,,,,,,BKN,2900,OVC,6000,,,,,MVFR,,,,,,,,,,,,SPECI,323.0
KRNH 280715Z AUTO 21007KT 4SM DZ BKN007 OVC012 08/07 A2957 RMK AO2 P0001 T00780073,KRNH,2018-10-28T07:15:00Z,45.15,-92.53,7.8,7.3,210,7,,4.0,29.568897,,,TRUE,TRUE,,,,,,DZ,BKN,700,OVC,1200,,,,,IFR,,,,,,0.01,,,,,,SPECI,304.0
KY19 280715Z AUTO 30016KT 10SM FEW080 OVC095 07/M02 A2997 RMK AO2,KY19,2018-10-28T07:15:00Z,46.77,-100.9,7.0,-2.0,300,16,,10.0,29.970472,,,TRUE,TRUE,,,,,,,FEW,8000,OVC,9500,,,,,VFR,,,,,,,,,,,,SPECI,593.0
KVVV 280715Z AUTO 30016G22KT 10SM CLR 07/03 A2982 RMK AO2,KVVV,2018-10-28T07:15:00Z,45.3,-96.42,7.0,3.0,300,16,22,10.0,29.819881,,,TRUE,TRUE,,,,,,,CLR,,,,,,,,VFR,,,,,,,,,,,,SPECI,335.0
KVQQ 280715Z AUTO 00000KT 10SM CLR 07/06 A3010 RMK AO2,KVQQ,2018-10-28T07:15:00Z,30.22,-81.88,7.0,6.0,0,0,,10.0,30.100393,,,TRUE,TRUE,,,,,,,CLR,,,,,,,,VFR,,,,,,,,,,,,METAR,25.0
KVDF 280715Z AUTO 00000KT 7SM CLR 13/12 A3010 RMK AO2,KVDF,2018-10-28T07:15:00Z,28.02,-82.33,13.0,12.0,0,0,,7.0,30.100393,,,TRUE,TRUE,,,,,,,CLR,,,,,,,,VFR,,,,,,,,,,,,SPECI,7.0
KUTA 280715Z AUTO 16005KT 10SM 10/10 A3003 RMK AO2 TSNO,KUTA,2018-10-28T07:15:00Z,34.68,-90.35,10.0,10.0,160,5,,10.0,30.029528,,,TRUE,TRUE,,,TRUE,,,,,,,,,,,,,,,,,,,,,,,,SPECI,59.0
KULM 280715Z AUTO 28019G24KT 10SM CLR 07/04 A2974 RMK AO2,KULM,2018-10-28T07:15:00Z,44.32,-94.5,7.0,4.0,280,19,24,10.0,29.740158,,,TRUE,TRUE,,,,,,,CLR,,,,,,,,VFR,,,,,,,,,,,,SPECI,308.0
KUKT 280715Z AUTO 24003KT 10SM BKN008 OVC011 07/07 A2969 RMK A01,KUKT,2018-10-28T07:15:00Z,40.43,-75.38,7.0,7.0,240,3,,10.0,29.68996,,,TRUE,TRUE,,,,,,,BKN,800,OVC,1100,,,,,IFR,,,,,,,,,,,,SPECI,160.0
KTVK 280715Z AUTO 21006KT 10SM CLR 14/05 A2978 RMK AO2,KTVK,2018-10-28T07:15:00Z,40.68,-92.9,14.0,5.0,210,6,,10.0,29.778543,,,TRUE,TRUE,,,,,,,CLR,,,,,,,,VFR,,,,,,,,,,,,METAR,314.0
KTVI 280715Z AUTO 27003KT 10SM CLR 10/08 A3012 RMK AO2,KTVI,2018-10-28T07:15:00Z,30.9,-83.88,10.0,8.0,270,3,,10.0,30.121063,,,TRUE,TRUE,,,,,,,CLR,,,,,,,,VFR,,,,,,,,,,,,METAR,80.0
KTSP 280715Z AUTO 00000KT 10SM CLR 06/M03 A3017 RMK AO2,KTSP,2018-10-28T07:15:00Z,35.13,-118.43,6.0,-3.0,0,0,,10.0,30.171259,,,TRUE,TRUE,,,,,,,CLR,,,,,,,,VFR,,,,,,,,,,,,METAR,1220.0
KTRK 280715Z AUTO 00000KT 10SM CLR 04/00 A3021 RMK AO2 LTG DSNT SE AND NW,KTRK,2018-10-28T07:15:00Z,39.32,-120.12,4.0,0.0,0,0,,10.0,30.209646,,,TRUE,TRUE,,,,,,,CLR,,,,,,,,VFR,,,,,,,,,,,,METAR,1798.0
KSEF 280715Z AUTO 00000KT 10SM SCT032 16/13 A3008 RMK AO2 T01620130,KSEF,2018-10-28T07:15:00Z,27.45,-81.35,16.2,13.0,0,0,,10.0,30.079725,,,TRUE,TRUE,,,,,,,SCT,3200,,,,,,,VFR,,,,,,,,,,,,METAR,19.0
KRCR 280715Z AUTO 00000KT 10SM OVC050 08/05 A2989 RMK AO2,KRCR,2018-10-28T07:15:00Z,41.07,-86.18,8.0,5.0,0,0,,10.0,29.890747,,,TRUE,TRUE,,,,,,,OVC,5000,,,,,,,VFR,,,,,,,,,,,,METAR,241.0
KPTT 280715Z AUTO 36013G17KT 10SM CLR 14/07 A3000 RMK AO2 T01440068,KPTT,2018-10-28T07:15:00Z,37.7,-98.75,14.4,6.8,360,13,17,10.0,30.0,,,TRUE,TRUE,,,,,,,CLR,,,,,,,,VFR,,,,,,,,,,,,METAR,595.0
KOWX 280715Z AUTO 27004KT 10SM SCT017 OVC037 05/03 A2990 RMK AO1,KOWX,2018-10-28T07:15:00Z,41.03,-83.98,5.0,3.0,270,4,,10.0,29.899607,,,TRUE,TRUE,,,,,,,SCT,1700,OVC,3700,,,,,VFR,,,,,,,,,,,,METAR,233.0
KORG 280715Z AUTO 23003KT 10SM CLR 18/18 A3012 RMK AO2 T01830181,KORG,2018-10-28T07:15:00Z,30.07,-93.8,18.3,18.1,230,3,,10.0,30.121063,,,TRUE,TRUE,,,,,,,CLR,,,,,,,,VFR,,,,,,,,,,,,METAR,4.0
KMZZ 280715Z AUTO 00000KT 10SM OVC049 A2990 RMK AO2,KMZZ,2018-10-28T07:15:00Z,40.48,-85.68,,,0,0,,10.0,29.899607,,,TRUE,TRUE,,,,,,,OVC,4900,,,,,,,VFR,,,,,,,,,,,,METAR,262.0
KMMU 280715Z AUTO 00000KT 7SM SCT013 BKN023 OVC030 A2968 RMK AO2,KMMU,2018-10-28T07:15:00Z,40.78,-74.42,,,0,0,,7.0,29.681103,,,TRUE,TRUE,,,,,,,SCT,1300,BKN,2300,OVC,3000,,,MVFR,,,,,,,,,,,,METAR,57.0
KLOT 280715Z AUTO 17007KT 4SM BR CLR 06/05 A2983 RMK AO2 T00630051,KLOT,2018-10-28T07:15:00Z,41.6,-88.1,6.3,5.1,170,7,,4.0,29.828741,,,TRUE,TRUE,,,,,,BR,CLR,,,,,,,,MVFR,,,,,,,,,,,,METAR,205.0
KJHN 280715Z AUTO 36010KT 10SM CLR 12/05 A3012 RMK AO2 T01220050,KJHN,2018-10-28T07:15:00Z,37.58,-101.73,12.2,5.0,360,10,,10.0,30.121063,,,TRUE,TRUE,,,,,,,CLR,,,,,,,,VFR,,,,,,,,,,,,METAR,1013.0
KGDJ 280715Z AUTO 21009KT 10SM CLR 21/12 A3005 RMK AO2 T02050120,KGDJ,2018-10-28T07:15:00Z,32.45,-97.82,20.5,12.0,210,9,,10.0,30.050198,,,TRUE,TRUE,,,,,,,CLR,,,,,,,,VFR,,,,,,,,,,,,METAR,237.0
KFWZ 280715Z AUTO 25007KT 10SM CLR 06/M02 A3021 RMK AO2,KFWZ,2018-10-28T07:15:00Z,42.52,-108.78,6.0,-2.0,250,7,,10.0,30.209646,,,TRUE,TRUE,,,,,,,CLR,,,,,,,,VFR,,,,,,,,,,,,METAR,2588.0
KFWB 280715Z AUTO 23005KT 10SM CLR 12/08 A2997 RMK AO2,KFWB,2018-10-28T07:15:00Z,36.7,-93.4,12.0,8.0,230,5,,10.0,29.970472,,,TRUE,TRUE,,,,,,,CLR,,,,,,,,VFR,,,,,,,,,,,,METAR,406.0
KEZF 280715Z AUTO 00000KT 10SM BKN050 OVC065 10/10 A2975 RMK AO2 T01000100,KEZF,2018-10-28T07:15:00Z,38.27,-77.45,10.0,10.0,0,0,,10.0,29.749016,,,TRUE,TRUE,,,,,,,BKN,5000,OVC,6500,,,,,VFR,,,,,,,,,,,,METAR,26.0
KEHY 280715Z AUTO 25010G16KT 10SM CLR 07/M03 A3021 RMK AO2 PWINO,KEHY,2018-10-28T07:15:00Z,41.73,-106.47,7.0,-3.0,250,10,16,10.0,30.209646,,,TRUE,TRUE,,,,,TRUE,,CLR,,,,,,,,VFR,,,,,,,,,,,,METAR,2225.0
KEBA 280715Z AUTO 27006KT 10SM CLR 10/09 A3003 RMK AO2 T01000085,KEBA,2018-10-28T07:15:00Z,34.1,-82.82,10.0,8.5,270,6,,10.0,30.029528,,,TRUE,TRUE,,,,,,,CLR,,,,,,,,VFR,,,,,,,,,,,,METAR,184.0
KCIR 280715Z AUTO 00000KT 10SM CLR 06/06 A2997 RMK AO2 T00630063,KCIR,2018-10-28T07:15:00Z,37.07,-89.22,6.3,6.3,0,0,,10.0,29.970472,,,TRUE,TRUE,,,,,,,CLR,,,,,,,,VFR,,,,,,,,,,,,METAR,98.0
KCCO 280715Z AUTO 00000KT 10SM SCT037 SCT043 SCT050 08/06 A3007 RMK AO2 T00750061,KCCO,2018-10-28T07:15:00Z,33.32,-84.77,7.5,6.1,0,0,,10.0,30.070866,,,TRUE,TRUE,,,,,,,SCT,3700,SCT,4300,SCT,5000,,,VFR,,,,,,,,,,,,METAR,296.0
KBXK 280715Z AUTO 00000KT 10SM 15/08 A3000 RMK AO1,KBXK,2018-10-28T07:15:00Z,33.42,-112.68,15.0,8.0,0,0,,10.0,30.0,,,TRUE,TRUE,,,,,,,,,,,,,,,,,,,,,,,,,,,METAR,315.0
KBWP 280715Z AUTO 31010KT 10SM BKN017 05/03 A2982 RMK AO1,KBWP,2018-10-28T07:15:00Z,46.25,-96.62,5.0,3.0,310,10,,10.0,29.819881,,,TRUE,TRUE,,,,,,,BKN,1700,,,,,,,MVFR,,,,,,,,,,,,METAR,295.0
KBCB 280715Z AUTO 29005KT 10SM SCT018 OVC026 07/04 A2989 RMK AO2 T00650041,KBCB,2018-10-28T07:15:00Z,37.22,-80.42,6.5,4.1,290,5,,10.0,29.890747,,,TRUE,TRUE,,,,,,,SCT,1800,OVC,2600,,,,,MVFR,,,,,,,,,,,,METAR,650.0
KALN 280715Z AUTO 00000KT 10SM BKN110 10/09 A2989 RMK AO2 T00950086,KALN,2018-10-28T07:15:00Z,38.88,-90.03,9.5,8.6,0,0,,10.0,29.890747,,,TRUE,TRUE,,,,,,,BKN,11000,,,,,,,VFR,,,,,,,,,,,,METAR,166.0
KACP 280715Z AUTO 00000KT 7SM CLR 12/11 A3010 RMK AO2 T01210112,KACP,2018-10-28T07:15:00Z,30.75,-92.68,12.1,11.2,0,0,,7.0,30.100393,,,TRUE,TRUE,,,,,,,CLR,,,,,,,,VFR,,,,,,,,,,,,METAR,33.0
KACJ 280715Z AUTO 00000KT 10SM CLR 10/08 A3011 RMK AO2,KACJ,2018-10-28T07:15:00Z,32.12,-84.18,10.0,8.0,0,0,,10.0,30.109253,,,TRUE,TRUE,,,,,,,CLR,,,,,,,,VFR,,,,,,,,,,,,METAR,143.0
K5M9 280715Z AUTO 20003KT 10SM CLR 07/07 A2996 RMK AO2 T00730066,K5M9,2018-10-28T07:15:00Z,37.33,-88.12,7.3,6.6,200,3,,10.0,29.958662,,,TRUE,TRUE,,,,,,,CLR,,,,,,,,VFR,,,,,,,,,,,,METAR,199.0
K3K3 280715Z AUTO 01012G17KT 10SM CLR 10/05 A3012 RMK AO2,K3K3,2018-10-28T07:15:00Z,38.0,-101.75,10.0,5.0,10,12,17,10.0,30.121063,,,TRUE,TRUE,,,,,,,CLR,,,,,,,,VFR,,,,,,,,,,,,METAR,1013.0
K2J3 280715Z AUTO 28006KT 10SM CLR 10/08 A3004 RMK AO2 T00960083,K2J3,2018-10-28T07:15:00Z,32.98,-82.38,9.6,8.3,280,6,,10.0,30.041338,,,TRUE,TRUE,,,,,,,CLR,,,,,,,,VFR,,,,,,,,,,,,METAR,100.0
K17J 280715Z AUTO 31003KT 10SM CLR 10/09 A3012 RMK AO2 T00950087,K17J,2018-10-28T07:15:00Z,31.07,-84.92,9.5,8.7,310,3,,10.0,30.121063,,,TRUE,TRUE,,,,,,,CLR,,,,,,,,VFR,,,,,,,,,,,,METAR,45.0
KMHL 280715Z AUTO 21005KT 10SM BKN110 13/06 A2983 RMK AO2,KMHL,2018-10-28T07:15:00Z,39.1,-93.2,13.0,6.0,210,5,,10.0,29.828741,,,TRUE,TRUE,,,,,,,BKN,11000,,,,,,,VFR,,,,,,,,,,,,SPECI,237.0
KLDJ 280715Z AUTO 00000KT 10SM BKN007 OVC012 08/07 A2970 RMK AO2 T00750065,KLDJ,2018-10-28T07:15:00Z,40.62,-74.25,7.5,6.5,0,0,,10.0,29.698818,,,TRUE,TRUE,,,,,,,BKN,700,OVC,1200,,,,,IFR,,,,,,,,,,,,SPECI,7.0
KW78 280715Z AUTO 24004KT 10SM CLR 08/06 A2984 RMK AO1 T00750061,KW78,2018-10-28T07:15:00Z,36.68,-78.85,7.5,6.1,240,4,,10.0,29.840551,,,TRUE,TRUE,,,,,,,CLR,,,,,,,,VFR,,,,,,,,,,,,METAR,129.0
K0V4 280715Z AUTO 22006KT 10SM SCT095 08/06 A2982 RMK AO1 T00800063,K0V4,2018-10-28T07:15:00Z,37.15,-79.02,8.0,6.3,220,6,,10.0,29.819881,,,TRUE,TRUE,,,,,,,SCT,9500,,,,,,,VFR,,,,,,,,,,,,METAR,182.0
LMML 280715Z 18013KT CAVOK 23/20 Q1011 NOSIG,LMML,2018-10-28T07:15:00Z,35.85,14.47,23.0,20.0,180,13,,6.21,29.852362,,,,,,TRUE,,,,,CAVOK,,,,,,,,VFR,,,,,,,,,,,,METAR,91.0
LHSN 280715Z 18014KT CAVOK 18/08 Q1009 RESHRA NOSIG RMK BLU,LHSN,2018-10-28T07:15:00Z,47.12,20.23,18.0,8.0,180,14,,6.21,29.793306,,,,,,TRUE,,,,,CAVOK,,,,,,,,VFR,,,,,,,,,,,,METAR,98.0
KY49 280715Z AUTO 33011G16KT 10SM -RA SCT010 SCT017 OVC040 05/04 A2970 RMK AO2 T00470038,KY49,2018-10-28T07:15:00Z,47.13,-94.65,4.7,3.8,330,11,16,10.0,29.698818,,,TRUE,TRUE,,,,,,-RA,SCT,1000,SCT,1700,OVC,4000,,,VFR,,,,,,,,,,,,METAR,416.0
KBWD 280715Z AUTO 11003KT 10SM FEW046 14/12 A3010 RMK AO2 PWINO PNO,KBWD,2018-10-28T07:15:00Z,31.8,-98.95,14.0,12.0,110,3,,10.0,30.100393,,,TRUE,TRUE,,,,,TRUE,,FEW,4600,,,,,,,VFR,,,,,,,,,,,,METAR,423.0
KAXX 280715Z AUTO 16003KT 10SM CLR M04/M05 A3042 RMK AO2 T10361047,KAXX,2018-10-28T07:15:00Z,36.42,-105.28,-3.6,-4.7,160,3,,10.0,30.41929,,,TRUE,TRUE,,,,,,,CLR,,,,,,,,VFR,,,,,,,,,,,,METAR,2548.0
KGVE 280715Z AUTO 24003KT 10SM SCT060 OVC070 09/09 A2976 RMK AO1 T00860086,KGVE,2018-10-28T07:15:00Z,38.15,-78.17,8.6,8.6,240,3,,10.0,29.760826,,,TRUE,TRUE,,,,,,,SCT,6000,OVC,7000,,,,,VFR,,,,,,,,,,,,METAR,138.0
KFYJ 280715Z AUTO 24008KT 10SM BKN095 11/10 A2978 RMK AO1 T01100101,KFYJ,2018-10-28T07:15:00Z,37.52,-76.77,11.0,10.1,240,8,,10.0,29.778543,,,TRUE,TRUE,,,,,,,BKN,9500,,,,,,,VFR,,,,,,,,,,,,METAR,7.0
KFGX 280715Z AUTO 25005KT 10SM OVC039 08/08 A2995 RMK AO2 T00750075,KFGX,2018-10-28T07:15:00Z,38.55,-83.75,7.5,7.5,250,5,,10.0,29.949802,,,TRUE,TRUE,,,,,,,OVC,3900,,,,,,,VFR,,,,,,,,,,,,METAR,278.0
KEMM 280715Z AUTO 36003KT 10SM CLR 03/00 A3028 RMK AO2,KEMM,2018-10-28T07:15:00Z,41.82,-110.55,3.0,0.0,360,3,,10.0,30.280512,,,TRUE,TRUE,,,,,,,CLR,,,,,,,,VFR,,,,,,,,,,,,METAR,2220.0
KLWB 280715Z AUTO 28006KT 10SM BKN016 OVC024 05/03 A2986 RMK AO2 T00500033,KLWB,2018-10-28T07:15:00Z,37.87,-80.4,5.0,3.3,280,6,,10.0,29.861221,,,TRUE,TRUE,,,,,,,BKN,1600,OVC,2400,,,,,MVFR,,,,,,,,,,,,METAR,702.0
KLNQ 280715Z AUTO 00000KT 10SM CLR 16/14 A3013 RMK AO2 T01560142,KLNQ,2018-10-28T07:15:00Z,29.35,-89.43,15.6,14.2,0,0,,10.0,30.129921,,,TRUE,TRUE,,,,,,,CLR,,,,,,,,VFR,,,,,,,,,,,,METAR,1.0
KLNP 280715Z AUTO 28005KT A2996 RMK AO2 PWINO,KLNP,2018-10-28T07:15:00Z,36.97,-82.52,,,280,5,,,29.958662,,,TRUE,TRUE,,,,,TRUE,,,,,,,,,,,,,,,,,,,,,,METAR,817.0
KIYA 280715Z AUTO 00000KT 1 3/4SM BR VV007 14/14 A3012 RMK AO2 VIS 3/4V5 T01350135,KIYA,2018-10-28T07:15:00Z,29.98,-92.08,13.5,13.5,0,0,,1.75,30.121063,,,TRUE,TRUE,,,,,,BR,OVX,0,,,,,,,LIFR,,,,,,,,,,,700,METAR,5.0
KIDP 280715Z AUTO 19005KT 10SM CLR 12/08 A2992 RMK AO2 T01210085,KIDP,2018-10-28T07:15:00Z,37.17,-95.78,12.1,8.5,190,5,,10.0,29.920275,,,TRUE,TRUE,,,,,,,CLR,,,,,,,,VFR,,,,,,,,,,,,METAR,251.0
KVES 280715Z AUTO 26004KT 7SM BKN041 OVC060 04/04 A2989 RMK AO2,KVES,2018-10-28T07:15:00Z,40.2,-84.53,4.0,4.0,260,4,,7.0,29.890747,,,TRUE,TRUE,,,,,,,BKN,4100,OVC,6000,,,,,VFR,,,,,,,,,,,,METAR,307.0
KSHD 280715Z AUTO 00000KT 10SM OVC065 08/05 A2980 RMK AO2 T00750048,KSHD,2018-10-28T07:15:00Z,38.27,-78.9,7.5,4.8,0,0,,10.0,29.799213,,,TRUE,TRUE,,,,,,,OVC,6500,,,,,,,VFR,,,,,,,,,,,,METAR,366.0
KSFQ 280715Z AUTO 24005KT 10SM CLR 11/10 A2981 RMK AO2 T01080101,KSFQ,2018-10-28T07:15:00Z,36.68,-76.6,10.8,10.1,240,5,,10.0,29.811024,,,TRUE,TRUE,,,,,,,CLR,,,,,,,,VFR,,,,,,,,,,,,METAR,22.0
KPEQ 280715Z AUTO 23004KT 10SM CLR 12/10 A3011 RMK AO2 T01160100,KPEQ,2018-10-28T07:15:00Z,31.38,-103.52,11.6,10.0,230,4,,10.0,30.109253,,,TRUE,TRUE,,,,,,,CLR,,,,,,,,VFR,,,,,,,,,,,,METAR,797.0
KOPL 280715Z AUTO 19003KT 10SM CLR 15/14 A3010 RMK AO2 T01470136,KOPL,2018-10-28T07:15:00Z,30.55,-92.1,14.7,13.6,190,3,,10.0,30.100393,,,TRUE,TRUE,,,,,,,CLR,,,,,,,,VFR,,,,,,,,,,,,METAR,23.0
KVNC 280715Z AUTO 04006KT 10SM BKN039 19/16 A3007 RMK AO2,KVNC,2018-10-28T07:15:00Z,27.07,-82.43,19.0,16.0,40,6,,10.0,30.070866,,,TRUE,TRUE,,,,,,,BKN,3900,,,,,,,VFR,,,,,,,,,,,,SPECI,6.0
KSUW 280715Z AUTO 08006KT 3SM DZ SCT004 BKN035 OVC041 06/06 A2964 RMK AO2 P0001 T00630063,KSUW,2018-10-28T07:15:00Z,46.68,-92.1,6.3,6.3,80,6,,3.0,29.639763,,,TRUE,TRUE,,,,,,DZ,SCT,400,BKN,3500,OVC,4100,,,MVFR,,,,,,0.01,,,,,,SPECI,206.0
KIFA 280715Z AUTO 28013G20KT 10SM CLR 11/09 A2979 RMK AO2 T01110093,KIFA,2018-10-28T07:15:00Z,42.47,-93.27,11.1,9.3,280,13,20,10.0,29.790354,,,TRUE,TRUE,,,,,,,CLR,,,,,,,,VFR,,,,,,,,,,,,SPECI,347.0
KIDI 280715Z AUTO 00000KT 6SM BR BKN006 OVC010 06/06 A2975 RMK A01,KIDI,2018-10-28T07:15:00Z,40.62,-79.08,6.0,6.0,0,0,,6.0,29.749016,,,TRUE,TRUE,,,,,,BR,BKN,600,OVC,1000,,,,,IFR,,,,,,,,,,,,SPECI,429.0
KGGE 280715Z AUTO 25004KT 10SM CLR 10/10 A2999 RMK AO2,KGGE,2018-10-28T07:15:00Z,33.32,-79.32,10.0,10.0,250,4,,10.0,29.991142,,,TRUE,TRUE,,,,,,,CLR,,,,,,,,VFR,,,,,,,,,,,,SPECI,12.0
KGAF 280715Z AUTO 28009KT 10SM CLR 04/04 A2980 RMK AO2 PWINO,KGAF,2018-10-28T07:15:00Z,48.4,-97.37,4.0,4.0,280,9,,10.0,29.799213,,,TRUE,TRUE,,,,,TRUE,,CLR,,,,,,,,VFR,,,,,,,,,,,,SPECI,252.0
KEZS 280715Z AUTO 13004KT 7SM OVC021 07/05 A2976 RMK AO2 T00680047,KEZS,2018-10-28T07:15:00Z,44.78,-88.57,6.8,4.7,130,4,,7.0,29.760826,,,TRUE,TRUE,,,,,,,OVC,2100,,,,,,,MVFR,,,,,,,,,,,,SPECI,248.0
KD57 280715Z AUTO 28006KT 10SM FEW028 OVC075 03/M04 A2998 RMK AO2 PWINO,KD57,2018-10-28T07:15:00Z,46.82,-101.87,3.0,-4.0,280,6,,10.0,29.97933,,,TRUE,TRUE,,,,,TRUE,,FEW,2800,OVC,7500,,,,,VFR,,,,,,,,,,,,SPECI,637.0
KCXP 280715Z AUTO 22005KT 10SM CLR 17/00 A3014 RMK AO2,KCXP,2018-10-28T07:15:00Z,39.18,-119.73,17.0,0.0,220,5,,10.0,30.138779,,,TRUE,TRUE,,,,,,,CLR,,,,,,,,VFR,,,,,,,,,,,,SPECI,1435.0
KCLI 280715Z AUTO 13004KT 3/4SM BR OVC041 06/04 A2976 RMK AO2 T00610036,KCLI,2018-10-28T07:15:00Z,44.62,-88.73,6.1,3.6,130,4,,0.75,29.760826,,,TRUE,TRUE,,,,,,BR,OVC,4100,,,,,,,LIFR,,,,,,,,,,,,SPECI,250.0
K2J9 280715Z AUTO 31004KT 10SM SCT041 SCT048 08/08 A3013 RMK AO2,K2J9,2018-10-28T07:15:00Z,30.6,-84.55,8.0,8.0,310,4,,10.0,30.129921,,,TRUE,TRUE,,,,,,,SCT,4100,SCT,4800,,,,,VFR,,,,,,,,,,,,SPECI,69.0
KLUL 280715Z AUTO 00000KT 10SM CLR 11/11 A3011 RMK AO2 T01110111,KLUL,2018-10-28T07:15:00Z,31.67,-89.17,11.1,11.1,0,0,,10.0,30.109253,,,TRUE,TRUE,,,,,,,CLR,,,,,,,,VFR,,,,,,,,,,,,SPECI,73.0
KLBO 280715Z AUTO 20008KT 10SM CLR 12/05 A2992 RMK AO2,KLBO,2018-10-28T07:15:00Z,37.65,-92.65,12.0,5.0,200,8,,10.0,29.920275,,,TRUE,TRUE,,,,,,,CLR,,,,,,,,VFR,,,,,,,,,,,,SPECI,403.0
KUNU 280715Z AUTO 14007KT 4SM BR SCT035 SCT042 06/05 A2977 RMK AO2 T00550047,KUNU,2018-10-28T07:15:00Z,43.42,-88.7,5.5,4.7,140,7,,4.0,29.769686,,,TRUE,TRUE,,,,,,BR,SCT,3500,SCT,4200,,,,,MVFR,,,,,,,,,,,,SPECI,285.0
KMAO 280715Z AUTO 26004KT 10SM SCT065 10/07 A2995 RMK AO2,KMAO,2018-10-28T07:15:00Z,34.18,-79.33,10.0,7.0,260,4,,10.0,29.949802,,,TRUE,TRUE,,,,,,,SCT,6500,,,,,,,VFR,,,,,,,,,,,,SPECI,28.0
KVTI 280715Z AUTO 23009KT 10SM -RA SCT004 SCT009 SCT015 11/10 A2974 RMK AO2 T01080103,KVTI,2018-10-28T07:15:00Z,42.22,-92.02,10.8,10.3,230,9,,10.0,29.740158,,,TRUE,TRUE,,,,,,-RA,SCT,400,SCT,900,SCT,1500,,,VFR,,,,,,,,,,,,SPECI,255.0
KPLD 280715Z AUTO 00000KT 7SM BKN047 OVC060 05/05 A2988 RMK AO2,KPLD,2018-10-28T07:15:00Z,40.45,-84.98,5.0,5.0,0,0,,7.0,29.878937,,,TRUE,TRUE,,,,,,,BKN,4700,OVC,6000,,,,,VFR,,,,,,,,,,,,SPECI,282.0
KMYJ 280715Z AUTO 20008KT 10SM OVC110 11/06 A2985 RMK AO2,KMYJ,2018-10-28T07:15:00Z,39.15,-91.82,11.0,6.0,200,8,,10.0,29.84941,,,TRUE,TRUE,,,,,,,OVC,11000,,,,,,,VFR,,,,,,,,,,,,SPECI,251.0
KMBY 280715Z AUTO 20009KT 10SM SCT110 13/04 A2983 RMK AO2,KMBY,2018-10-28T07:15:00Z,39.47,-92.43,13.0,4.0,200,9,,10.0,29.828741,,,TRUE,TRUE,,,,,,,SCT,11000,,,,,,,VFR,,,,,,,,,,,,SPECI,264.0
KMAN 280715Z AUTO 14006KT 7SM 11/10 A2997 RMK A01,KMAN,2018-10-28T07:15:00Z,43.58,-116.52,11.0,10.0,140,6,,7.0,29.970472,,,TRUE,TRUE,,,,,,,,,,,,,,,,,,,,,,,,,,,SPECI,774.0
KY51 280715Z AUTO 16006KT 3SM BKN029 OVC037 06/06 A2967 RMK AO1 T00580058,KY51,2018-10-28T07:15:00Z,43.58,-90.9,5.8,5.8,160,6,,3.0,29.66929,,,TRUE,TRUE,,,,,,,BKN,2900,OVC,3700,,,,,MVFR,,,,,,,,,,,,SPECI,394.0
KBNL 280715Z AUTO 23004KT 10SM CLR 09/09 A3001 RMK AO2,KBNL,2018-10-28T07:15:00Z,33.25,-81.38,9.0,9.0,230,4,,10.0,30.008858,,,TRUE,TRUE,,,,,,,CLR,,,,,,,,VFR,,,,,,,,,,,,SPECI,75.0
KAIK 280715Z AUTO 24005KT 10SM CLR 07/07 A3003 RMK AO2,KAIK,2018-10-28T07:15:00Z,33.65,-81.68,7.0,7.0,240,5,,10.0,30.029528,,,TRUE,TRUE,,,,,,,CLR,,,,,,,,VFR,,,,,,,,,,,,SPECI,161.0
KAID 280715Z AUTO 00000KT 10SM OVC048 07/05 A2990 RMK AO2 T00710046,KAID,2018-10-28T07:15:00Z,40.12,-85.62,7.1,4.6,0,0,,10.0,29.899607,,,TRUE,TRUE,,,,,,,OVC,4800,,,,,,,VFR,,,,,,,,,,,,SPECI,280.0
KRRL 280715Z AUTO 13007KT 5SM -RA BKN012 BKN021 OVC026 06/05 A2971 RMK AO2 T00550047 TSNO,KRRL,2018-10-28T07:15:00Z,45.2,-89.72,5.5,4.7,130,7,,5.0,29.71063,,,TRUE,TRUE,,,TRUE,,,-RA,BKN,1200,BKN,2100,OVC,2600,,,MVFR,,,,,,,,,,,,SPECI,401.0
KRID 280715Z AUTO 25005KT 10SM BKN048 BKN065 05/05 A2991 RMK AO2,KRID,2018-10-28T07:15:00Z,39.75,-84.85,5.0,5.0,250,5,,10.0,29.911417,,,TRUE,TRUE,,,,,,,BKN,4800,BKN,6500,,,,,VFR,,,,,,,,,,,,SPECI,348.0
KPBH 280715Z AUTO 12008KT 10SM BKN011 BKN027 OVC065 05/05 A2965 RMK AO2 T00450045,KPBH,2018-10-28T07:15:00Z,45.7,-90.4,4.5,4.5,120,8,,10.0,29.648623,,,TRUE,TRUE,,,,,,,BKN,1100,BKN,2700,OVC,6500,,,MVFR,,,,,,,,,,,,SPECI,449.0
KOIN 280715Z AUTO 33009KT 10SM SCT110 09/04 A3017 RMK AO1 T00870036,KOIN,2018-10-28T07:15:00Z,39.83,-100.53,8.7,3.6,330,9,,10.0,30.171259,,,TRUE,TRUE,,,,,,,SCT,11000,,,,,,,VFR,,,,,,,,,,,,METAR,824.0
KLQK 280715Z AUTO 00000KT 10SM CLR 06/06 A2996 RMK AO2 T00620057,KLQK,2018-10-28T07:15:00Z,34.82,-82.7,6.2,5.7,0,0,,10.0,29.958662,,,TRUE,TRUE,,,,,,,CLR,,,,,,,,VFR,,,,,,,,,,,,SPECI,309.0
KJSO 280715Z AUTO 20005KT 10SM CLR 18/15 A3008 RMK AO2 T01820153,KJSO,2018-10-28T07:15:00Z,31.87,-95.22,18.2,15.3,200,5,,10.0,30.079725,,,TRUE,TRUE,,,,,,,CLR,,,,,,,,VFR,,,,,,,,,,,,SPECI,206.0
KEGV 280715Z AUTO 15003KT 4SM -DZ OVC005 05/04 A2972 RMK AO2 T00450043,KEGV,2018-10-28T07:15:00Z,45.93,-89.27,4.5,4.3,150,3,,4.0,29.719488,,,TRUE,TRUE,,,,,,-DZ,OVC,500,,,,,,,IFR,,,,,,,,,,,,SPECI,500.0
KSPA 280715Z AUTO 27003KT 10SM CLR 06/04 A2997 RMK AO2,KSPA,2018-10-28T07:15:00Z,34.92,-81.93,6.0,4.0,270,3,,10.0,29.970472,,,TRUE,TRUE,,,,,,,CLR,,,,,,,,VFR,,,,,,,,,,,,SPECI,303.0
KSPF 280715Z AUTO 27010KT 10SM CLR 08/00 A3008 RMK AO2 PWINO,KSPF,2018-10-28T07:15:00Z,44.47,-103.77,8.0,0.0,270,10,,10.0,30.079725,,,TRUE,TRUE,,,,,TRUE,,CLR,,,,,,,,VFR,,,,,,,,,,,,SPECI,1188.0
KX07 280715Z AUTO 00000KT 10SM CLR 15/13 A3009 RMK A01,KX07,2018-10-28T07:15:00Z,27.9,-81.62,15.0,13.0,0,0,,10.0,30.088583,,,TRUE,TRUE,,,,,,,CLR,,,,,,,,VFR,,,,,,,,,,,,SPECI,39.0
KBDN 280715Z AUTO 24003KT 10SM CLR 15/05 A2993 RMK AO2,KBDN,2018-10-28T07:15:00Z,44.1,-121.2,15.0,5.0,240,3,,10.0,29.929134,,,TRUE,TRUE,,,,,,,CLR,,,,,,,,VFR,,,,,,,,,,,,SPECI,1055.0
KANK 280715Z AUTO 32005KT 10SM CLR 08/M02 A3041 RMK AO1 T00811025,KANK,2018-10-28T07:15:00Z,38.53,-106.05,8.1,-2.5,320,5,,10.0,30.410433,,,TRUE,TRUE,,,,,,,CLR,,,,,,,,VFR,,,,,,,,,,,,SPECI,2293.0
K74V 280715Z AUTO 26003KT 10SM CLR 04/01 A3025 RMK AO2,K74V,2018-10-28T07:15:00Z,40.28,-110.05,4.0,1.0,260,3,,10.0,30.250984,,,TRUE,TRUE,,,,,,,CLR,,,,,,,,VFR,,,,,,,,,,,,SPECI,1576.0
K1S5 280715Z AUTO 28006KT 10SM BKN007 BKN060 OVC070 10/09 A2986 RMK AO2 LTG DSNT NW T01000094,K1S5,2018-10-28T07:15:00Z,46.33,-119.97,10.0,9.4,280,6,,10.0,29.861221,,,TRUE,TRUE,,,,,,,BKN,700,BKN,6000,OVC,7000,,,IFR,,,,,,,,,,,,SPECI,234.0
KCCA 280715Z AUTO 00000KT 10SM FEW002 07/06 A3002 RMK AO2,KCCA,2018-10-28T07:15:00Z,35.6,-92.45,7.0,6.0,0,0,,10.0,30.02067,,,TRUE,TRUE,,,,,,,FEW,200,,,,,,,VFR,,,,,,,,,,,,SPECI,157.0
KDCM 280715Z AUTO 00000KT 7SM CLR 06/05 A2997 RMK AO2,KDCM,2018-10-28T07:15:00Z,34.78,-81.2,6.0,5.0,0,0,,7.0,29.970472,,,TRUE,TRUE,,,,,,,CLR,,,,,,,,VFR,,,,,,,,,,,,SPECI,200.0
KDYB 280715Z AUTO 25003KT 10SM CLR 10/09 A3001 RMK AO1,KDYB,2018-10-28T07:15:00Z,33.07,-80.28,10.0,9.0,250,3,,10.0,30.008858,,,TRUE,TRUE,,,,,,,CLR,,,,,,,,VFR,,,,,,,,,,,,SPECI,18.0
KC62 280715Z AUTO 00000KT 10SM OVC048 05/03 A2986 RMK AO2 T00520031,KC62,2018-10-28T07:15:00Z,41.47,-85.25,5.2,3.1,0,0,,10.0,29.861221,,,TRUE,TRUE,,,,,,,OVC,4800,,,,,,,VFR,,,,,,,,,,,,SPECI,306.0
KCLK 280715Z AUTO 16003KT 10SM CLR 13/09 A3001 RMK AO2,KCLK,2018-10-28T07:15:00Z,35.53,-98.93,13.0,9.0,160,3,,10.0,30.008858,,,TRUE,TRUE,,,,,,,CLR,,,,,,,,VFR,,,,,,,,,,,,SPECI,492.0
KZPH 280715Z AUTO 01003KT 10SM CLR 12/12 A3009 RMK AO2 T01240121,KZPH,2018-10-28T07:15:00Z,28.23,-82.15,12.4,12.1,10,3,,10.0,30.088583,,,TRUE,TRUE,,,,,,,CLR,,,,,,,,VFR,,,,,,,,,,,,SPECI,26.0
KEKX 280715Z AUTO 22004KT 5SM BR CLR 04/04 A2999 RMK AO2 T00410041,KEKX,2018-10-28T07:15:00Z,,,4.1,4.1,220,4,,5.0,29.991142,,,TRUE,TRUE,,,,,,BR,CLR,,,,,,,,MVFR,,,,,,,,,,,,SPECI,
KCKM 280715Z AUTO 16005KT 10SM FEW015 12/12 A3004 RMK A01,KCKM,2018-10-28T07:15:00Z,34.3,-90.52,12.0,12.0,160,5,,10.0,30.041338,,,TRUE,TRUE,,,,,,,FEW,1500,,,,,,,VFR,,,,,,,,,,,,SPECI,53.0
KFDW 280715Z AUTO 27003KT 10SM CLR 07/07 A2997 RMK AO1,KFDW,2018-10-28T07:15:00Z,34.32,-81.12,7.0,7.0,270,3,,10.0,29.970472,,,TRUE,TRUE,,,,,,,CLR,,,,,,,,VFR,,,,,,,,,,,,SPECI,176.0
KSTF 280715Z AUTO 00000KT 4SM HZ CLR 07/01 A3008 RMK AO2,KSTF,2018-10-28T07:15:00Z,33.43,-88.85,7.0,1.0,0,0,,4.0,30.079725,,,TRUE,TRUE,,,,,,HZ,CLR,,,,,,,,MVFR,,,,,,,,,,,,SPECI,102.0
KC29 280715Z AUTO 19005KT 7SM OVC050 07/05 A2975 RMK AO1 P0001 T00730053,KC29,2018-10-28T07:15:00Z,43.12,-89.53,7.3,5.3,190,5,,7.0,29.749016,,,TRUE,TRUE,,,,,,,OVC,5000,,,,,,,VFR,,,,,,0.01,,,,,,METAR,283.0
K2V5 280715Z AUTO 26006KT 10SM CLR 05/05 A3017 RMK AO2,K2V5,2018-10-28T07:15:00Z,40.1,-102.25,5.0,5.0,260,6,,10.0,30.171259,,,TRUE,TRUE,,,,,,,CLR,,,,,,,,VFR,,,,,,,,,,,,SPECI,1118.0
KRPD 280715Z AUTO 12010KT 2 1/2SM RA OVC004 06/06 A2960 RMK AO2 P0005 T00600060,KRPD,2018-10-28T07:15:00Z,45.42,-91.77,6.0,6.0,120,10,,2.5,29.601377,,,TRUE,TRUE,,,,,,RA,OVC,400,,,,,,,LIFR,,,,,,0.05,,,,,,SPECI,338.0
KPEA 280715Z AUTO 27004KT 10SM SCT075 12/08 A2979 RMK AO2 T01210083,KPEA,2018-10-28T07:15:00Z,41.4,-92.95,12.1,8.3,270,4,,10.0,29.790354,,,TRUE,TRUE,,,,,,,SCT,7500,,,,,,,VFR,,,,,,,,,,,,SPECI,270.0
KLUX 280715Z AUTO 27006KT 10SM CLR 07/06 A2998 RMK AO2,KLUX,2018-10-28T07:15:00Z,34.5,-81.95,7.0,6.0,270,6,,10.0,29.97933,,,TRUE,TRUE,,,,,,,CLR,,,,,,,,VFR,,,,,,,,,,,,SPECI,213.0
KLNL 280715Z AUTO 13004KT 1 3/4SM DZ OVC008 05/04 A2974 RMK AO2 T00450040,KLNL,2018-10-28T07:15:00Z,46.15,-89.22,4.5,4.0,130,4,,1.75,29.740158,,,TRUE,TRUE,,,,,,DZ,OVC,800,,,,,,,IFR,,,,,,,,,,,,SPECI,520.0
KVER 280715Z AUTO 19003KT 10SM BKN110 13/06 A2982 RMK AO2 T01290061,KVER,2018-10-28T07:15:00Z,38.95,-92.68,12.9,6.1,190,3,,10.0,29.819881,,,TRUE,TRUE,,,,,,,BKN,11000,,,,,,,VFR,,,,,,,,,,,,METAR,218.0
KANQ 280715Z AUTO 28003KT 10SM BKN024 OVC029 06/04 A2985 RMK AO2 TSNO,KANQ,2018-10-28T07:15:00Z,41.63,-85.08,6.0,4.0,280,3,,10.0,29.84941,,,TRUE,TRUE,,,TRUE,,,,BKN,2400,OVC,2900,,,,,MVFR,,,,,,,,,,,,SPECI,303.0
KD55 280715Z AUTO 28009KT 10SM CLR 02/02 A2981 RMK AO2,KD55,2018-10-28T07:15:00Z,48.75,-98.4,2.0,2.0,280,9,,10.0,29.811024,,,TRUE,TRUE,,,,,,,CLR,,,,,,,,VFR,,,,,,,,,,,,SPECI,491.0
KGGI 280715Z AUTO 33005KT 10SM OVC070 11/09 A2979 RMK AO2 T01140085,KGGI,2018-10-28T07:15:00Z,41.72,-92.73,11.4,8.5,330,5,,10.0,29.790354,,,TRUE,TRUE,,,,,,,OVC,7000,,,,,,,VFR,,,,,,,,,,,,SPECI,307.0
K1P1 280715Z AUTO 14004KT 10SM OVC023 04/02 A2969 RMK AO2 T00410020,K1P1,2018-10-28T07:15:00Z,43.78,-71.75,4.1,2.0,140,4,,10.0,29.68996,,,TRUE,TRUE,,,,,,,OVC,2300,,,,,,,MVFR,,,,,,,,,,,,SPECI,154.0
KGPH 280715Z AUTO 00000KT 10SM BKN110 12/07 A2985 RMK AO2,KGPH,2018-10-28T07:15:00Z,39.33,-94.32,12.0,7.0,0,0,,10.0,29.84941,,,TRUE,TRUE,,,,,,,BKN,11000,,,,,,,VFR,,,,,,,,,,,,SPECI,235.0
K06D 280715Z AUTO 28007KT 10SM CLR 03/M01 A2984 RMK AO2,K06D,2018-10-28T07:15:00Z,48.88,-99.62,3.0,-1.0,280,7,,10.0,29.840551,,,TRUE,TRUE,,,,,,,CLR,,,,,,,,VFR,,,,,,,,,,,,SPECI,556.0
YBCG 280715Z AUTO 17017G27KT 9999 // SCT017 BKN032 BKN044 20/17 Q1013,YBCG,2018-10-28T07:15:00Z,-28.17,153.5,20.0,17.0,170,17,27,6.21,29.911417,,,TRUE,,,,,,,,SCT,1700,BKN,3200,BKN,4400,,,VFR,,,,,,,,,,,,SPECI,6.0
CYQZ 280715Z AUTO 13021G28KT 9SM FEW095 OVC120 10/M03 A2963 RMK PRESFR SLP048 DENSITY ALT 1900FT,CYQZ,2018-10-28T07:15:00Z,53.02,-122.52,10.0,-3.0,130,21,28,9.0,29.630905,1004.8,,TRUE,,,,,,,,FEW,9500,OVC,12000,,,,,VFR,,,,,,,,,,,,SPECI,545.0
K24J 280715Z AUTO 00000KT 3SM BR FEW048 08/08 A3011 RMK A01,K24J,2018-10-28T07:15:00Z,30.3,-83.03,8.0,8.0,0,0,,3.0,30.109253,,,TRUE,TRUE,,,,,,BR,FEW,4800,,,,,,,MVFR,,,,,,,,,,,,SPECI,32.0
K20U 280715Z AUTO 25005KT 10SM M01/M04 A3003 RMK AO2,K20U,2018-10-28T07:15:00Z,46.93,-103.98,-1.0,-4.0,250,5,,10.0,30.029528,,,TRUE,TRUE,,,,,,,,,,,,,,,,,,,,,,,,,,,SPECI,840.0
K08D 280715Z AUTO 29008KT 10SM FEW060 04/M01 A2996 RMK AO2,K08D,2018-10-28T07:15:00Z,48.3,-102.4,4.0,-1.0,290,8,,10.0,29.958662,,,TRUE,TRUE,,,,,,,FEW,6000,,,,,,,VFR,,,,,,,,,,,,SPECI,684.0
K2D5 280715Z AUTO 29012KT 10SM CLR 04/03 A2988 RMK AO2 PWINO,K2D5,2018-10-28T07:15:00Z,46.17,-98.08,4.0,3.0,290,12,,10.0,29.878937,,,TRUE,TRUE,,,,,TRUE,,CLR,,,,,,,,VFR,,,,,,,,,,,,SPECI,407.0
K46D 280715Z AUTO 30015KT 10SM CLR 04/00 A2990 RMK AO2,K46D,2018-10-28T07:15:00Z,47.45,-99.15,4.0,0.0,300,15,,10.0,29.899607,,,TRUE,TRUE,,,,,,,CLR,,,,,,,,VFR,,,,,,,,,,,,SPECI,490.0
K2P2 280715Z AUTO 14003KT 10SM DZ BKN012 OVC019 05/04 A2981 RMK AO2 T00520041,K2P2,2018-10-28T07:15:00Z,45.38,-86.92,5.2,4.1,140,3,,10.0,29.811024,,,TRUE,TRUE,,,,,,DZ,BKN,1200,OVC,1900,,,,,MVFR,,,,,,,,,,,,SPECI,199.0
KEBS 280715Z AUTO 30019KT 10SM CLR 10/08 A2980 RMK AO2,KEBS,2018-10-28T07:15:00Z,42.42,-93.87,10.0,8.0,300,19,,10.0,29.799213,,,TRUE,TRUE,,,,,,,CLR,,,,,,,,VFR,,,,,,,,,,,,METAR,342.0
KEAN 280715Z AUTO 10SM CLR 05/01 A3016 RMK AO2 T00510013,KEAN,2018-10-28T07:15:00Z,42.05,-104.93,5.1,1.3,,,,10.0,30.159449,,,TRUE,TRUE,,,,,,,CLR,,,,,,,,VFR,,,,,,,,,,,,METAR,1456.0
KDWX 280715Z AUTO 00000KT 10SM CLR 02/M02 A3030 RMK AO2 T00231016,KDWX,2018-10-28T07:15:00Z,41.03,-107.5,2.3,-1.6,0,0,,10.0,30.301182,,,TRUE,TRUE,,,,,,,CLR,,,,,,,,VFR,,,,,,,,,,,,METAR,1996.0
K9D7 280715Z AUTO 28010KT 10SM CLR 01/01 A2986 RMK AO2,K9D7,2018-10-28T07:15:00Z,48.48,-99.23,1.0,1.0,280,10,,10.0,29.861221,,,TRUE,TRUE,,,,,,,CLR,,,,,,,,VFR,,,,,,,,,,,,SPECI,452.0
K96D 280715Z AUTO 27009KT 10SM 05/05 A2978 RMK AO2,K96D,2018-10-28T07:15:00Z,48.93,-97.9,5.0,5.0,270,9,,10.0,29.778543,,,TRUE,TRUE,,,,,,,,,,,,,,,,,,,,,,,,,,,SPECI,290.0
K82C 280715Z AUTO 13008KT 5SM -DZ OVC060 07/05 A2967 RMK AO2 T00660052,K82C,2018-10-28T07:15:00Z,43.83,-90.13,6.6,5.2,130,8,,5.0,29.66929,,,TRUE,TRUE,,,,,,-DZ,OVC,6000,,,,,,,MVFR,,,,,,,,,,,,SPECI,276.0
K7L2 280715Z AUTO 27008KT 10SM 02/M02 A2999 RMK AO2,K7L2,2018-10-28T07:15:00Z,46.22,-100.25,2.0,-2.0,270,8,,10.0,29.991142,,,TRUE,TRUE,,,,,,,,,,,,,,,,,,,,,,,,,,,SPECI,543.0
K6B9 280715Z AUTO 00000KT 8SM -RA BKN003 BKN024 OVC032 02/02 A2967 RMK AO2,K6B9,2018-10-28T07:15:00Z,42.92,-76.43,2.0,2.0,0,0,,8.0,29.66929,,,TRUE,TRUE,,,,,,-RA,BKN,300,BKN,2400,OVC,3200,,,LIFR,,,,,,,,,,,,SPECI,316.0
K5H4 280715Z AUTO 29010KT 10SM CLR 03/M00 A2992 RMK AO2,K5H4,2018-10-28T07:15:00Z,47.78,-99.93,3.0,0.0,290,10,,10.0,29.920275,,,TRUE,TRUE,,,,,,,CLR,,,,,,,,VFR,,,,,,,,,,,,SPECI,490.0
K57C 280715Z AUTO 15004KT 5SM HZ BKN037 A2979 RMK AO2,K57C,2018-10-28T07:15:00Z,42.8,-88.37,,,150,4,,5.0,29.790354,,,TRUE,TRUE,,,,,,HZ,BKN,3700,,,,,,,MVFR,,,,,,,,,,,,SPECI,262.0
K4R5 280715Z AUTO 10003KT 10SM -RA OVC023 07/05 A2968 RMK AO2 T00740045,K4R5,2018-10-28T07:15:00Z,46.78,-90.77,7.4,4.5,100,3,,10.0,29.681103,,,TRUE,TRUE,,,,,,-RA,OVC,2300,,,,,,,MVFR,,,,,,,,,,,,SPECI,198.0
K4M9 280715Z AUTO 21004KT 10SM CLR 08/08 A2998 RMK AO2 PWINO,K4M9,2018-10-28T07:15:00Z,36.4,-90.65,8.0,8.0,210,4,,10.0,29.97933,,,TRUE,TRUE,,,,,TRUE,,CLR,,,,,,,,VFR,,,,,,,,,,,,METAR,90.0
K4A6 280715Z AUTO 00000KT 2SM BR FEW002 06/06 A3007 RMK AO2,K4A6,2018-10-28T07:15:00Z,34.68,-86.0,6.0,6.0,0,0,,2.0,30.070866,,,TRUE,TRUE,,,,,,BR,FEW,200,,,,,,,IFR,,,,,,,,,,,,METAR,198.0
KFDY 280714Z AUTO 30006KT 10SM FEW017 BKN025 OVC043 06/04 A2987 RMK AO2 T00560039,KFDY,2018-10-28T07:14:00Z,41.02,-83.67,5.6,3.9,300,6,,10.0,29.870079,,,TRUE,TRUE,,,,,,,FEW,1700,BKN,2500,OVC,4300,,,MVFR,,,,,,,,,,,,SPECI,247.0
KESF 280714Z AUTO 00000KT 1/2SM FG CLR 12/12 A3008 RMK AO2 T01220122,KESF,2018-10-28T07:14:00Z,31.4,-92.28,12.2,12.2,0,0,,0.5,30.079725,,,TRUE,TRUE,,,,,,FG,CLR,,,,,,,,LIFR,,,,,,,,,,,,SPECI,28.0
KCLM 280714Z AUTO 26006KT 10SM OVC004 10/09 A2969 RMK AO2 T01000089 $,KCLM,2018-10-28T07:14:00Z,48.12,-123.5,10.0,8.9,260,6,,10.0,29.68996,,,TRUE,TRUE,TRUE,,,,,,OVC,400,,,,,,,LIFR,,,,,,,,,,,,SPECI,85.0
KCKB 280714Z AUTO 25008KT 10SM -RA BKN010 OVC016 07/05 A2982 RMK AO2 P0001 T00720050,KCKB,2018-10-28T07:14:00Z,39.3,-80.22,7.2,5.0,250,8,,10.0,29.819881,,,TRUE,TRUE,,,,,,-RA,BKN,1000,OVC,1600,,,,,MVFR,,,,,,0.01,,,,,,SPECI,360.0
KBDE 280714Z AUTO 00000KT 7SM BKN026 BKN037 OVC090 06/05 A2974 RMK AO2 T00560050,KBDE,2018-10-28T07:14:00Z,48.73,-94.62,5.6,5.0,0,0,,7.0,29.740158,,,TRUE,TRUE,,,,,,,BKN,2600,BKN,3700,OVC,9000,,,MVFR,,,,,,,,,,,,SPECI,329.0
KSKA 280714Z AUTO 03007KT 10SM -RA FEW005 FEW033 OVC042 07/07 A2987 RMK AO2 SLP124 $,KSKA,2018-10-28T07:14:00Z,47.62,-117.65,7.0,7.0,30,7,,10.0,29.870079,1012.4,,TRUE,TRUE,TRUE,,,,,-RA,FEW,500,FEW,3300,OVC,4200,,,VFR,,,,,,,,,,,,SPECI,750.0
K2V6 280714Z AUTO 29008KT 10SM CLR 04/M01 A3019 RMK AO2,K2V6,2018-10-28T07:14:00Z,40.1,-102.72,4.0,-1.0,290,8,,10.0,30.188976,,,TRUE,TRUE,,,,,,,CLR,,,,,,,,VFR,,,,,,,,,,,,METAR,1261.0
KNSI 280714Z AUTO 09003KT 3/4SM BR VV003 13/ A3000 RMK AO2 T0133 $,KNSI,2018-10-28T07:14:00Z,33.22,-119.45,13.3,,90,3,,0.75,30.0,,,TRUE,TRUE,TRUE,,,,,BR,OVX,0,,,,,,,LIFR,,,,,,,,,,,300,METAR,154.0
CYAM 280714Z 08003KT 5SM -RASN SCT008 BKN013 OVC028 02/01 A2987 RMK ST3SC4SC1 SLP123,CYAM,2018-10-28T07:14:00Z,46.47,-84.52,2.0,1.0,80,3,,5.0,29.870079,1012.3,,,,,,,,,-RA -SN,SCT,800,BKN,1300,OVC,2800,,,MVFR,,,,,,,,,,,,SPECI,192.0
KRNT 280714Z AUTO 11004KT 3SM RA FEW008 BKN014 OVC039 13/ A2976 RMK AO2 P0007 T0133 $,KRNT,2018-10-28T07:14:00Z,47.5,-122.22,13.3,,110,4,,3.0,29.760826,,,TRUE,TRUE,TRUE,,,,,RA,FEW,800,BKN,1400,OVC,3900,,,MVFR,,,,,,0.07,,,,,,SPECI,21.0
KPYM 280714Z AUTO 35008KT 3SM -RA BR OVC007 11/09 A2963 RMK AO2 P0000 T01110094,KPYM,2018-10-28T07:14:00Z,41.92,-70.73,11.1,9.4,350,8,,3.0,29.630905,,,TRUE,TRUE,,,,,,-RA BR,OVC,700,,,,,,,IFR,,,,,,0.005,,,,,,SPECI,43.0
KPNE 280714Z AUTO 24007KT 10SM BKN015 OVC020 09/07 A2973 RMK AO2 T00940072,KPNE,2018-10-28T07:14:00Z,40.08,-75.02,9.4,7.2,240,7,,10.0,29.731298,,,TRUE,TRUE,,,,,,,BKN,1500,OVC,2000,,,,,MVFR,,,,,,,,,,,,SPECI,28.0
KLAF 280714Z AUTO 00000KT 2SM BR FEW003 03/03 A2989 RMK AO2 T00280028 $,KLAF,2018-10-28T07:14:00Z,40.42,-86.93,2.8,2.8,0,0,,2.0,29.890747,,,TRUE,TRUE,TRUE,,,,,BR,FEW,300,,,,,,,IFR,,,,,,,,,,,,SPECI,182.0
KWST 280714Z AUTO 19015G21KT 3SM -RA BR OVC008 13/13 A2960 RMK AO2 P0001 T01330133,KWST,2018-10-28T07:14:00Z,41.35,-71.8,13.3,13.3,190,15,21,3.0,29.601377,,,TRUE,TRUE,,,,,,-RA BR,OVC,800,,,,,,,IFR,,,,,,0.01,,,,,,SPECI,21.0
KAFJ 280714Z AUTO 26006KT 5SM -RA BR OVC006 07/07 A2980 RMK AO2 P0000,KAFJ,2018-10-28T07:14:00Z,40.12,-80.27,7.0,7.0,260,6,,5.0,29.799213,,,TRUE,TRUE,,,,,,-RA BR,OVC,600,,,,,,,IFR,,,,,,0.005,,,,,,SPECI,361.0
CYRV 280714Z AUTO 00000KT 6SM BR OVC003 05/05 A3000 RMK SLP172,CYRV,2018-10-28T07:14:00Z,50.97,-118.17,5.0,5.0,0,0,,6.0,30.0,1017.2,,TRUE,,,,,,,BR,OVC,300,,,,,,,LIFR,,,,,,,,,,,,SPECI,443.0
KEAU 280714Z AUTO 15008KT 2 1/2SM RA BR BKN006 BKN020 OVC039 07/06 A2960 RMK AO2 P0003 T00670061,KEAU,2018-10-28T07:14:00Z,44.87,-91.47,6.7,6.1,150,8,,2.5,29.601377,,,TRUE,TRUE,,,,,,RA BR,BKN,600,BKN,2000,OVC,3900,,,IFR,,,,,,0.03,,,,,,SPECI,276.0
CYPX 280714Z AUTO 18021G27KT 5SM -SN OVC020 M02/M03 A3009 RMK ICG PAST HR SLP193,CYPX,2018-10-28T07:14:00Z,60.03,-77.27,-2.0,-3.0,180,21,27,5.0,30.088583,1019.3,,TRUE,,,,,,,-SN,OVC,2000,,,,,,,MVFR,,,,,,,,,,,,SPECI,23.0
KJHW 280714Z AUTO 35003KT 10SM -RA OVC007 02/01 A2972 RMK AO2 P0000 FZRANO,KJHW,2018-10-28T07:14:00Z,42.13,-79.27,2.0,1.0,350,3,,10.0,29.719488,,,TRUE,TRUE,,,,TRUE,,-RA,OVC,700,,,,,,,IFR,,,,,,0.005,,,,,,SPECI,525.0
EBFS 280714Z AUTO 03014KT 6000 SCT006/// BKN008/// BKN010/// 03/02 Q1012 YLO,EBFS,2018-10-28T07:14:00Z,50.22,4.65,3.0,2.0,30,14,,3.73,29.88189,,,TRUE,,,,,,,,SCT,600,BKN,800,BKN,1000,,,IFR,,,,,,,,,,,,SPECI,299.0
PFYU 280714Z AUTO 05003KT 6SM BR OVC003 M02/M03 A2968 RMK AO2 FZRANO,PFYU,2018-10-28T07:14:00Z,66.57,-145.27,-2.0,-3.0,50,3,,6.0,29.681103,,,TRUE,TRUE,,,,TRUE,,BR,OVC,300,,,,,,,LIFR,,,,,,,,,,,,SPECI,131.0
RKSS 280714Z 30015G31KT 9999 -RA FEW015CB SCT040 OVC080 10/06 Q1007 NOSIG,RKSS,2018-10-28T07:14:00Z,37.53,126.78,10.0,6.0,300,15,31,6.21,29.734253,,,,,,TRUE,,,,-RA,FEW,1500,SCT,4000,OVC,8000,,,VFR,,,,,,,,,,,,SPECI,19.0
K1YT 280713Z AUTO 07004KT 4SM SHRA OVC030 09/07 A2985 RMK AO2 LTG DSNT SW SLPNO $,K1YT,2018-10-28T07:13:00Z,46.67,-120.45,9.0,7.0,70,4,,4.0,29.84941,,,TRUE,TRUE,TRUE,,,,,SHRA,OVC,3000,,,,,,,MVFR,,,,,,,,,,,,SPECI,438.0
KMYP 280713Z AUTO 24015KT 10SM CLR 00/M05 A3062 RMK AO2,KMYP,2018-10-28T07:13:00Z,38.48,-106.32,0.0,-5.0,240,15,,10.0,30.620079,,,TRUE,TRUE,,,,,,,CLR,,,,,,,,VFR,,,,,,,,,,,,SPECI,3667.0
CYBN 280713Z AUTO 34004KT 300V360 2 1/2SM -UP OVC003 00/00 A2978 RMK ICG PAST HR,CYBN,2018-10-28T07:13:00Z,44.27,-79.92,0.0,0.0,340,4,,2.5,29.778543,,,TRUE,,,,,,,UP,OVC,300,,,,,,,LIFR,,,,,,,,,,,,SPECI,223.0
CYOY 280713Z AUTO 07018G30KT 040V100 9SM -RA 02/M01 A2988 RMK ICG PAST HR,CYOY,2018-10-28T07:13:00Z,46.88,-71.5,2.0,-1.0,70,18,30,9.0,29.878937,,,TRUE,,,,,,,-RA,,,,,,,,,,,,,,,,,,,,,SPECI,168.0
KAQP 280713Z AUTO 31020G25KT 10SM OVC020 08/04 A2981 RMK AO2,KAQP,2018-10-28T07:13:00Z,45.22,-96.0,8.0,4.0,310,20,25,10.0,29.811024,,,TRUE,TRUE,,,,,,,OVC,2000,,,,,,,MVFR,,,,,,,,,,,,SPECI,311.0
CYZP 280713Z AUTO 11036G46KT 2SM -RA BR BKN012 BKN017 OVC030 09/08 A2918 RMK SLP884 DENSITY ALT 200FT,CYZP,2018-10-28T07:13:00Z,53.25,-131.82,9.0,8.0,110,36,46,2.0,29.179134,988.4,,TRUE,,,,,,,-RA BR,BKN,1200,BKN,1700,OVC,3000,,,IFR,,,,,,,,,,,,SPECI,6.0
KNUI 280713Z AUTO 00000KT 10SM -RA BKN016 OVC021 06/06 A2975 RMK AO2 RAB0657 P0001 T00610061 $,KNUI,2018-10-28T07:13:00Z,38.15,-76.43,6.1,6.1,0,0,,10.0,29.749016,,,TRUE,TRUE,TRUE,,,,,-RA,BKN,1600,OVC,2100,,,,,MVFR,,,,,,0.01,,,,,,SPECI,7.0
KXVG 280713Z AUTO 34005KT 10SM RA BKN007 BKN012 OVC018 06/06 A2966 RMK AO2,KXVG,2018-10-28T07:13:00Z,46.98,-94.2,6.0,6.0,340,5,,10.0,29.660433,,,TRUE,TRUE,,,,,,RA,BKN,700,BKN,1200,OVC,1800,,,IFR,,,,,,,,,,,,SPECI,407.0
KAOO 280713Z AUTO 00000KT 5SM -RA BR SCT002 OVC017 06/05 A2971 RMK AO2 RAB04 P0000 T00610050,KAOO,2018-10-28T07:13:00Z,40.3,-78.32,6.1,5.0,0,0,,5.0,29.71063,,,TRUE,TRUE,,,,,,-RA BR,SCT,200,OVC,1700,,,,,MVFR,,,,,,0.005,,,,,,SPECI,455.0
KPIL 280713Z AUTO 16003KT 7SM CLR 17/15 A3012 RMK AO2 T01720150,KPIL,2018-10-28T07:13:00Z,26.17,-97.33,17.2,15.0,160,3,,7.0,30.121063,,,TRUE,TRUE,,,,,,,CLR,,,,,,,,VFR,,,,,,,,,,,,SPECI,5.0
KORB 280713Z AUTO 00000KT 4SM BR SCT014 OVC021 05/04 A2967 RMK AO2,KORB,2018-10-28T07:13:00Z,48.02,-92.87,5.0,4.0,0,0,,4.0,29.66929,,,TRUE,TRUE,,,,,,BR,SCT,1400,OVC,2100,,,,,MVFR,,,,,,,,,,,,SPECI,397.0
KQFR 280713Z AUTO 00000KT 10SM CLR M02/M03 A2956 RMK AO1,KQFR,2018-10-28T07:13:00Z,,,-2.0,-3.0,0,0,,10.0,29.56004,,,TRUE,TRUE,,,,,,,CLR,,,,,,,,VFR,,,,,,,,,,,,METAR,
OIII 280712Z 23004KT 8000 FEW025 FEW030CB SCT035 BKN090 11/08 Q1029 A3041,OIII,2018-10-28T07:12:00Z,35.68,51.3,11.0,8.0,230,4,,4.97,30.383858,,,,,,,,,,,FEW,2500,FEW,3000,SCT,3500,BKN,9000,MVFR,,,,,,,,,,,,SPECI,1191.0
KFTG 280712Z AUTO 24009KT 10SM CLR 07/02 A3026 RMK AO2 T00650023,KFTG,2018-10-28T07:12:00Z,39.78,-104.55,6.5,2.3,240,9,,10.0,30.259842,,,TRUE,TRUE,,,,,,,CLR,,,,,,,,VFR,,,,,,,,,,,,SPECI,1675.0
KEIK 280712Z AUTO 22003KT 10SM CLR 03/01 A3030 RMK AO2 T00310008,KEIK,2018-10-28T07:12:00Z,40.02,-105.05,3.1,0.8,220,3,,10.0,30.301182,,,TRUE,TRUE,,,,,,,CLR,,,,,,,,VFR,,,,,,,,,,,,SPECI,1564.0
KCPW 280712Z AUTO 00000KT 10SM CLR 02/M07 A3061 RMK AO2,KCPW,2018-10-28T07:12:00Z,37.45,-106.8,2.0,-7.0,0,0,,10.0,30.611221,,,TRUE,TRUE,,,,,,,CLR,,,,,,,,VFR,,,,,,,,,,,,SPECI,3584.0
KCCU 280712Z AUTO 26009KT OVC027 03/M01 A3051 RMK AO2 PWINO,KCCU,2018-10-28T07:12:00Z,39.48,-106.15,3.0,-1.0,260,9,,,30.510826,,,TRUE,TRUE,,,,,TRUE,,OVC,2700,,,,,,,,,,,,,,,,,,,SPECI,3680.0
KC07 280712Z AUTO 28009G16KT 220V310 10SM CLR 01/M01 A3042 RMK AO2,KC07,2018-10-28T07:12:00Z,40.35,-106.7,1.0,-1.0,280,9,16,10.0,30.41929,,,TRUE,TRUE,,,,,,,CLR,,,,,,,,VFR,,,,,,,,,,,,METAR,3224.0
KBJC 280712Z AUTO 00000KT 10SM CLR 07/01 A3026 RMK AO2,KBJC,2018-10-28T07:12:00Z,39.9,-105.1,7.0,1.0,0,0,,10.0,30.259842,,,TRUE,TRUE,,,,,,,CLR,,,,,,,,VFR,,,,,,,,,,,,METAR,1724.0
KBDU 280712Z AUTO 00000KT 10SM CLR 07/02 A3024 RMK AO2,KBDU,2018-10-28T07:12:00Z,40.03,-105.23,7.0,2.0,0,0,,10.0,30.239174,,,TRUE,TRUE,,,,,,,CLR,,,,,,,,VFR,,,,,,,,,,,,SPECI,1612.0
K5SM 280712Z AUTO 22009G15KT 10SM CLR 01/M05 A3051 RMK AO2,K5SM,2018-10-28T07:12:00Z,39.43,-107.38,1.0,-5.0,220,9,15,10.0,30.510826,,,TRUE,TRUE,,,,,,,CLR,,,,,,,,VFR,,,,,,,,,,,,SPECI,3232.0
K4BM 280712Z AUTO 25007KT 10SM CLR 02/M05 A3050 RMK AO2,K4BM,2018-10-28T07:12:00Z,39.05,-105.52,2.0,-5.0,250,7,,10.0,30.499016,,,TRUE,TRUE,,,,,,,CLR,,,,,,,,VFR,,,,,,,,,,,,METAR,3438.0
K20V 280712Z AUTO 11005KT 10SM OVC075 05/00 A3032 RMK AO2,K20V,2018-10-28T07:12:00Z,40.05,-106.37,5.0,0.0,110,5,,10.0,30.318897,,,TRUE,TRUE,,,,,,,OVC,7500,,,,,,,VFR,,,,,,,,,,,,METAR,2259.0
K04V 280712Z AUTO 00000KT 10SM CLR 03/M02 A3037 RMK AO2,K04V,2018-10-28T07:12:00Z,38.1,-106.17,3.0,-2.0,0,0,,10.0,30.369095,,,TRUE,TRUE,,,,,,,CLR,,,,,,,,VFR,,,,,,,,,,,,SPECI,2385.0
KCUL 280712Z AUTO 19004KT 10SM CLR 06/06 A2995 RMK AO2,KCUL,2018-10-28T07:12:00Z,38.08,-88.12,6.0,6.0,190,4,,10.0,29.949802,,,TRUE,TRUE,,,,,,,CLR,,,,,,,,VFR,,,,,,,,,,,,METAR,118.0
PAHN 280712Z AUTO 30014KT 7SM SCT001 04/03 A2961 RMK AO2 T00390033 TSNO,PAHN,2018-10-28T07:12:00Z,59.25,-135.52,3.9,3.3,300,14,,7.0,29.610237,,,TRUE,TRUE,,,TRUE,,,,SCT,100,,,,,,,VFR,,,,,,,,,,,,SPECI,5.0
CYFC 280712Z AUTO 05019G28KT 2 1/2SM -RA BR OVC008 02/01 A2999 RMK PRESFR SLP157,CYFC,2018-10-28T07:12:00Z,45.87,-66.52,2.0,1.0,50,19,28,2.5,29.991142,1015.7,,TRUE,,,,,,,-RA BR,OVC,800,,,,,,,IFR,,,,,,,,,,,,SPECI,20.0
KFKL 280712Z AUTO 04003KT 1 1/2SM -RA BR OVC002 03/03 A2973 RMK AO2 VIS 1V2 1/2 P0000,KFKL,2018-10-28T07:12:00Z,41.37,-79.87,3.0,3.0,40,3,,1.5,29.731298,,,TRUE,TRUE,,,,,,-RA BR,OVC,200,,,,,,,LIFR,,,,,,0.005,,,,,,SPECI,469.0
CYOO 280712Z AUTO 33002KT 6SM BR OVC012 01/01 A2976 RMK SLP085,CYOO,2018-10-28T07:12:00Z,43.92,-78.9,1.0,1.0,330,2,,6.0,29.760826,1008.5,,TRUE,,,,,,,BR,OVC,1200,,,,,,,MVFR,,,,,,,,,,,,SPECI,139.0
CYZR 280712Z AUTO 15003KT 4SM BR BKN005 OVC021 03/03 A2980 RMK SLP098,CYZR,2018-10-28T07:12:00Z,43.0,-82.3,3.0,3.0,150,3,,4.0,29.799213,1009.8,,TRUE,,,,,,,BR,BKN,500,OVC,2100,,,,,IFR,,,,,,,,,,,,SPECI,181.0
PAOH 280712Z AUTO 00000KT 1SM BR VV002 00/00 A2951 RMK AO2 VIS 3/4V4 FZRANO,PAOH,2018-10-28T07:12:00Z,58.1,-135.45,0.0,0.0,0,0,,1.0,29.509842,,,TRUE,TRUE,,,,TRUE,,BR,OVX,0,,,,,,,LIFR,,,,,,,,,,,200,SPECI,9.0
CYQY 280712Z 10013G20KT 15SM -RA OVC022 05/03 A3036 RMK NS8 SLP284,CYQY,2018-10-28T07:12:00Z,46.17,-60.03,5.0,3.0,100,13,20,15.0,30.360237,1028.4,,,,,,,,,-RA,OVC,2200,,,,,,,MVFR,,,,,,,,,,,,SPECI,62.0
CYHM 280712Z 36004KT 2 1/2SM -SN OVC004 00/00 A2977 RMK SF8 SLP089,CYHM,2018-10-28T07:12:00Z,43.17,-79.93,0.0,0.0,360,4,,2.5,29.769686,1008.9,,,,,,,,,-SN,OVC,400,,,,,,,LIFR,,,,,,,,,,,,SPECI,238.0
PADU 280712Z AUTO 34011G20KT 310V050 10SM SCT026 BKN033 05/M01 A3004 RMK AO2,PADU,2018-10-28T07:12:00Z,53.9,-166.53,5.0,-1.0,340,11,20,10.0,30.041338,,,TRUE,TRUE,,,,,,,SCT,2600,BKN,3300,,,,,VFR,,,,,,,,,,,,SPECI,4.0
CYQB 280712Z 07025G42KT 8SM -FZRA BKN015 OVC021 00/M02 A2992 RMK SC5SC3 OCNL -SHRA INTMT -PL SLP137,CYQB,2018-10-28T07:12:00Z,46.78,-71.37,0.0,-2.0,70,25,42,8.0,29.920275,1013.7,,,,,,,,,-FZRA,BKN,1500,OVC,2100,,,,,MVFR,,,,,,,,,,,,SPECI,73.0
KRWF 280712Z AUTO 29017G24KT 10SM BKN021 07/04 A2978 RMK AO2 PK WND 29026/0700 T00720044,KRWF,2018-10-28T07:12:00Z,44.55,-95.08,7.2,4.4,290,17,24,10.0,29.778543,,,TRUE,TRUE,,,,,,,BKN,2100,,,,,,,MVFR,,,,,,,,,,,,SPECI,311.0
RKJK 280711Z 27020G39KT 3/4SM R36/2600VP6000FT +TSRA BR FEW002 BKN017 BKN041 BKN050 13/12 A2977 RMK AO2A VIS 3/4V7 CIG 017V055 CIG 009 RWY18 SLP086 FZRANO $,RKJK,2018-10-28T07:11:00Z,35.9,126.62,13.0,12.0,270,20,39,0.75,29.769686,1008.6,,,TRUE,TRUE,,,TRUE,,+TSRA BR,FEW,200,BKN,1700,BKN,4100,BKN,5000,LIFR,,,,,,,,,,,,SPECI,9.0
KIPT 280711Z AUTO 28005KT 10SM -RA FEW008 BKN014 OVC021 06/04 A2969 RMK AO2 RAB10 P0000 T00560039,KIPT,2018-10-28T07:11:00Z,41.25,-76.92,5.6,3.9,280,5,,10.0,29.68996,,,TRUE,TRUE,,,,,,-RA,FEW,800,BKN,1400,OVC,2100,,,MVFR,,,,,,0.005,,,,,,SPECI,164.0
KHYA 280711Z AUTO 21014G19KT 6SM BR BKN006 OVC012 14/13 A2962 RMK AO2 T01390128,KHYA,2018-10-28T07:11:00Z,41.67,-70.27,13.9,12.8,210,14,19,6.0,29.619095,,,TRUE,TRUE,,,,,,BR,BKN,600,OVC,1200,,,,,IFR,,,,,,,,,,,,SPECI,22.0
KGKJ 280711Z AUTO 01003KT 2SM BR SCT003 OVC011 04/04 A2973 RMK AO2 T00390039 $,KGKJ,2018-10-28T07:11:00Z,41.63,-80.22,3.9,3.9,10,3,,2.0,29.731298,,,TRUE,TRUE,TRUE,,,,,BR,SCT,300,OVC,1100,,,,,IFR,,,,,,,,,,,,SPECI,428.0
KDEQ 280711Z AUTO 00000KT 3/4SM BR VV002 09/09 A3002 RMK AO2 T00940094,KDEQ,2018-10-28T07:11:00Z,34.05,-94.4,9.4,9.4,0,0,,0.75,30.02067,,,TRUE,TRUE,,,,,,BR,OVX,0,,,,,,,LIFR,,,,,,,,,,,200,SPECI,106.0
KBDR 280711Z AUTO 31007KT 5SM BR FEW006 BKN016 OVC026 08/07 A2966 RMK AO2 RAE11 P0001 T00780067,KBDR,2018-10-28T07:11:00Z,41.17,-73.13,7.8,6.7,310,7,,5.0,29.660433,,,TRUE,TRUE,,,,,,BR,FEW,600,BKN,1600,OVC,2600,,,MVFR,,,,,,0.01,,,,,,SPECI,7.0
KTTD 280711Z AUTO VRB03KT 1 1/2SM +RA BR FEW004 BKN014 OVC038 14/14 A2982 RMK AO2 PRESRR P0013 T01440139,KTTD,2018-10-28T07:11:00Z,45.55,-122.42,14.4,13.9,0,3,,1.5,29.819881,,,TRUE,TRUE,,,,,,+RA BR,FEW,400,BKN,1400,OVC,3800,,,IFR,,,,,,0.13,,,,,,SPECI,14.0
KPQL 280711Z AUTO 00000KT 7SM CLR 11/09 A3012 RMK AO2 T01110094,KPQL,2018-10-28T07:11:00Z,30.47,-88.53,11.1,9.4,0,0,,7.0,30.121063,,,TRUE,TRUE,,,,,,,CLR,,,,,,,,VFR,,,,,,,,,,,,SPECI,6.0
ETEB 280711Z AUTO 04011KT 9999 -RA OVC006 02/02 A2977 RMK AO2 UPE03RAB03 SLP109 $,ETEB,2018-10-28T07:11:00Z,49.32,10.62,2.0,2.0,40,11,,6.21,29.769686,1010.9,,TRUE,TRUE,TRUE,,,,,-RA,OVC,600,,,,,,,IFR,,,,,,,,,,,,SPECI,467.0
EGVA 280711Z AUTO 03013KT 5000 M FEW030 OVC037 05/02 A3010 RMK AO2 SLP199 $,EGVA,2018-10-28T07:11:00Z,51.67,-1.77,5.0,2.0,30,13,,3.11,30.100393,1019.9,,TRUE,TRUE,TRUE,,,,,,FEW,3000,OVC,3700,,,,,MVFR,,,,,,,,,,,,METAR,87.0
RJSK 280711Z VRB01KT 8000 R28/1000VP1800U -SHRA FEW001 SCT005 BKN015 12/11 Q1009 RMK 1ST001 3ST005 5CU015 A2979,RJSK,2018-10-28T07:11:00Z,39.62,140.22,12.0,11.0,0,1,,4.97,29.793306,,,,,,,,,,-SHRA,FEW,100,SCT,500,BKN,1500,,,MVFR,,,,,,,,,,,,METAR,96.0
KVOK 280711Z AUTO 14009KT 10SM FEW033 BKN060 06/06 A2967 RMK AO2 RAE11 PRESFR SLP055,KVOK,2018-10-28T07:11:00Z,43.92,-90.27,6.0,6.0,140,9,,10.0,29.66929,1005.5,,TRUE,TRUE,,,,,,,FEW,3300,BKN,6000,,,,,VFR,,,,,,,,,,,,METAR,277.0
CZBF 280711Z AUTO 05010G16KT 3SM -SN BKN006 OVC009 00/M00 A3028 RMK SLP258,CZBF,2018-10-28T07:11:00Z,47.62,-65.75,0.0,0.0,50,10,16,3.0,30.280512,1025.8,,TRUE,,,,,,,-SN,BKN,600,OVC,900,,,,,IFR,,,,,,,,,,,,SPECI,59.0
KMXF 280711Z AUTO 00000KT 1 3/4SM BR CLR M M RMK AO2 VIS 1 3/8V5 SLPNO $,KMXF,2018-10-28T07:11:00Z,32.37,-86.37,,,0,0,,1.75,,,,TRUE,TRUE,TRUE,,,,,BR,CLR,,,,,,,,IFR,,,,,,,,,,,,METAR,51.0
KISP 280710Z AUTO 26008KT 6SM BR SCT004 OVC010 10/10 A2966 RMK AO2 RAE08 P0001 T01000100 $,KISP,2018-10-28T07:10:00Z,40.8,-73.1,10.0,10.0,260,8,,6.0,29.660433,,,TRUE,TRUE,TRUE,,,,,BR,SCT,400,OVC,1000,,,,,MVFR,,,,,,0.01,,,,,,SPECI,43.0
VCRI 280710Z VRB02KT 9999 BKN018 FEW020CB BKN300 30/25 Q1009 NOSIG RMK N/NE,VCRI,2018-10-28T07:10:00Z,6.28,81.13,30.0,25.0,0,2,,6.21,29.793306,,,,,,TRUE,,,,,BKN,1800,FEW,2000,BKN,30000,,,MVFR,,,,,,,,,,,,METAR,7.0
VCBI 280710Z 02008KT 360V060 9999 BKN017 31/23 Q1009 NOSIG,VCBI,2018-10-28T07:10:00Z,7.17,79.87,31.0,23.0,20,8,,6.21,29.793306,,,,,,TRUE,,,,,BKN,1700,,,,,,,MVFR,,,,,,,,,,,,METAR,8.0
PPNU 280710Z AUTO 22008KT M1/4SM BKN001 OVC015 M12/M13 A2978 RMK AO1,PPNU,2018-10-28T07:10:00Z,,,-12.0,-13.0,220,8,,0.25,29.778543,,,TRUE,TRUE,,,,,,,BKN,100,OVC,1500,,,,,LIFR,,,,,,,,,,,,METAR,
KO32 280710Z AUTO 00000KT 10SM 14/09 A3003 RMK AO2,KO32,2018-10-28T07:10:00Z,36.67,-119.45,14.0,9.0,0,0,,10.0,30.029528,,,TRUE,TRUE,,,,,,,,,,,,,,,,,,,,,,,,,,,METAR,117.0
KMVH 280710Z AUTO 28007KT 10SM CLR M03/M08 A3011 RMK AO2,KMVH,2018-10-28T07:10:00Z,46.83,-108.93,-3.0,-8.0,280,7,,10.0,30.109253,,,TRUE,TRUE,,,,,,,CLR,,,,,,,,VFR,,,,,,,,,,,,METAR,1355.0
KWYS 280710Z AUTO 00000KT 10SM BKN022 OVC032 01/01 A3019 RMK AO2,KWYS,2018-10-28T07:10:00Z,44.67,-111.12,1.0,1.0,0,0,,10.0,30.188976,,,TRUE,TRUE,,,,,,,BKN,2200,OVC,3200,,,,,MVFR,,,,,,,,,,,,SPECI,2025.0
KHEQ 280710Z AUTO 29005KT 10SM CLR 06/04 A3018 RMK AO2,KHEQ,2018-10-28T07:10:00Z,40.57,-102.28,6.0,4.0,290,5,,10.0,30.180119,,,TRUE,TRUE,,,,,,,CLR,,,,,,,,VFR,,,,,,,,,,,,SPECI,1137.0
KGNB 280710Z AUTO 04003KT 10SM SCT060 SCT080 01/M02 A3035 RMK AO2 T00061024,KGNB,2018-10-28T07:10:00Z,40.08,-105.92,0.6,-2.4,40,3,,10.0,30.351377,,,TRUE,TRUE,,,,,,,SCT,6000,SCT,8000,,,,,VFR,,,,,,,,,,,,SPECI,2500.0
KPAE 280710Z AUTO 12016G22KT 10SM -RA FEW005 BKN008 OVC026 12/11 A2975 RMK AO2 RAB09 CIG 007V011 P0000 T01170111,KPAE,2018-10-28T07:10:00Z,47.92,-122.28,11.7,11.1,120,16,22,10.0,29.749016,,,TRUE,TRUE,,,,,,-RA,FEW,500,BKN,800,OVC,2600,,,IFR,,,,,,0.005,,,,,,SPECI,180.0
K3N8 280710Z AUTO 30007KT 10SM SCT004 OVC008 04/04 A2978 RMK AO2 T00400035,K3N8,2018-10-28T07:10:00Z,47.25,-95.88,4.0,3.5,300,7,,10.0,29.778543,,,TRUE,TRUE,,,,,,,SCT,400,OVC,800,,,,,IFR,,,,,,,,,,,,METAR,383.0
K3J7 280710Z AUTO 26004KT 10SM CLR 10/08 A3000 RMK AO2,K3J7,2018-10-28T07:10:00Z,33.6,-83.13,10.0,8.0,260,4,,10.0,30.0,,,TRUE,TRUE,,,,,,,CLR,,,,,,,,VFR,,,,,,,,,,,,METAR,206.0
KDVK 280710Z AUTO 20003KT 10SM SCT070 06/05 A2999 RMK AO2,KDVK,2018-10-28T07:10:00Z,37.58,-84.77,6.0,5.0,200,3,,10.0,29.991142,,,TRUE,TRUE,,,,,,,SCT,7000,,,,,,,VFR,,,,,,,,,,,,METAR,312.0
KCPU 280710Z AUTO 00000KT 10SM CLR 15/06 A3007 RMK AO2 T01450064,KCPU,2018-10-28T07:10:00Z,38.15,-120.65,14.5,6.4,0,0,,10.0,30.070866,,,TRUE,TRUE,,,,,,,CLR,,,,,,,,VFR,,,,,,,,,,,,METAR,404.0
KCOM 280710Z AUTO 22006KT 10SM CLR 16/11 A3010 RMK AO2 T01600112,KCOM,2018-10-28T07:10:00Z,31.83,-99.4,16.0,11.2,220,6,,10.0,30.100393,,,TRUE,TRUE,,,,,,,CLR,,,,,,,,VFR,,,,,,,,,,,,METAR,517.0
KCNI 280710Z AUTO 29005KT 10SM SCT041 10/07 A3004 RMK AO2,KCNI,2018-10-28T07:10:00Z,34.32,-84.42,10.0,7.0,290,5,,10.0,30.041338,,,TRUE,TRUE,,,,,,,SCT,4100,,,,,,,VFR,,,,,,,,,,,,METAR,372.0
KBMC 280710Z AUTO 00000KT 10SM CLR 08/04 A3014 RMK AO1 T00800037,KBMC,2018-10-28T07:10:00Z,41.55,-112.07,8.0,3.7,0,0,,10.0,30.138779,,,TRUE,TRUE,,,,,,,CLR,,,,,,,,VFR,,,,,,,,,,,,METAR,1288.0
KAZE 280710Z AUTO 00000KT 10SM CLR 10/09 A3007 RMK AO2 T01030085,KAZE,2018-10-28T07:10:00Z,31.88,-82.65,10.3,8.5,0,0,,10.0,30.070866,,,TRUE,TRUE,,,,,,,CLR,,,,,,,,VFR,,,,,,,,,,,,METAR,78.0
KAQO 280710Z AUTO 00000KT 10SM CLR 12/11 A3015 RMK AO2,KAQO,2018-10-28T07:10:00Z,30.78,-98.67,12.0,11.0,0,0,,10.0,30.15059,,,TRUE,TRUE,,,,,,,CLR,,,,,,,,VFR,,,,,,,,,,,,METAR,336.0
K8W2 280710Z AUTO 00000KT 10SM SCT060 BKN070 OVC080 07/07 A2977 RMK AO1 T00740068,K8W2,2018-10-28T07:10:00Z,38.65,-78.7,7.4,6.8,0,0,,10.0,29.769686,,,TRUE,TRUE,,,,,,,SCT,6000,BKN,7000,OVC,8000,,,VFR,,,,,,,,,,,,METAR,297.0
K6R3 280710Z AUTO 00000KT 4SM BR CLR 14/13 A3011 RMK AO2 T01350127,K6R3,2018-10-28T07:10:00Z,30.35,-95.0,13.5,12.7,0,0,,4.0,30.109253,,,TRUE,TRUE,,,,,,BR,CLR,,,,,,,,MVFR,,,,,,,,,,,,METAR,46.0
KJOT 280710Z AUTO 00000KT 7SM SCT120 08/06 A2983 RMK AO2 T00750059,KJOT,2018-10-28T07:10:00Z,41.52,-88.18,7.5,5.9,0,0,,7.0,29.828741,,,TRUE,TRUE,,,,,,,SCT,12000,,,,,,,VFR,,,,,,,,,,,,METAR,177.0
KI16 280710Z AUTO 7SM SCT006 BKN009 OVC015 06/05 A2997 RMK AO2 T00630054,KI16,2018-10-28T07:10:00Z,37.6,-81.57,6.3,5.4,,,,7.0,29.970472,,,TRUE,TRUE,,,,,,,SCT,600,BKN,900,OVC,1500,,,IFR,,,,,,,,,,,,METAR,544.0
KHOE 280710Z AUTO 00000KT 10SM CLR 07/07 A3010 RMK AO2,KHOE,2018-10-28T07:10:00Z,31.05,-82.78,7.0,7.0,0,0,,10.0,30.100393,,,TRUE,TRUE,,,,,,,CLR,,,,,,,,VFR,,,,,,,,,,,,METAR,57.0
KHII 280710Z AUTO 05005KT 10SM CLR 22/M02 A2999 RMK AO2,KHII,2018-10-28T07:10:00Z,34.57,-114.37,22.0,-2.0,50,5,,10.0,29.991142,,,TRUE,TRUE,,,,,,,CLR,,,,,,,,VFR,,,,,,,,,,,,METAR,238.0
KHBV 280710Z AUTO 00000KT 10SM CLR 15/15 A3014 RMK AO2 T01540146,KHBV,2018-10-28T07:10:00Z,27.35,-98.73,15.4,14.6,0,0,,10.0,30.138779,,,TRUE,TRUE,,,,,,,CLR,,,,,,,,VFR,,,,,,,,,,,,METAR,202.0
KMDQ 280710Z AUTO 00000KT 10SM CLR 05/05 A3006 RMK A02 T00500048,KMDQ,2018-10-28T07:10:00Z,34.87,-86.55,5.0,4.8,0,0,,10.0,30.059055,,,TRUE,TRUE,,,,,,,CLR,,,,,,,,VFR,,,,,,,,,,,,METAR,230.0
KNOW 280710Z AUTO 27013KT 10SM OVC006 10/09 A2968 RMK AO2 T00960091,KNOW,2018-10-28T07:10:00Z,48.13,-123.4,9.6,9.1,270,13,,10.0,29.681103,,,TRUE,TRUE,,,,,,,OVC,600,,,,,,,IFR,,,,,,,,,,,,METAR,4.0
KW63 280710Z AUTO 24003KT 10SM CLR 07/07 A2984 RMK AO1,KW63,2018-10-28T07:10:00Z,36.6,-78.55,7.0,7.0,240,3,,10.0,29.840551,,,TRUE,TRUE,,,,,,,CLR,,,,,,,,VFR,,,,,,,,,,,,METAR,129.0
KSME 280710Z AUTO 00000KT 10SM CLR 06/06 A3002 RMK AO2,KSME,2018-10-28T07:10:00Z,37.05,-84.62,6.0,6.0,0,0,,10.0,30.02067,,,TRUE,TRUE,,,,,,,CLR,,,,,,,,VFR,,,,,,,,,,,,METAR,283.0
KPSK 280710Z AUTO 29014G23KT 10SM OVC027 07/04 A2989 RMK AO2 T00730037,KPSK,2018-10-28T07:10:00Z,37.12,-80.67,7.3,3.7,290,14,23,10.0,29.890747,,,TRUE,TRUE,,,,,,,OVC,2700,,,,,,,MVFR,,,,,,,,,,,,METAR,642.0
KPNA 280710Z AUTO 00000KT 10SM CLR M02/M02 A3027 RMK AO2,KPNA,2018-10-28T07:10:00Z,42.8,-109.8,-2.0,-2.0,0,0,,10.0,30.268702,,,TRUE,TRUE,,,,,,,CLR,,,,,,,,VFR,,,,,,,,,,,,METAR,2160.0
KOLY 280710Z AUTO 00000KT 10SM OVC120 06/05 A2994 RMK AO2 T00590048,KOLY,2018-10-28T07:10:00Z,38.72,-88.18,5.9,4.8,0,0,,10.0,29.940945,,,TRUE,TRUE,,,,,,,OVC,12000,,,,,,,VFR,,,,,,,,,,,,METAR,147.0
PHTO 280710Z 33003KT 6SM -RA BR SCT023 OVC028 23/23 A3003 RMK AO2 P0002 T02330228,PHTO,2018-10-28T07:10:00Z,19.72,-155.05,23.3,22.8,330,3,,6.0,30.029528,,,,TRUE,,,,,,-RA BR,SCT,2300,OVC,2800,,,,,MVFR,,,,,,0.02,,,,,,SPECI,12.0
KIPJ 280710Z AUTO 00000KT 10SM CLR 05/04 A2994 RMK AO2 T00510039,KIPJ,2018-10-28T07:10:00Z,35.48,-81.17,5.1,3.9,0,0,,10.0,29.940945,,,TRUE,TRUE,,,,,,,CLR,,,,,,,,VFR,,,,,,,,,,,,SPECI,267.0
KTTA 280710Z AUTO 24003KT 10SM CLR 07/07 A2991 RMK AO2 T00710067,KTTA,2018-10-28T07:10:00Z,35.58,-79.1,7.1,6.7,240,3,,10.0,29.911417,,,TRUE,TRUE,,,,,,,CLR,,,,,,,,VFR,,,,,,,,,,,,SPECI,75.0
KGEV 280710Z AUTO 32009G15KT 230V010 10SM RA OVC015 04/02 A2989 RMK AO2 P0001 T00400021,KGEV,2018-10-28T07:10:00Z,36.43,-81.42,4.0,2.1,320,9,15,10.0,29.890747,,,TRUE,TRUE,,,,,,RA,OVC,1500,,,,,,,MVFR,,,,,,0.01,,,,,,SPECI,969.0
KMNM 280710Z AUTO 16007KT 10SM FEW020 OVC034 07/05 A2980 RMK AO2 $,KMNM,2018-10-28T07:10:00Z,45.12,-87.62,7.0,5.0,160,7,,10.0,29.799213,,,TRUE,TRUE,TRUE,,,,,,FEW,2000,OVC,3400,,,,,VFR,,,,,,,,,,,,SPECI,191.0
KAZO 280710Z AUTO 00000KT 10SM SCT027 OVC046 05/03 A2985 RMK AO2 T00500033,KAZO,2018-10-28T07:10:00Z,42.23,-85.55,5.0,3.3,0,0,,10.0,29.84941,,,TRUE,TRUE,,,,,,,SCT,2700,OVC,4600,,,,,VFR,,,,,,,,,,,,SPECI,272.0
KDCU 280710Z AUTO 13003KT 3SM BR FEW034 06/05 A3007 RMK AO2 T00560050,KDCU,2018-10-28T07:10:00Z,34.65,-86.95,5.6,5.0,130,3,,3.0,30.070866,,,TRUE,TRUE,,,,,,BR,FEW,3400,,,,,,,MVFR,,,,,,,,,,,,SPECI,176.0
KELZ 280710Z AUTO 29005KT 2SM BR OVC002 01/01 A2968 RMK AO2 T00110011,KELZ,2018-10-28T07:10:00Z,42.1,-77.98,1.1,1.1,290,5,,2.0,29.681103,,,TRUE,TRUE,,,,,,BR,OVC,200,,,,,,,LIFR,,,,,,,,,,,,SPECI,646.0
PARY 280710Z AUTO 26007KT 9SM -SN SCT029 OVC035 M06/M08 A2974 RMK AO2 P0000 FZRANO,PARY,2018-10-28T07:10:00Z,64.73,-155.47,-6.0,-8.0,260,7,,9.0,29.740158,,,TRUE,TRUE,,,,TRUE,,-SN,SCT,2900,OVC,3500,,,,,VFR,,,,,,0.005,,,,,,SPECI,199.0
PAMD 280710Z AUTO 08029G38KT 3SM -RA BR OVC007 08/08 A2938 RMK AO2 PK WND 08039/0653 P0004,PAMD,2018-10-28T07:10:00Z,59.43,-146.3,8.0,8.0,80,29,38,3.0,29.379921,,,TRUE,TRUE,,,,,,-RA BR,OVC,700,,,,,,,IFR,,,,,,0.04,,,,,,SPECI,14.0
KNZY 280710Z AUTO 35004KT 7SM SCT006 18/15 A2998 RMK AO2 T01780150 $,KNZY,2018-10-28T07:10:00Z,32.7,-117.22,17.8,15.0,350,4,,7.0,29.97933,,,TRUE,TRUE,TRUE,,,,,,SCT,600,,,,,,,VFR,,,,,,,,,,,,SPECI,8.0
EHVL 280710Z AUTO 08003KT 9999 FEW015CB BKN034 OVC038 04/03 Q1019 BLU,EHVL,2018-10-28T07:10:00Z,53.23,4.92,4.0,3.0,80,3,,6.21,30.088583,,,TRUE,,,,,,,,FEW,1500,BKN,3400,OVC,3800,,,VFR,,,,,,,,,,,,SPECI,5.0
KCDD 280709Z AUTO 00000KT 5SM -RA OVC006 04/04 A2972 RMK AO2 P0002 P0002,KCDD,2018-10-28T07:09:00Z,48.27,-92.48,4.0,4.0,0,0,,5.0,29.719488,,,TRUE,TRUE,,,,,,-RA,OVC,600,,,,,,,IFR,,,,,,0.02,,,,,,SPECI,341.0
PACM 280709Z AUTO 31005KT 9SM -SN SCT006 BKN055 OVC070 M02/M02 A3007 RMK AO2 P0000 FZRANO,PACM,2018-10-28T07:09:00Z,61.85,-165.57,-2.0,-2.0,310,5,,9.0,30.070866,,,TRUE,TRUE,,,,TRUE,,-SN,SCT,600,BKN,5500,OVC,7000,,,VFR,,,,,,0.005,,,,,,SPECI,4.0
CYPQ 280709Z AUTO 36005KT 5SM -RA BR FEW010 BKN016 OVC027 01/01 A2975 RMK SLP082,CYPQ,2018-10-28T07:09:00Z,44.22,-78.37,1.0,1.0,360,5,,5.0,29.749016,1008.2,,TRUE,,,,,,,-RA BR,FEW,1000,BKN,1600,OVC,2700,,,MVFR,,,,,,,,,,,,SPECI,191.0
KNQI 280709Z AUTO 19004KT 4SM BR CLR 16/15 A3013 RMK AO2 T01560150 $,KNQI,2018-10-28T07:09:00Z,27.5,-97.82,15.6,15.0,190,4,,4.0,30.129921,,,TRUE,TRUE,TRUE,,,,,BR,CLR,,,,,,,,MVFR,,,,,,,,,,,,METAR,15.0
CYRJ 280709Z 09007G16KT 060V140 12SM -FZRA -SN OVC060 M00/M07 A3009 RMK SC8 SLP202,CYRJ,2018-10-28T07:09:00Z,48.52,-72.27,0.0,-7.0,90,7,16,12.0,30.088583,1020.2,,,,,,,,,-FZRA -SN,OVC,6000,,,,,,,VFR,,,,,,,,,,,,SPECI,179.0
KDYL 280709Z AUTO 26004KT 10SM FEW007 OVC013 07/06 A2969 RMK AO2 T00720061,KDYL,2018-10-28T07:09:00Z,40.33,-75.12,7.2,6.1,260,4,,10.0,29.68996,,,TRUE,TRUE,,,,,,,FEW,700,OVC,1300,,,,,MVFR,,,,,,,,,,,,SPECI,117.0
KCAD 280709Z AUTO 12004KT 10SM BKN007 OVC021 02/00 A2981 RMK AO2,KCAD,2018-10-28T07:09:00Z,44.27,-85.42,2.0,0.0,120,4,,10.0,29.811024,,,TRUE,TRUE,,,,,,,BKN,700,OVC,2100,,,,,IFR,,,,,,,,,,,,SPECI,398.0
KFWN 280709Z AUTO 00000KT 3SM BR SCT013 OVC021 07/07 A2967 RMK AO2 T00670067,KFWN,2018-10-28T07:09:00Z,41.2,-74.63,6.7,6.7,0,0,,3.0,29.66929,,,TRUE,TRUE,,,,,,BR,SCT,1300,OVC,2100,,,,,MVFR,,,,,,,,,,,,SPECI,133.0
KPKB 280709Z AUTO 27006KT 10SM -RA FEW010 BKN023 OVC036 07/05 A2990 RMK AO2 P0000 T00670050,KPKB,2018-10-28T07:09:00Z,39.35,-81.42,6.7,5.0,270,6,,10.0,29.899607,,,TRUE,TRUE,,,,,,-RA,FEW,1000,BKN,2300,OVC,3600,,,MVFR,,,,,,0.005,,,,,,SPECI,262.0
KIJD 280709Z AUTO 02005KT 3SM BR OVC006 06/06 A2963 RMK AO2 RAE0653 P0000 T00610061,KIJD,2018-10-28T07:09:00Z,41.75,-72.18,6.1,6.1,20,5,,3.0,29.630905,,,TRUE,TRUE,,,,,,BR,OVC,600,,,,,,,IFR,,,,,,0.005,,,,,,SPECI,75.0
KUAO 280709Z AUTO 26008G15KT 4SM RA BR SCT005 BKN033 OVC050 16/14 A2983 RMK AO2 P0013 T01560144,KUAO,2018-10-28T07:09:00Z,45.25,-122.77,15.6,14.4,260,8,15,4.0,29.828741,,,TRUE,TRUE,,,,,,RA BR,SCT,500,BKN,3300,OVC,5000,,,MVFR,,,,,,0.13,,,,,,SPECI,59.0
YBBN 280709Z 13015G25KT 9999 FEW025 SCT056 24/17 Q1011 FM0800 15012KT 9999 SCT020 SCT035,YBBN,2018-10-28T07:09:00Z,-27.38,153.13,24.0,17.0,130,15,25,6.21,29.852362,,,,,,,,,,,FEW,2500,SCT,5600,,,,,VFR,,,,,,,,,,,,SPECI,5.0
UTO8 M M M 116/-09/-10/MMMM/M/ SOG 02 1015 57MM,UTO8,2018-10-28T07:08:08Z,,,,,,,,,,,,,,,,,,,,,,,,,,,,,,,,,,,,,,,,SPECI,
KPKD 280708Z AUTO 34014KT 10SM -RA BKN011 BKN047 OVC080 06/04 A2969 RMK AO2 P0000 T00560044,KPKD,2018-10-28T07:08:00Z,46.9,-95.07,5.6,4.4,340,14,,10.0,29.68996,,,TRUE,TRUE,,,,,,-RA,BKN,1100,BKN,4700,OVC,8000,,,MVFR,,,,,,0.005,,,,,,SPECI,442.0
CYPD 280708Z AUTO 08021G28KT 2 1/2SM -RA BR BKN017 OVC022 03/02 A3020 RMK SLP233,CYPD,2018-10-28T07:08:00Z,45.67,-61.37,3.0,2.0,80,21,28,2.5,30.200787,1023.3,,TRUE,,,,,,,-RA BR,BKN,1700,OVC,2200,,,,,IFR,,,,,,,,,,,,SPECI,114.0
KMJX 280708Z AUTO 25007KT 10SM SCT008 OVC017 08/08 A2971 RMK AO2,KMJX,2018-10-28T07:08:00Z,39.93,-74.3,8.0,8.0,250,7,,10.0,29.71063,,,TRUE,TRUE,,,,,,,SCT,800,OVC,1700,,,,,MVFR,,,,,,,,,,,,METAR,25.0
KADF 280708Z AUTO 00000KT 1/2SM FG OVC001 11/11 A3004 RMK AO2 TSNO,KADF,2018-10-28T07:08:00Z,34.1,-93.07,11.0,11.0,0,0,,0.5,30.041338,,,TRUE,TRUE,,,TRUE,,,FG,OVC,100,,,,,,,LIFR,,,,,,,,,,,,METAR,56.0
KDDH 280708Z AUTO 00000KT 4SM BR FEW009 OVC016 05/03 A2965 RMK AO2 P0001 T00500028,KDDH,2018-10-28T07:08:00Z,42.9,-73.25,5.0,2.8,0,0,,4.0,29.648623,,,TRUE,TRUE,,,,,,BR,FEW,900,OVC,1600,,,,,MVFR,,,,,,0.01,,,,,,SPECI,244.0
CYZT 280707Z 12014G22KT 15SM FEW008 SCT032 OVC050 09/08 A2947 RMK SF1SC3SC4 SLP982,CYZT,2018-10-28T07:07:00Z,50.67,-127.37,9.0,8.0,120,14,22,15.0,29.471457,998.2,,,,,,,,,,FEW,800,SCT,3200,OVC,5000,,,VFR,,,,,,,,,,,,SPECI,22.0
KGON 280707Z AUTO VRB03KT 2SM -RA BR OVC004 12/11 A2958 RMK AO2 T01170111 PNO $,KGON,2018-10-28T07:07:00Z,41.33,-72.05,11.7,11.1,0,3,,2.0,29.58071,,,TRUE,TRUE,TRUE,,,,,-RA BR,OVC,400,,,,,,,LIFR,,,,,,,,,,,,METAR,3.0
KBKW 280707Z AUTO 31006KT 8SM -RA BKN009 OVC015 04/ A2989 RMK AO2 P0001 T0039 TSNO $,KBKW,2018-10-28T07:07:00Z,37.8,-81.12,3.9,,310,6,,8.0,29.890747,,,TRUE,TRUE,TRUE,,TRUE,,,-RA,BKN,900,OVC,1500,,,,,IFR,,,,,,0.01,,,,,,METAR,764.0
KBJJ 280707Z AUTO 29010KT 10SM OVC011 05/04 A2982 RMK AO2 T00500039,KBJJ,2018-10-28T07:07:00Z,40.87,-81.88,5.0,3.9,290,10,,10.0,29.819881,,,TRUE,TRUE,,,,,,,OVC,1100,,,,,,,MVFR,,,,,,,,,,,,METAR,343.0
PACZ 280707Z AUTO 34012KT 10SM -SHSN FEW027 SCT039 M01/M04 A3001 RMK AO2 SLP170,PACZ,2018-10-28T07:07:00Z,61.78,-166.03,-1.0,-4.0,340,12,,10.0,30.008858,1017.0,,TRUE,TRUE,,,,,,-SHSN,FEW,2700,SCT,3900,,,,,VFR,,,,,,,,,,,,SPECI,146.0
KBTP 280707Z AUTO 26004KT 5SM -RA BR OVC002 06/06 A2974 RMK AO2 P0001,KBTP,2018-10-28T07:07:00Z,40.77,-79.95,6.0,6.0,260,4,,5.0,29.740158,,,TRUE,TRUE,,,,,,-RA BR,OVC,200,,,,,,,LIFR,,,,,,0.01,,,,,,METAR,380.0
KMNH 280706Z AUTO 34003KT 10SM CLR 02/00 A3031 RMK AO2,KMNH,2018-10-28T07:06:00Z,39.22,-104.65,2.0,0.0,340,3,,10.0,30.31004,,,TRUE,TRUE,,,,,,,CLR,,,,,,,,VFR,,,,,,,,,,,,SPECI,2152.0
K7BM 280706Z AUTO 26012G15KT 10SM CLR 07/M03 A3042 RMK AO2,K7BM,2018-10-28T07:06:00Z,38.78,-106.22,7.0,-3.0,260,12,15,10.0,30.41929,,,TRUE,TRUE,,,,,,,CLR,,,,,,,,VFR,,,,,,,,,,,,SPECI,2995.0
KBOK 280706Z AUTO VRB06G15KT 1SM -RA BR OVC002 14/14 A3004 RMK AO2 VIS 1/2V2 1/2 P0002,KBOK,2018-10-28T07:06:00Z,42.07,-124.28,14.0,14.0,0,6,15,1.0,30.041338,,,TRUE,TRUE,,,,,,-RA BR,OVC,200,,,,,,,LIFR,,,,,,0.02,,,,,,SPECI,140.0
YCDU 280706Z AUTO 17009KT 9999 // BKN016 BKN022 OVC030 18/16 Q1016,YCDU,2018-10-28T07:06:00Z,-32.12,133.7,18.0,16.0,170,9,,6.21,30.0,,,TRUE,,,,,,,,BKN,1600,BKN,2200,OVC,3000,,,MVFR,,,,,,,,,,,,SPECI,15.0
CYHD 280706Z AUTO 15006KT 9SM OVC007 05/05 A2971 RMK SLP077,CYHD,2018-10-28T07:06:00Z,49.82,-92.75,5.0,5.0,150,6,,9.0,29.71063,1007.7,,TRUE,,,,,,,,OVC,700,,,,,,,IFR,,,,,,,,,,,,SPECI,413.0
KMSL 280706Z AUTO 00000KT 9SM CLR 07/07 A3006 RMK AO2 T00720067,KMSL,2018-10-28T07:06:00Z,34.75,-87.6,7.2,6.7,0,0,,9.0,30.059055,,,TRUE,TRUE,,,,,,,CLR,,,,,,,,VFR,,,,,,,,,,,,METAR,164.0
KEUG 280706Z AUTO 25012G26KT 3SM -RA BR FEW014 BKN031 OVC041 14/13 A2989 RMK AO2 PK WND 27026/0658 WSHFT 0641 VIS 2 RNW 34 CIG 026 RNW 34 P0012 T01440128 $,KEUG,2018-10-28T07:06:00Z,44.13,-123.22,14.4,12.8,250,12,26,3.0,29.890747,,,TRUE,TRUE,TRUE,,,,,-RA BR,FEW,1400,BKN,3100,OVC,4100,,,MVFR,,,,,,0.12,,,,,,METAR,114.0
KAKR 280706Z AUTO 29009KT 10SM BKN009 BKN013 OVC022 07/05 A2978 RMK AO2 CIG 008V011 T00720050,KAKR,2018-10-28T07:06:00Z,41.03,-81.47,7.2,5.0,290,9,,10.0,29.778543,,,TRUE,TRUE,,,,,,,BKN,900,BKN,1300,OVC,2200,,,IFR,,,,,,,,,,,,METAR,363.0
KPGV 280705Z AUTO 00000KT 10SM CLR 11/08 A2989 RMK AO2,KPGV,2018-10-28T07:05:00Z,35.62,-77.4,11.0,8.0,0,0,,10.0,29.890747,,,TRUE,TRUE,,,,,,,CLR,,,,,,,,VFR,,,,,,,,,,,,METAR,8.0
K2G4 280705Z AUTO 26010G22KT 222V302 5SM OVC004 02/02 A2972 RMK AO1,K2G4,2018-10-28T07:05:00Z,39.58,-79.33,2.0,2.0,260,10,22,5.0,29.719488,,,TRUE,TRUE,,,,,,,OVC,400,,,,,,,LIFR,,,,,,,,,,,,SPECI,894.0
KSUT 280705Z AUTO 28010G15KT 10SM CLR 12/09 A2993 RMK AO2 T01220085,KSUT,2018-10-28T07:05:00Z,33.93,-78.08,12.2,8.5,280,10,15,10.0,29.929134,,,TRUE,TRUE,,,,,,,CLR,,,,,,,,VFR,,,,,,,,,,,,SPECI,8.0
KRST 280705Z 29014G28KT 10SM BKN018 BKN026 OVC034 09/08 A2965 RMK AO2 PK WND 30028/0656 T00940078,KRST,2018-10-28T07:05:00Z,43.9,-92.5,9.4,7.8,290,14,28,10.0,29.648623,,,,TRUE,,,,,,,BKN,1800,BKN,2600,OVC,3400,,,MVFR,,,,,,,,,,,,SPECI,403.0
FAGG 280705Z 11003KT 050V130 0900 0400SE R29/0700D FG SCT001 OVC004 17/16 Q1015,FAGG,2018-10-28T07:05:00Z,-34.0,22.37,17.0,16.0,110,3,,0.56,29.970472,,,,,,,,,,FG,SCT,100,OVC,400,,,,,LIFR,,,,,,,,,,,,SPECI,193.0
EGUN 280705Z AUTO 03006KT 9999 FEW035 05/05 A3010 RMK AO2 RAB0656E05 SLP196 $,EGUN,2018-10-28T07:05:00Z,52.37,0.47,5.0,5.0,30,6,,6.21,30.100393,1019.6,,TRUE,TRUE,TRUE,,,,,,FEW,3500,,,,,,,VFR,,,,,,,,,,,,SPECI,10.0
MUCL 280705Z AUTO 03010KT 360V060 28/24 Q1015,MUCL,2018-10-28T07:05:00Z,21.63,-81.55,28.0,24.0,30,10,,,29.970472,,,TRUE,,,,,,,,,,,,,,,,,,,,,,,,,,,,METAR,5.0
KMQY 280705Z AUTO 13003KT 3SM BR SCT043 06/06 A3005 RMK AO2,KMQY,2018-10-28T07:05:00Z,36.02,-86.52,6.0,6.0,130,3,,3.0,30.050198,,,TRUE,TRUE,,,,,,BR,SCT,4300,,,,,,,MVFR,,,,,,,,,,,,SPECI,166.0
KHNZ 280705Z AUTO 23006KT 10SM CLR 06/05 A2986 RMK AO2 T00620046,KHNZ,2018-10-28T07:05:00Z,36.37,-78.53,6.2,4.6,230,6,,10.0,29.861221,,,TRUE,TRUE,,,,,,,CLR,,,,,,,,VFR,,,,,,,,,,,,SPECI,161.0
KHGR 280705Z AUTO 00000KT 8SM BKN030 OVC035 08/07 A2972 RMK AO2 RAE00 P0000 T00830067,KHGR,2018-10-28T07:05:00Z,39.7,-77.73,8.3,6.7,0,0,,8.0,29.719488,,,TRUE,TRUE,,,,,,,BKN,3000,OVC,3500,,,,,MVFR,,,,,,0.005,,,,,,SPECI,224.0
OIZH 280704Z 01006KT 5000 DU FEW040 27/06 Q1023 A3022,OIZH,2018-10-28T07:04:00Z,29.47,60.92,27.0,6.0,10,6,,3.11,30.206694,,,,,,,,,,DU,FEW,4000,,,,,,,MVFR,,,,,,,,,,,,SPECI,1370.0
KMMK 280704Z AUTO 36005KT 4SM BR OVC007 06/05 A2964 RMK AO2 T00610050,KMMK,2018-10-28T07:04:00Z,41.52,-72.83,6.1,5.0,360,5,,4.0,29.639763,,,TRUE,TRUE,,,,,,BR,OVC,700,,,,,,,IFR,,,,,,,,,,,,SPECI,31.0
KBRO 280704Z AUTO 00000KT 1/2SM FG VV001 17/17 A3013 RMK AO2 T01670167,KBRO,2018-10-28T07:04:00Z,25.92,-97.42,16.7,16.7,0,0,,0.5,30.129921,,,TRUE,TRUE,,,,,,FG,OVX,0,,,,,,,LIFR,,,,,,,,,,,100,SPECI,7.0
KITH 280703Z AUTO 30005KT 4SM -RA BR BKN004 OVC011 03/03 A2967 RMK AO2 P0000,KITH,2018-10-28T07:03:00Z,42.47,-76.45,3.0,3.0,300,5,,4.0,29.66929,,,TRUE,TRUE,,,,,,-RA BR,BKN,400,OVC,1100,,,,,LIFR,,,,,,0.005,,,,,,SPECI,335.0
CYVL 280703Z AUTO 23003KT 6SM BR OVC003 M06/M06 A2977 RMK SLP106,CYVL,2018-10-28T07:03:00Z,67.02,-126.13,-6.0,-6.0,230,3,,6.0,29.769686,1010.6,,TRUE,,,,,,,BR,OVC,300,,,,,,,LIFR,,,,,,,,,,,,SPECI,259.0
K2W6 280703Z AUTO 00000KT 10SM SCT002 OVC033 08/08 A2976 RMK AO1,K2W6,2018-10-28T07:03:00Z,38.32,-76.55,8.0,8.0,0,0,,10.0,29.760826,,,TRUE,TRUE,,,,,,,SCT,200,OVC,3300,,,,,VFR,,,,,,,,,,,,SPECI,44.0
KSLI 280703Z AUTO 00000KT 3SM BR CLR 15/15 A3000 RMK AO2 SLP162,KSLI,2018-10-28T07:03:00Z,33.77,-118.03,15.0,15.0,0,0,,3.0,30.0,1016.2,,TRUE,TRUE,,,,,,BR,CLR,,,,,,,,MVFR,,,,,,,,,,,,SPECI,11.0
KANJ 280703Z AUTO 07004KT 9SM -SN FEW010 FEW016 OVC036 02/01 A2987 RMK AO2 RAE00SNB00 P0000 T00220006 $,KANJ,2018-10-28T07:03:00Z,46.47,-84.37,2.2,0.6,70,4,,9.0,29.870079,,,TRUE,TRUE,TRUE,,,,,-SN,FEW,1000,FEW,1600,OVC,3600,,,VFR,,,,,,0.005,,,,,,SPECI,218.0
KMGY 280703Z AUTO 24004KT 3SM BR BKN055 07/06 A2990 RMK AO2 T00670056,KMGY,2018-10-28T07:03:00Z,39.6,-84.23,6.7,5.6,240,4,,3.0,29.899607,,,TRUE,TRUE,,,,,,BR,BKN,5500,,,,,,,MVFR,,,,,,,,,,,,SPECI,289.0
KMSS 280703Z AUTO 08008KT 7SM UP BKN009 OVC015 02/02 A2976 RMK AO2 RAE0658UPB0658 P0000 T00170017,KMSS,2018-10-28T07:03:00Z,44.93,-74.85,1.7,1.7,80,8,,7.0,29.760826,,,TRUE,TRUE,,,,,,UP,BKN,900,OVC,1500,,,,,IFR,,,,,,0.005,,,,,,SPECI,66.0
KMVL 280703Z AUTO 00000KT 10SM FEW021 OVC031 02/02 A2970 RMK AO2 T00170017,KMVL,2018-10-28T07:03:00Z,44.53,-72.62,1.7,1.7,0,0,,10.0,29.698818,,,TRUE,TRUE,,,,,,,FEW,2100,OVC,3100,,,,,VFR,,,,,,,,,,,,SPECI,234.0
KFME 280703Z AUTO 00000KT 7SM OVC070 07/07 A2976 RMK AO1,KFME,2018-10-28T07:03:00Z,39.08,-76.77,7.0,7.0,0,0,,7.0,29.760826,,,TRUE,TRUE,,,,,,,OVC,7000,,,,,,,VFR,,,,,,,,,,,,SPECI,46.0
KDLH 280702Z 11008KT 2 1/2SM -RA BR OVC004 07/05 A2963 RMK AO2 TWR VIS 3 CIG 003V008 P0001 T00670050 $,KDLH,2018-10-28T07:02:00Z,46.85,-92.2,6.7,5.0,110,8,,2.5,29.630905,,,,TRUE,TRUE,,,,,-RA BR,OVC,400,,,,,,,LIFR,,,,,,0.01,,,,,,SPECI,435.0
KBFD 280702Z AUTO 27004KT 8SM -SN OVC005 01/01 A2969 RMK AO2 SNB0658 P0000 T00110011,KBFD,2018-10-28T07:02:00Z,41.8,-78.63,1.1,1.1,270,4,,8.0,29.68996,,,TRUE,TRUE,,,,,,-SN,OVC,500,,,,,,,IFR,,,,,,0.005,,,,,,SPECI,647.0
KHHR 280702Z AUTO 00000KT 3SM BR OVC005 17/16 A3001 RMK AO2 T01720161,KHHR,2018-10-28T07:02:00Z,33.92,-118.33,17.2,16.1,0,0,,3.0,30.008858,,,TRUE,TRUE,,,,,,BR,OVC,500,,,,,,,IFR,,,,,,,,,,,,SPECI,18.0
KUUU 280702Z AUTO 34004KT 2 1/2SM -RA BR BKN003 OVC008 11/10 A2962 RMK AO2 P0000 T01060100,KUUU,2018-10-28T07:02:00Z,41.53,-71.28,10.6,10.0,340,4,,2.5,29.619095,,,TRUE,TRUE,,,,,,-RA BR,BKN,300,OVC,800,,,,,LIFR,,,,,,0.005,,,,,,SPECI,51.0
PASM 280702Z AUTO 00000KT 10SM CLR M07/M08 A3000 RMK AO2 SLP178 T10671078 FZRANO,PASM,2018-10-28T07:02:00Z,62.07,-163.3,-6.7,-7.8,0,0,,10.0,30.0,1017.8,,TRUE,TRUE,,,,TRUE,,,CLR,,,,,,,,VFR,,,,,,,,,,,,METAR,92.0
PAMO 280702Z AUTO 33006KT 10SM CLR M06/M06 A3000 RMK AO2 SLP168 T10561061 FZRANO,PAMO,2018-10-28T07:02:00Z,62.1,-163.68,-5.6,-6.1,330,6,,10.0,30.0,1016.8,,TRUE,TRUE,,,,TRUE,,,CLR,,,,,,,,VFR,,,,,,,,,,,,METAR,103.0
PADM 280702Z AUTO 34006KT 10SM CLR M05/M07 A3002 RMK AO2 SLP173 T10501072 FZRANO,PADM,2018-10-28T07:02:00Z,61.87,-162.03,-5.0,-7.2,340,6,,10.0,30.02067,1017.3,,TRUE,TRUE,,,,TRUE,,,CLR,,,,,,,,VFR,,,,,,,,,,,,METAR,31.0
KCGS 280702Z AUTO 00000KT 10SM BKN070 OVC090 08/08 A2974 RMK AO1 T00810076,KCGS,2018-10-28T07:02:00Z,38.98,-76.92,8.1,7.6,0,0,,10.0,29.740158,,,TRUE,TRUE,,,,,,,BKN,7000,OVC,9000,,,,,VFR,,,,,,,,,,,,SPECI,15.0
KEWB 280701Z AUTO 27004KT 6SM -RA BR OVC005 12/12 A2962 RMK AO2 P0000 T01170117 $,KEWB,2018-10-28T07:01:00Z,41.68,-70.95,11.7,11.7,270,4,,6.0,29.619095,,,TRUE,TRUE,TRUE,,,,,-RA BR,OVC,500,,,,,,,IFR,,,,,,0.005,,,,,,METAR,23.0
PAJN 280701Z 00000KT 10SM BCFG SCT000 01/01 A2951 RMK AO2 BCFG SCT000 BCFG NE-S T00110011,PAJN,2018-10-28T07:01:00Z,58.35,-134.58,1.1,1.1,0,0,,10.0,29.509842,,,,TRUE,,,,,,BCFG,SCT,0,,,,,,,VFR,,,,,,,,,,,,SPECI,5.0
SBSP 280701Z AUTO 20011KT 170V230 9999 FEW007 BKN009 OVC017 15/13 Q1014,SBSP,2018-10-28T07:01:00Z,-23.62,-46.63,15.0,13.0,200,11,,6.21,29.940945,,,TRUE,,,,,,,,FEW,700,BKN,900,OVC,1700,,,IFR,,,,,,,,,,,,SPECI,803.0
KSMP 280701Z AUTO VRB05KT 1/2SM -RA FG VV002 04/03 A2981 RMK AO2 P0002 T00390028 $,KSMP,2018-10-28T07:01:00Z,47.28,-121.33,3.9,2.8,0,5,,0.5,29.811024,,,TRUE,TRUE,TRUE,,,,,-RA FG,OVX,0,,,,,,,LIFR,,,,,,0.02,,,,,200,SPECI,1208.0
LCRA 280701Z 05014KT 9999 FEW040 22/09 Q1024 NOSIG,LCRA,2018-10-28T07:01:00Z,34.57,32.97,22.0,9.0,50,14,,6.21,30.236221,,,,,,TRUE,,,,,FEW,4000,,,,,,,VFR,,,,,,,,,,,,METAR,23.0
KSBD 280701Z AUTO 00000KT 10SM CLR 19/07 A3004 RMK AO2 T01870069,KSBD,2018-10-28T07:01:00Z,34.08,-117.25,18.7,6.9,0,0,,10.0,30.041338,,,TRUE,TRUE,,,,,,,CLR,,,,,,,,VFR,,,,,,,,,,,,SPECI,353.0
PAFS 280701Z AUTO 30006KT 4SM -SN BR FEW015 BKN020 OVC026 M03/M04 A2977 RMK AO2 SLP101 P0000 T10281039 FZRANO,PAFS,2018-10-28T07:01:00Z,63.02,-154.35,-2.8,-3.9,300,6,,4.0,29.769686,1010.1,,TRUE,TRUE,,,,TRUE,,-SN BR,FEW,1500,BKN,2000,OVC,2600,,,MVFR,,,,,,0.005,,,,,,METAR,126.0
LFSN 280700Z AUTO 03013KT 9999 OVC023 06/02 Q1007,LFSN,2018-10-28T07:00:00Z,48.67,6.22,6.0,2.0,30,13,,6.21,29.734253,,,TRUE,,,,,,,,OVC,2300,,,,,,,MVFR,,,,,,,,,,,,METAR,217.0
FQBR 280700Z 24007KT 120V280 9999 SCT018 27/20 Q1021,FQBR,2018-10-28T07:00:00Z,-19.8,34.88,27.0,20.0,240,7,,6.21,30.147638,,,,,,,,,,,SCT,1800,,,,,,,VFR,,,,,,,,,,,,METAR,16.0
SBCG 280700Z 13008KT CAVOK 18/16 Q1012,SBCG,2018-10-28T07:00:00Z,-20.47,-54.67,18.0,16.0,130,8,,6.21,29.88189,,,,,,,,,,,CAVOK,,,,,,,,VFR,,,,,,,,,,,,METAR,567.0
SBCT 280700Z 10004KT 9999 SCT011 BKN020 11/10 Q1015,SBCT,2018-10-28T07:00:00Z,-25.52,-49.17,11.0,10.0,100,4,,6.21,29.970472,,,,,,,,,,,SCT,1100,BKN,2000,,,,,MVFR,,,,,,,,,,,,METAR,908.0
MROC 280700Z 09008KT 050V140 9999 FEW040 BKN200 22/17 A2998 NOSIG,MROC,2018-10-28T07:00:00Z,10.0,-84.22,22.0,17.0,90,8,,6.21,29.97933,,,,,,TRUE,,,,,FEW,4000,BKN,20000,,,,,VFR,,,,,,,,,,,,METAR,920.0
MPTO 280700Z 27003KT 9999 TS SCT017CB SCT090 25/24 Q1010 NOSIG,MPTO,2018-10-28T07:00:00Z,9.05,-79.37,25.0,24.0,270,3,,6.21,29.822834,,,,,,TRUE,,,,TS,SCT,1700,SCT,9000,,,,,VFR,,,,,,,,,,,,METAR,45.0
VECC 280700Z 10005KT 4000 HZ FEW020 SCT100 30/21 Q1013 NOSIG,VECC,2018-10-28T07:00:00Z,22.65,88.43,30.0,21.0,100,5,,2.49,29.911417,,,,,,TRUE,,,,HZ,FEW,2000,SCT,10000,,,,,IFR,,,,,,,,,,,,METAR,6.0
SBLO 280700Z 00000KT CAVOK 17/12 Q1012,SBLO,2018-10-28T07:00:00Z,-23.32,-51.12,17.0,12.0,0,0,,6.21,29.88189,,,,,,,,,,,CAVOK,,,,,,,,VFR,,,,,,,,,,,,METAR,570.0
SKSP 280700Z 05012KT 9999 SCT017 BKN200 28/25 A2986,SKSP,2018-10-28T07:00:00Z,12.57,-81.72,28.0,25.0,50,12,,6.21,29.861221,,,,,,,,,,,SCT,1700,BKN,20000,,,,,VFR,,,,,,,,,,,,METAR,-2.0
SKRG 280700Z 09003KT 9999 BKN010 15/14 A3028,SKRG,2018-10-28T07:00:00Z,6.17,-75.42,15.0,14.0,90,3,,6.21,30.280512,,,,,,,,,,,BKN,1000,,,,,,,MVFR,,,,,,,,,,,,METAR,2137.0
SKLT 280700Z 00000KT CAVOK 24/24 A2983,SKLT,2018-10-28T07:00:00Z,-4.2,-69.93,24.0,24.0,0,0,,6.21,29.828741,,,,,,,,,,,CAVOK,,,,,,,,VFR,,,,,,,,,,,,METAR,84.0
SKCL 280700Z 15003KT 9999 FEW017 SCT120 20/19 A3000,SKCL,2018-10-28T07:00:00Z,3.53,-76.37,20.0,19.0,150,3,,6.21,30.0,,,,,,,,,,,FEW,1700,SCT,12000,,,,,VFR,,,,,,,,,,,,METAR,969.0
SKBO 280700Z 03003KT 9999 FEW020 10/08 A3031,SKBO,2018-10-28T07:00:00Z,4.7,-74.12,10.0,8.0,30,3,,6.21,30.31004,,,,,,,,,,,FEW,2000,,,,,,,VFR,,,,,,,,,,,,METAR,2548.0
SKBQ 280700Z 35003KT 9999 FEW010 SCT200 27/25 A2980,SKBQ,2018-10-28T07:00:00Z,10.9,-74.77,27.0,25.0,350,3,,6.21,29.799213,,,,,,,,,,,FEW,1000,SCT,20000,,,,,VFR,,,,,,,,,,,,METAR,10.0
TAPA 280700Z 07006KT 9999 FEW018 26/22 Q1013 NOSIG,TAPA,2018-10-28T07:00:00Z,17.12,-61.78,26.0,22.0,70,6,,6.21,29.911417,,,,,,TRUE,,,,,FEW,1800,,,,,,,VFR,,,,,,,,,,,,METAR,14.0
OJAQ 280700Z 35012KT CAVOK 25/03 Q1019 NOSIG,OJAQ,2018-10-28T07:00:00Z,29.62,35.02,25.0,3.0,350,12,,6.21,30.088583,,,,,,TRUE,,,,,CAVOK,,,,,,,,VFR,,,,,,,,,,,,METAR,51.0
NSFA 280700Z 00000KT 9999 FEW025 BKN066 28/24 Q1010 RMK NIL,NSFA,2018-10-28T07:00:00Z,-13.83,-172.0,28.0,24.0,0,0,,6.21,29.822834,,,,,,,,,,,FEW,2500,BKN,6600,,,,,VFR,,,,,,,,,,,,METAR,5.0
LRCT 280700Z 10003KT 9999 FEW150 11/08 Q1015 BLU BLU,LRCT,2018-10-28T07:00:00Z,46.5,23.88,11.0,8.0,100,3,,6.21,29.970472,,,,,,,,,,,FEW,15000,,,,,,,VFR,,,,,,,,,,,,METAR,331.0
SBPA 280700Z 15004KT 9999 BKN045 16/14 Q1015,SBPA,2018-10-28T07:00:00Z,-30.0,-51.17,16.0,14.0,150,4,,6.21,29.970472,,,,,,,,,,,BKN,4500,,,,,,,VFR,,,,,,,,,,,,METAR,3.0
SBMA 280700Z 31003KT CAVOK 27/24 Q1009,SBMA,2018-10-28T07:00:00Z,-5.37,-49.13,27.0,24.0,310,3,,6.21,29.793306,,,,,,,,,,,CAVOK,,,,,,,,VFR,,,,,,,,,,,,METAR,102.0
OPST 280700Z 09004KT 4000 HZ NSC 28/13 Q1019 NOSIG RH41,OPST,2018-10-28T07:00:00Z,32.53,74.37,28.0,13.0,90,4,,2.49,30.088583,,,,,,TRUE,,,,HZ,CLR,,,,,,,,IFR,,,,,,,,,,,,METAR,247.0
CZDB 280700Z AUTO 08015G22KT 05/04 RMK AO1 7PAST HR PRESFR 8049 PK WND 08023/0613 SLP175 P0007 T00480036 50017,CZDB,2018-10-28T07:00:00Z,45.42,-63.47,4.8,3.6,80,15,22,,,1017.5,,TRUE,TRUE,,,,,,,,,,,,,,,,1.7,,,,,0.07,,,,,,METAR,38.0
CWEZ 280700Z AUTO 08010KT 10/10 RMK AO1 SLP049 T01010095 56018,CWEZ,2018-10-28T07:00:00Z,48.78,-123.05,10.1,9.5,80,10,,,,1004.9,,TRUE,TRUE,,,,,,,,,,,,,,,,-1.8,,,,,,,,,,,METAR,7.0
CWWS 280700Z AUTO 29007KT 02/01 RMK AO1 SLP069 T00180009 51009,CWWS,2018-10-28T07:00:00Z,52.82,-97.62,1.8,0.9,290,7,,,,1006.9,,TRUE,TRUE,,,,,,,,,,,,,,,,0.9,,,,,,,,,,,METAR,223.0
CZRP 280700Z AUTO 00000KT M15/M16 RMK AO1 SOG 40 6008 SLP134 T11501164,CZRP,2018-10-28T07:00:00Z,75.37,-105.72,-15.0,-16.4,0,0,,,,1013.4,,TRUE,TRUE,,,,,,,,,,,,,,,,,,,,,,,,,,,METAR,12.0
KGZN 280700Z AUTO 23008KT 10SM FEW034 18/12 A3008 RMK AO2,KGZN,2018-10-28T07:00:00Z,32.37,-99.02,18.0,12.0,230,8,,10.0,30.079725,,,TRUE,TRUE,,,,,,,FEW,3400,,,,,,,VFR,,,,,,,,,,,,METAR,522.0
KMHV 280700Z AUTO 00000KT 10SM FEW047 19/M05 A3006 RMK A01,KMHV,2018-10-28T07:00:00Z,35.07,-118.15,19.0,-5.0,0,0,,10.0,30.059055,,,TRUE,TRUE,,,,,,,FEW,4700,,,,,,,VFR,,,,,,,,,,,,METAR,849.0
KJSL 280700Z AUTO 08006KT 10SM CLR 25/15 A3014 RMK A01,KJSL,2018-10-28T07:00:00Z,26.23,-95.25,25.0,15.0,80,6,,10.0,30.138779,,,TRUE,TRUE,,,,,,,CLR,,,,,,,,VFR,,,,,,,,,,,,METAR,10.0
K46U 280700Z AUTO 00000KT 10SM CLR 05/01 A3020 RMK A01,K46U,2018-10-28T07:00:00Z,43.18,-111.05,5.0,1.0,0,0,,10.0,30.200787,,,TRUE,TRUE,,,,,,,CLR,,,,,,,,VFR,,,,,,,,,,,,METAR,1717.0
AYNZ 280700Z 29004KT 9999 FEW012 SCT040 OVC070 25/22 Q1009 RMK:BUILD UPS IN AREA,AYNZ,2018-10-28T07:00:00Z,-6.57,146.72,25.0,22.0,290,4,,6.21,29.793306,,,,,,,,,,,FEW,1200,SCT,4000,OVC,7000,,,VFR,,,,,,,,,,,,METAR,70.0
HTSU 280700Z 09018KT 9999 FEW022 23/11 Q1022,HTSU,2018-10-28T07:00:00Z,-7.95,31.67,23.0,11.0,90,18,,6.21,30.177166,,,,,,,,,,,FEW,2200,,,,,,,VFR,,,,,,,,,,,,SPECI,1804.0
HTMT 280700Z 13010KT 9999 BKN020 29/20 Q1017 NOSIG,HTMT,2018-10-28T07:00:00Z,-10.27,40.17,29.0,20.0,130,10,,6.21,30.029528,,,,,,TRUE,,,,,BKN,2000,,,,,,,MVFR,,,,,,,,,,,,SPECI,113.0
HTBU 280700Z 00000KT 9999 FEW020 FEW022CB 24/19 Q1019,HTBU,2018-10-28T07:00:00Z,-1.32,31.82,24.0,19.0,0,0,,6.21,30.088583,,,,,,,,,,,FEW,2000,FEW,2200,,,,,VFR,,,,,,,,,,,,SPECI,1137.0
HTTB 280700Z 09015KT CAVOK 27/13 Q1021,HTTB,2018-10-28T07:00:00Z,-5.07,32.82,27.0,13.0,90,15,,6.21,30.147638,,,,,,,,,,,CAVOK,,,,,,,,VFR,,,,,,,,,,,,SPECI,1190.0
HTSO 280700Z 08013KT 9999 BKN022 22/15 Q1023,HTSO,2018-10-28T07:00:00Z,-10.67,35.57,22.0,15.0,80,13,,6.21,30.206694,,,,,,,,,,,BKN,2200,,,,,,,MVFR,,,,,,,,,,,,SPECI,1067.0
HTMW 280700Z 03015KT 9999 SCT025 FEW026CB 26/20 Q1018 NOSIG,HTMW,2018-10-28T07:00:00Z,-2.47,32.92,26.0,20.0,30,15,,6.21,30.059055,,,,,,TRUE,,,,,SCT,2500,FEW,2600,,,,,VFR,,,,,,,,,,,,SPECI,1140.0
HTMU 280700Z 00000KT 9999 FEW021 FEW023CB 25/19 Q1020,HTMU,2018-10-28T07:00:00Z,-1.5,33.78,25.0,19.0,0,0,,6.21,30.11811,,,,,,,,,,,FEW,2100,FEW,2300,,,,,VFR,,,,,,,,,,,,SPECI,1147.0
HTMG 280700Z 00000KT 9999 BKN023 25/19 Q1019,HTMG,2018-10-28T07:00:00Z,-6.82,37.63,25.0,19.0,0,0,,6.21,30.088583,,,,,,,,,,,BKN,2300,,,,,,,MVFR,,,,,,,,,,,,SPECI,526.0
HTKA 280700Z 15010KT 9999 FEW023 BKN270 29/17 Q1019,HTKA,2018-10-28T07:00:00Z,-4.87,29.67,29.0,17.0,150,10,,6.21,30.088583,,,,,,,,,,,FEW,2300,BKN,27000,,,,,VFR,,,,,,,,,,,,SPECI,885.0
HTIR 280700Z 18005KT 9999 FEW022 27/12 Q1024,HTIR,2018-10-28T07:00:00Z,-7.67,35.75,27.0,12.0,180,5,,6.21,30.236221,,,,,,,,,,,FEW,2200,,,,,,,VFR,,,,,,,,,,,,SPECI,1428.0
HTDO 280700Z 08012KT 9999 FEW035 25/14 Q1020 NOSIG,HTDO,2018-10-28T07:00:00Z,-6.17,35.77,25.0,14.0,80,12,,6.21,30.11811,,,,,,TRUE,,,,,FEW,3500,,,,,,,VFR,,,,,,,,,,,,SPECI,1120.0
HTAR 280700Z 11008KT 9999 BKN024 21/17 Q1021 NOSIG ,HTAR,2018-10-28T07:00:00Z,-3.37,36.63,21.0,17.0,110,8,,6.21,30.147638,,,,,,TRUE,,,,,BKN,2400,,,,,,,MVFR,,,,,,,,,,,,SPECI,1387.0
HTZA 280700Z 18009KT 9999 SCT020 29/24 Q1017 NOSIG,HTZA,2018-10-28T07:00:00Z,-6.22,39.22,29.0,24.0,180,9,,6.21,30.029528,,,,,,TRUE,,,,,SCT,2000,,,,,,,VFR,,,,,,,,,,,,METAR,15.0
HTKJ 280700Z 09006KT 9999 SCT027 25/18 Q1020 NOSIG,HTKJ,2018-10-28T07:00:00Z,-3.42,37.07,25.0,18.0,90,6,,6.21,30.11811,,,,,,TRUE,,,,,SCT,2700,,,,,,,VFR,,,,,,,,,,,,METAR,896.0
HTDA 280700Z 14004KT 9999 FEW016 BKN018 28/23 Q1017 NOSIG,HTDA,2018-10-28T07:00:00Z,-6.88,39.2,28.0,23.0,140,4,,6.21,30.029528,,,,,,TRUE,,,,,FEW,1600,BKN,1800,,,,,MVFR,,,,,,,,,,,,METAR,55.0
HKNW 280700Z 06008KT 9999 BKN020 BKN080 18/15 Q1023,HKNW,2018-10-28T07:00:00Z,-1.32,36.82,18.0,15.0,60,8,,6.21,30.206694,,,,,,,,,,,BKN,2000,BKN,8000,,,,,MVFR,,,,,,,,,,,,METAR,1679.0
FQMA 280700Z 10006KT 9999 SCT020 28/18 Q1023 NOSIG,FQMA,2018-10-28T07:00:00Z,-25.92,32.57,28.0,18.0,100,6,,6.21,30.206694,,,,,,TRUE,,,,,SCT,2000,,,,,,,VFR,,,,,,,,,,,,METAR,44.0
FNKU 280700Z 18012KT CAVOK 20/12 Q1023,FNKU,2018-10-28T07:00:00Z,-12.37,16.93,20.0,12.0,180,12,,6.21,30.206694,,,,,,,,,,,CAVOK,,,,,,,,VFR,,,,,,,,,,,,METAR,1699.0
FNCT 280700Z 04004KT 9999 FEW015 BKN090 27/23 Q1012,FNCT,2018-10-28T07:00:00Z,,,27.0,23.0,40,4,,6.21,29.88189,,,,,,,,,,,FEW,1500,BKN,9000,,,,,VFR,,,,,,,,,,,,METAR,
FNUG 280700Z 15004KT 9999 SCT019 BKN090 23/21 Q1016,FNUG,2018-10-28T07:00:00Z,-7.6,15.28,23.0,21.0,150,4,,6.21,30.0,,,,,,,,,,,SCT,1900,BKN,9000,,,,,VFR,,,,,,,,,,,,METAR,829.0
FNUE 280700Z 11006KT CAVOK 25/13 Q1019,FNUE,2018-10-28T07:00:00Z,-11.77,19.9,25.0,13.0,110,6,,6.21,30.088583,,,,,,,,,,,CAVOK,,,,,,,,VFR,,,,,,,,,,,,METAR,1329.0
FNGI 280700Z 14004KT 9999 FEW016 26/13 Q1020,FNGI,2018-10-28T07:00:00Z,-17.05,15.68,26.0,13.0,140,4,,6.21,30.11811,,,,,,,,,,,FEW,1600,,,,,,,VFR,,,,,,,,,,,,METAR,1087.0
FNSA 280700Z 00000KT 9999 FEW025 SCT083 27/18 Q1017,FNSA,2018-10-28T07:00:00Z,-9.68,20.43,27.0,18.0,0,0,,6.21,30.029528,,,,,,,,,,,FEW,2500,SCT,8300,,,,,VFR,,,,,,,,,,,,METAR,1093.0
FNMO 280700Z 22010KT 9999 BKN020 25/18 Q1009,FNMO,2018-10-28T07:00:00Z,-15.27,12.15,25.0,18.0,220,10,,6.21,29.793306,,,,,,,,,,,BKN,2000,,,,,,,MVFR,,,,,,,,,,,,METAR,64.0
FNSU 280700Z 21004KT 9999 OVC012 27/// Q1014,FNSU,2018-10-28T07:00:00Z,-11.17,13.85,,,210,4,,6.21,29.940945,,,,,,,,,,,OVC,1200,,,,,,,MVFR,,,,,,,,,,,,METAR,11.0
FNCA 280700Z 00000KT 4000 +RA BKN010 26/25 Q1014,FNCA,2018-10-28T07:00:00Z,-5.58,12.18,26.0,25.0,0,0,,2.49,29.940945,,,,,,,,,,+RA,BKN,1000,,,,,,,IFR,,,,,,,,,,,,METAR,20.0
FALW 280700Z AUTO 25006KT //// // ////// 27/15 Q1013,FALW,2018-10-28T07:00:00Z,-32.97,18.17,27.0,15.0,250,6,,,29.911417,,,TRUE,,,,,,,,,,,,,,,,,,,,,,,,,,,,SPECI,0.0
RKSM 280700Z 08004KT 9999 FEW020 BKN040 BKN100 12/07 A2971,RKSM,2018-10-28T07:00:00Z,37.42,127.12,12.0,7.0,80,4,,6.21,29.71063,,,,,,,,,,,FEW,2000,BKN,4000,BKN,10000,,,VFR,,,,,,,,,,,,METAR,20.0
CXYH 280700Z AUTO 03001KT M04/M06 RMK AO1 SLP081 T10401061 58001,CXYH,2018-10-28T07:00:00Z,61.25,-123.75,-4.0,-6.1,30,1,,,,1008.1,,TRUE,TRUE,,,,,,,,,,,,,,,,-0.1,,,,,,,,,,,METAR,204.0
CXDK 280700Z AUTO 00000KT M10/M10 RMK AO1 SLP109 T10951104 57003,CXDK,2018-10-28T07:00:00Z,61.27,-124.47,-9.5,-10.4,0,0,,,,1010.9,,TRUE,TRUE,,,,,,,,,,,,,,,,-0.3,,,,,,,,,,,METAR,283.0
CXTN 280700Z AUTO 21012KT M07/M08 RMK AO1 SOG 78 0000 SLP081 T10701078,CXTN,2018-10-28T07:00:00Z,69.2,-122.35,-7.0,-7.8,210,12,,,,1008.1,,TRUE,TRUE,,,,,,,,,,,,,,,,,,,,,,,,,,,METAR,552.0
CXLL 280700Z AUTO M09/M10 RMK AO1 SLP103 T10901101 54000,CXLL,2018-10-28T07:00:00Z,61.12,-122.85,-9.0,-10.1,,,,,,1010.3,,TRUE,TRUE,,,,,,,,,,,,,,,,,,,,,,,,,,,METAR,183.0
CXCH 280700Z AUTO 03/01 RMK AO1 7PAST HR M P0003 T00340009 50007,CXCH,2018-10-28T07:00:00Z,46.63,-60.95,3.4,0.9,,,,,,,,TRUE,TRUE,,,,,,,,,,,,,,,,0.7,,,,,0.03,,,,,,METAR,44.0
CWXC 280700Z AUTO 36007KT M02/M08 RMK AO1 SLP201 T10181084 58018,CWXC,2018-10-28T07:00:00Z,48.88,-71.03,-1.8,-8.4,360,7,,,,1020.1,,TRUE,TRUE,,,,,,,,,,,,,,,,-1.8,,,,,,,,,,,METAR,300.0
CAHR 280700Z AUTO 07016G22KT 03/02 RMK AO1 3PAST HR PRESFR 6065 PK WND 07025/0639 SLP211 P0025 T00270019 50063,CAHR,2018-10-28T07:00:00Z,46.35,-63.17,2.7,1.9,70,16,22,,,1021.1,,TRUE,TRUE,,,,,,,,,,,,,,,,6.3,,,,,0.25,,,,,,METAR,53.0
CWQS 280700Z AUTO 09019G28KT 11/06 RMK AO1 PK WND 08039/0622 SLP849 T01120059 56050,CWQS,2018-10-28T07:00:00Z,53.32,-132.77,11.2,5.9,90,19,28,,,984.9,,TRUE,TRUE,,,,,,,,,,,,,,,,-5.0,,,,,,,,,,,METAR,14.0
CWWL 280700Z AUTO 11012G24KT 09/ RMK AO1 8PAST HR 8014 PK WND 11024/0652 SLP929 P0003 T0088 50008,CWWL,2018-10-28T07:00:00Z,53.5,-130.63,8.8,,110,12,24,,,992.9,,TRUE,TRUE,,,,,,,,,,,,,,,,0.8,,,,,0.03,,,,,,METAR,17.0
CWEK 280700Z AUTO 06031G40KT 10/04 RMK AO1 2PAST HR 5016 PK WND 05046/0612 SLP934 P0001 T01040041 50002,CWEK,2018-10-28T07:00:00Z,54.58,-130.7,10.4,4.1,60,31,40,,,993.4,,TRUE,TRUE,,,,,,,,,,,,,,,,0.2,,,,,0.01,,,,,,METAR,8.0
CWDZ 280700Z AUTO 26001KT M03/M06 RMK AO1 T10251060,CWDZ,2018-10-28T07:00:00Z,51.42,-112.67,-2.5,-6.0,260,1,,,,,,TRUE,TRUE,,,,,,,,,,,,,,,,,,,,,,,,,,,METAR,678.0
CWRY 280700Z AUTO 29003KT M04/M06 RMK AO1 SLP183 T10361059 58005,CWRY,2018-10-28T07:00:00Z,49.12,-112.03,-3.6,-5.9,290,3,,,,1018.3,,TRUE,TRUE,,,,,,,,,,,,,,,,-0.5,,,,,,,,,,,METAR,1050.0
CWIX 280700Z AUTO 07009KT M01/M08 RMK AO1 SLP199 T10071079 58019,CWIX,2018-10-28T07:00:00Z,48.6,-71.72,-0.7,-7.9,70,9,,,,1019.9,,TRUE,TRUE,,,,,,,,,,,,,,,,-1.9,,,,,,,,,,,METAR,113.0
CWGM 280700Z AUTO 23016G24KT 07/M04 RMK AO1 PK WND 21029/0604 T00731041,CWGM,2018-10-28T07:00:00Z,49.13,-113.78,7.3,-4.1,230,16,24,,,,,TRUE,TRUE,,,,,,,,,,,,,,,,,,,,,,,,,,,METAR,1296.0
CYZS 280700Z 17014G20KT 1 1/2SM -SN DRSN OVC004 M03/M03 A2978 RMK SC8 SLP093,CYZS,2018-10-28T07:00:00Z,64.2,-83.37,-3.0,-3.0,170,14,20,1.5,29.778543,1009.3,,,,,,,,,-SN DRSN,OVC,400,,,,,,,LIFR,,,,,,,,,,,,SPECI,64.0
VIGG 280700Z 20002KT 6000 FEW035 27/14 Q1021,VIGG,2018-10-28T07:00:00Z,32.17,76.25,27.0,14.0,200,2,,3.73,30.147638,,,,,,,,,,,FEW,3500,,,,,,,MVFR,,,,,,,,,,,,METAR,770.0
NFNA 280700Z 16003KT 9999 BKN020 BKN048 26/24 Q1010,NFNA,2018-10-28T07:00:00Z,-18.05,178.57,26.0,24.0,160,3,,6.21,29.822834,,,,,,,,,,,BKN,2000,BKN,4800,,,,,MVFR,,,,,,,,,,,,METAR,5.0
VAUD 280700Z 07002KT 6000 NSC 32/10 Q1018 NOSIG,VAUD,2018-10-28T07:00:00Z,24.6,73.9,32.0,10.0,70,2,,3.73,30.059055,,,,,,TRUE,,,,,CLR,,,,,,,,MVFR,,,,,,,,,,,,METAR,514.0
SBAN 280700Z 26001KT 9999 FEW045 SCT100 17/16 Q1015,SBAN,2018-10-28T07:00:00Z,-16.22,-48.97,17.0,16.0,260,1,,6.21,29.970472,,,,,,,,,,,FEW,4500,SCT,10000,,,,,VFR,,,,,,,,,,,,METAR,1137.0
SBIZ 280700Z 09005KT 9999 FEW025 27/24 Q1010,SBIZ,2018-10-28T07:00:00Z,-5.52,-47.45,27.0,24.0,90,5,,6.21,29.822834,,,,,,,,,,,FEW,2500,,,,,,,VFR,,,,,,,,,,,,METAR,123.0
SBUR 280700Z 30004KT 9999 FEW045 20/20 Q1012,SBUR,2018-10-28T07:00:00Z,-19.77,-47.97,20.0,20.0,300,4,,6.21,29.88189,,,,,,,,,,,FEW,4500,,,,,,,VFR,,,,,,,,,,,,METAR,807.0
SBSR 280700Z 26004KT 9999 FEW030 SCT080 20/18 Q1010,SBSR,2018-10-28T07:00:00Z,-20.8,-49.4,20.0,18.0,260,4,,6.21,29.822834,,,,,,,,,,,FEW,3000,SCT,8000,,,,,VFR,,,,,,,,,,,,METAR,543.0
SBSC 280700Z 24009KT 9999 BKN040 BKN070 23/20 Q1008,SBSC,2018-10-28T07:00:00Z,-22.92,-43.72,23.0,20.0,240,9,,6.21,29.763779,,,,,,,,,,,BKN,4000,BKN,7000,,,,,VFR,,,,,,,,,,,,METAR,3.0
SBBU 280700Z 11007KT 9999 FEW025 19/19 Q1012,SBBU,2018-10-28T07:00:00Z,-22.32,-49.07,19.0,19.0,110,7,,6.21,29.88189,,,,,,,,,,,FEW,2500,,,,,,,VFR,,,,,,,,,,,,METAR,590.0
SBBH 280700Z 34004KT 8000 BKN007 OVC080 20/18 Q1012,SBBH,2018-10-28T07:00:00Z,-19.85,-43.95,20.0,18.0,340,4,,4.97,29.88189,,,,,,,,,,,BKN,700,OVC,8000,,,,,IFR,,,,,,,,,,,,METAR,785.0
SBAF 280700Z 28013KT 7000 BKN045 23/16 Q1010,SBAF,2018-10-28T07:00:00Z,-22.87,-43.37,23.0,16.0,280,13,,4.35,29.822834,,,,,,,,,,,BKN,4500,,,,,,,MVFR,,,,,,,,,,,,METAR,34.0
GFLL 280700Z 09006KT 9999 BKN011 FEW027CB 24/22 Q1012 RMK CB NE,GFLL,2018-10-28T07:00:00Z,8.62,-13.18,24.0,22.0,90,6,,6.21,29.88189,,,,,,,,,,,BKN,1100,FEW,2700,,,,,MVFR,,,,,,,,,,,,SPECI,27.0
HBBA 280700Z 00000KT 9999 FEW025TCU 29/17 Q1014,HBBA,2018-10-28T07:00:00Z,-3.32,29.32,29.0,17.0,0,0,,6.21,29.940945,,,,,,,,,,,FEW,2500,,,,,,,VFR,,,,,,,,,,,,METAR,783.0
HKJK 280700Z 06008KT 9999 BKN021 18/15 Q1025 NOSIG,HKJK,2018-10-28T07:00:00Z,-1.32,36.92,18.0,15.0,60,8,,6.21,30.265747,,,,,,TRUE,,,,,BKN,2100,,,,,,,MVFR,,,,,,,,,,,,METAR,1624.0
CWRA 280700Z AUTO 03004KT RMK AO1 58003,CWRA,2018-10-28T07:00:00Z,46.63,-53.07,,,30,4,,,,,,TRUE,TRUE,,,,,,,,,,,,,,,,-0.3,,,,,,,,,,,METAR,28.0
CWWK 280700Z AUTO 04005KT 10/09 RMK AO1 2PAST HR 8011 SLP061 P0001 T00980086 50002,CWWK,2018-10-28T07:00:00Z,49.02,-122.78,9.8,8.6,40,5,,,,1006.1,,TRUE,TRUE,,,,,,,,,,,,,,,,0.2,,,,,0.01,,,,,,METAR,15.0
CXSE 280700Z AUTO 10001KT M19/M21 RMK AO1 SOG 50 3004 SLP149 T11871206,CXSE,2018-10-28T07:00:00Z,73.77,-105.28,-18.7,-20.6,100,1,,,,1014.9,,TRUE,TRUE,,,,,,,,,,,,,,,,,,,,,,,,,,,METAR,11.0
OICI 280700Z 13004KT 8000 FEW035 17/07 Q1025 A3028,OICI,2018-10-28T07:00:00Z,33.58,46.4,17.0,7.0,130,4,,4.97,30.265747,,,,,,,,,,,FEW,3500,,,,,,,MVFR,,,,,,,,,,,,METAR,1343.0
OIAM 280700Z 33014KT CAVOK 20/12 Q1020,OIAM,2018-10-28T07:00:00Z,30.55,49.15,20.0,12.0,330,14,,6.21,30.11811,,,,,,,,,,,CAVOK,,,,,,,,VFR,,,,,,,,,,,,METAR,4.0
OIAG 280700Z 35016KT CAVOK 21/13 Q1020,OIAG,2018-10-28T07:00:00Z,30.77,49.67,21.0,13.0,350,16,,6.21,30.11811,,,,,,,,,,,CAVOK,,,,,,,,VFR,,,,,,,,,,,,METAR,29.0
OITT 280700Z 11008KT CAVOK 11/M03 Q1033 A3052 NOSIG,OITT,2018-10-28T07:00:00Z,38.13,46.23,11.0,-3.0,110,8,,6.21,30.501968,,,,,,TRUE,,,,,CAVOK,,,,,,,,VFR,,,,,,,,,,,,METAR,1361.0
OISS 280700Z 08004KT 9999 FEW040 BKN200 19/11 Q1024 A3026,OISS,2018-10-28T07:00:00Z,29.52,52.57,19.0,11.0,80,4,,6.21,30.236221,,,,,,,,,,,FEW,4000,BKN,20000,,,,,VFR,,,,,,,,,,,,METAR,1491.0
OIMM 280700Z 11010KT 5000 RA BKN005 FEW030CB OVC070 06/06 Q1034 A3056,OIMM,2018-10-28T07:00:00Z,36.23,59.62,6.0,6.0,110,10,,3.11,30.531496,,,,,,,,,,RA,BKN,500,FEW,3000,OVC,7000,,,IFR,,,,,,,,,,,,METAR,980.0
OIKK 280700Z 01004KT 9999 FEW045 SCT100 24/01 Q1025 A3029,OIKK,2018-10-28T07:00:00Z,30.25,56.97,24.0,1.0,10,4,,6.21,30.265747,,,,,,,,,,,FEW,4500,SCT,10000,,,,,VFR,,,,,,,,,,,,METAR,1754.0
OIKB 280700Z 18008KT 4000 TS FEW025CB SCT030 30/25 Q1016 A3001 NOSIG,OIKB,2018-10-28T07:00:00Z,27.22,56.37,30.0,25.0,180,8,,2.49,30.0,,,,,,TRUE,,,,TS,FEW,2500,SCT,3000,,,,,IFR,,,,,,,,,,,,METAR,10.0
OIFM 280700Z 21004KT 9999 FEW030 16/06 Q1027 A3034,OIFM,2018-10-28T07:00:00Z,32.75,51.87,16.0,6.0,210,4,,6.21,30.324802,,,,,,,,,,,FEW,3000,,,,,,,VFR,,,,,,,,,,,,METAR,1542.0
OIAW 280700Z 32008KT CAVOK 20/09 Q1021 NOSIG,OIAW,2018-10-28T07:00:00Z,31.32,48.77,20.0,9.0,320,8,,6.21,30.147638,,,,,,TRUE,,,,,CAVOK,,,,,,,,VFR,,,,,,,,,,,,METAR,22.0
SAZM 280700Z 32009KT 9999 -RA FEW045 OVC075 14/13 Q1016,SAZM,2018-10-28T07:00:00Z,-37.92,-57.57,14.0,13.0,320,9,,6.21,30.0,,,,,,,,,,-RA,FEW,4500,OVC,7500,,,,,VFR,,,,,,,,,,,,METAR,21.0
SAWG 280700Z 27007KT CAVOK 05/00 Q1002,SAWG,2018-10-28T07:00:00Z,-51.62,-69.32,5.0,0.0,270,7,,6.21,29.586615,,,,,,,,,,,CAVOK,,,,,,,,VFR,,,,,,,,,,,,METAR,19.0
SAWE 280700Z 32012KT CAVOK 05/04 Q1000,SAWE,2018-10-28T07:00:00Z,-53.78,-67.75,5.0,4.0,320,12,,6.21,29.52756,,,,,,,,,,,CAVOK,,,,,,,,VFR,,,,,,,,,,,,METAR,22.0
SAVC 280700Z 34005KT CAVOK 13/05 Q1011,SAVC,2018-10-28T07:00:00Z,-45.77,-67.47,13.0,5.0,340,5,,6.21,29.852362,,,,,,,,,,,CAVOK,,,,,,,,VFR,,,,,,,,,,,,METAR,46.0
SASJ 280700Z 00000KT 4000 DZ BR SCT003 OVC040 17/15 Q1015,SASJ,2018-10-28T07:00:00Z,-24.37,-65.1,17.0,15.0,0,0,,2.49,29.970472,,,,,,,,,,DZ BR,SCT,300,OVC,4000,,,,,IFR,,,,,,,,,,,,METAR,1167.0
SASA 280700Z 34002KT 9999 SCT008 BKN015 16/14 Q1016,SASA,2018-10-28T07:00:00Z,-24.85,-65.47,16.0,14.0,340,2,,6.21,30.0,,,,,,,,,,,SCT,800,BKN,1500,,,,,MVFR,,,,,,,,,,,,METAR,1216.0
SARI 280700Z 23004KT CAVOK 13/12 Q1013,SARI,2018-10-28T07:00:00Z,-25.72,-54.47,13.0,12.0,230,4,,6.21,29.911417,,,,,,,,,,,CAVOK,,,,,,,,VFR,,,,,,,,,,,,METAR,270.0
SARE 280700Z 15001KT CAVOK 15/14 Q1014,SARE,2018-10-28T07:00:00Z,-27.43,-59.03,15.0,14.0,150,1,,6.21,29.940945,,,,,,,,,,,CAVOK,,,,,,,,VFR,,,,,,,,,,,,METAR,52.0
SAME 280700Z 18003KT 9999 FEW040 16/14 Q1015,SAME,2018-10-28T07:00:00Z,-32.82,-68.77,16.0,14.0,180,3,,6.21,29.970472,,,,,,,,,,,FEW,4000,,,,,,,VFR,,,,,,,,,,,,METAR,704.0
SAEZ 280700Z VRB02KT 3000 R11/1000 MIFG BR NSC 09/09 Q1017 TEMPO 2000 MIFG BR,SAEZ,2018-10-28T07:00:00Z,-34.82,-58.52,9.0,9.0,0,2,,1.86,30.029528,,,,,,,,,,MIFG BR,CLR,,,,,,,,IFR,,,,,,,,,,,,METAR,20.0
SACO 280700Z 17004KT 8000 RA SCT035 BKN065 16/14 Q1016 NOSIG,SACO,2018-10-28T07:00:00Z,-31.32,-64.22,16.0,14.0,170,4,,4.97,30.0,,,,,,TRUE,,,,RA,SCT,3500,BKN,6500,,,,,MVFR,,,,,,,,,,,,METAR,474.0
SABE 280700Z 06006KT 9999 FEW016 17/13 Q1017 NOSIG,SABE,2018-10-28T07:00:00Z,-34.57,-58.42,17.0,13.0,60,6,,6.21,30.029528,,,,,,TRUE,,,,,FEW,1600,,,,,,,VFR,,,,,,,,,,,,METAR,6.0
SAAR 280700Z 14003KT CAVOK 16/13 Q1016,SAAR,2018-10-28T07:00:00Z,-32.92,-60.77,16.0,13.0,140,3,,6.21,30.0,,,,,,,,,,,CAVOK,,,,,,,,VFR,,,,,,,,,,,,METAR,25.0
LPMR 280700Z 06003KT 9999 FEW015 07/04 Q1009,LPMR,2018-10-28T07:00:00Z,39.82,-8.87,7.0,4.0,60,3,,6.21,29.793306,,,,,,,,,,,FEW,1500,,,,,,,VFR,,,,,,,,,,,,METAR,54.0
LPOV 280700Z 01012KT 340V040 9999 FEW015 07/02 Q1009,LPOV,2018-10-28T07:00:00Z,40.92,-8.65,7.0,2.0,10,12,,6.21,29.793306,,,,,,,,,,,FEW,1500,,,,,,,VFR,,,,,,,,,,,,METAR,17.0
RPMR 280700Z 16008KT 9999 FEW018 BKN080 30/25 Q1008 NOSIG RMK A2977,RPMR,2018-10-28T07:00:00Z,6.05,125.1,30.0,25.0,160,8,,6.21,29.763779,,,,,,TRUE,,,,,FEW,1800,BKN,8000,,,,,VFR,,,,,,,,,,,,METAR,154.0
RPVP 280700Z 09004KT 9999 FEW019 BKN240 32/23 Q1007 RMK A2974,RPVP,2018-10-28T07:00:00Z,9.75,118.72,32.0,23.0,90,4,,6.21,29.734253,,,,,,,,,,,FEW,1900,BKN,24000,,,,,VFR,,,,,,,,,,,,METAR,16.0
RPVD 280700Z 32010KT 9999 FEW015 BKN220 32/23 Q1005 RMK A2968,RPVD,2018-10-28T07:00:00Z,9.33,123.3,32.0,23.0,320,10,,6.21,29.675198,,,,,,,,,,,FEW,1500,BKN,22000,,,,,VFR,,,,,,,,,,,,METAR,8.0
RPLC 280700Z 36010KT 9999 SCT020 BKN300 33/21 Q1007 NOSIG RMK A2974,RPLC,2018-10-28T07:00:00Z,15.17,120.58,33.0,21.0,360,10,,6.21,29.734253,,,,,,TRUE,,,,,SCT,2000,BKN,30000,,,,,VFR,,,,,,,,,,,,METAR,196.0
OIZJ 280700Z 11010KT 6000 NSC 29/24 Q1016,OIZJ,2018-10-28T07:00:00Z,25.65,57.8,29.0,24.0,110,10,,3.73,30.0,,,,,,,,,,,CLR,,,,,,,,MVFR,,,,,,,,,,,,METAR,4.0
OIMT 280700Z AUTO 36004KT //// // ////// 21/11 Q1021,OIMT,2018-10-28T07:00:00Z,33.67,56.92,21.0,11.0,360,4,,,30.147638,,,TRUE,,,,,,,,,,,,,,,,,,,,,,,,,,,,METAR,711.0
OIMN 280700Z 09006KT 7000 SCT010 OVC090 09/07 Q1032,OIMN,2018-10-28T07:00:00Z,37.48,57.3,9.0,7.0,90,6,,4.35,30.47244,,,,,,,,,,,SCT,1000,OVC,9000,,,,,MVFR,,,,,,,,,,,,METAR,1074.0
OIMB 280700Z 10012KT 2500 HZ FEW035 SCT090 24/04 Q1023,OIMB,2018-10-28T07:00:00Z,32.9,59.28,24.0,4.0,100,12,,1.55,30.206694,,,,,,,,,,HZ,FEW,3500,SCT,9000,,,,,IFR,,,,,,,,,,,,METAR,1491.0
OIIP 280700Z 31012KT 4000 -RA BR SCT030CB SCT035 OVC090 07/06 Q1030,OIIP,2018-10-28T07:00:00Z,35.78,50.83,7.0,6.0,310,12,,2.49,30.413385,,,,,,,,,,-RA BR,SCT,3000,SCT,3500,OVC,9000,,,IFR,,,,,,,,,,,,METAR,1271.0
OIFS 280700Z 07004KT 9999 FEW035 14/03 Q1029,OIFS,2018-10-28T07:00:00Z,32.32,50.85,14.0,3.0,70,4,,6.21,30.383858,,,,,,,,,,,FEW,3500,,,,,,,VFR,,,,,,,,,,,,METAR,2078.0
OIBV 280700Z 30010KT 9999 FEW030 BKN200 32/16 Q1016,OIBV,2018-10-28T07:00:00Z,26.82,53.35,32.0,16.0,300,10,,6.21,30.0,,,,,,,,,,,FEW,3000,BKN,20000,,,,,VFR,,,,,,,,,,,,METAR,24.0
OIBA 280700Z 15008KT 7000 NSC 32/22 Q1015,OIBA,2018-10-28T07:00:00Z,25.88,55.03,32.0,22.0,150,8,,4.35,29.970472,,,,,,,,,,,CLR,,,,,,,,MVFR,,,,,,,,,,,,METAR,7.0
OITL 280700Z 16004KT 4000 -DZ BR BKN006 BKN020 06/06 Q1033,OITL,2018-10-28T07:00:00Z,38.33,48.42,6.0,6.0,160,4,,2.49,30.501968,,,,,,,,,,-DZ BR,BKN,600,BKN,2000,,,,,IFR,,,,,,,,,,,,METAR,1316.0
OIHH 280700Z 02002KT 9999 SCT040 10/03 Q1029,OIHH,2018-10-28T07:00:00Z,34.87,48.55,10.0,3.0,20,2,,6.21,30.383858,,,,,,,,,,,SCT,4000,,,,,,,VFR,,,,,,,,,,,,METAR,1757.0
OICS 280700Z 36010KT 9999 SCT035 13/02 Q1029,OICS,2018-10-28T07:00:00Z,35.25,47.02,13.0,2.0,360,10,,6.21,30.383858,,,,,,,,,,,SCT,3500,,,,,,,VFR,,,,,,,,,,,,METAR,1373.0
OIBP 280700Z 29012KT 9999 FEW040 BKN190 29/19 Q1016 A3001,OIBP,2018-10-28T07:00:00Z,27.38,52.73,29.0,19.0,290,12,,6.21,30.0,,,,,,,,,,,FEW,4000,BKN,19000,,,,,VFR,,,,,,,,,,,,METAR,9.0
OIBB 280700Z 36010KT 4000 HZ FEW040 SCT180 25/18 Q1018 A3008,OIBB,2018-10-28T07:00:00Z,28.97,50.82,25.0,18.0,360,10,,2.49,30.059055,,,,,,,,,,HZ,FEW,4000,SCT,18000,,,,,IFR,,,,,,,,,,,,METAR,19.0
OITM 280700Z 32004KT CAVOK 12/01 Q1031,OITM,2018-10-28T07:00:00Z,37.35,46.15,12.0,1.0,320,4,,6.21,30.442913,,,,,,,,,,,CAVOK,,,,,,,,VFR,,,,,,,,,,,,METAR,1340.0
OINE 280700Z 24004KT 9999 SCT030 BKN090 15/11 Q1033,OINE,2018-10-28T07:00:00Z,37.38,55.45,15.0,11.0,240,4,,6.21,30.501968,,,,,,,,,,,SCT,3000,BKN,9000,,,,,VFR,,,,,,,,,,,,METAR,130.0
OIMQ 280700Z 12014KT 9999 -RA SCT020 OVC090 15/08 Q1026,OIMQ,2018-10-28T07:00:00Z,35.23,58.47,15.0,8.0,120,14,,6.21,30.295275,,,,,,,,,,-RA,SCT,2000,OVC,9000,,,,,VFR,,,,,,,,,,,,METAR,1140.0
OIMD 280700Z 12020KT 3000 SA SCT030 OVC090 13/09 Q1023 RERA,OIMD,2018-10-28T07:00:00Z,34.38,58.63,13.0,9.0,120,20,,1.86,30.206694,,,,,,,,,,SA,SCT,3000,OVC,9000,,,,,IFR,,,,,,,,,,,,METAR,1100.0
OIMC 280700Z 30012KT 9999 SCT025 OVC090 10/09 Q1037,OIMC,2018-10-28T07:00:00Z,36.5,61.07,10.0,9.0,300,12,,6.21,30.620079,,,,,,,,,,,SCT,2500,OVC,9000,,,,,VFR,,,,,,,,,,,,METAR,288.0
OIIK 280700Z 14004KT 9999 FEW030CB SCT035 OVC090 09/07 Q1030,OIIK,2018-10-28T07:00:00Z,36.25,50.05,9.0,7.0,140,4,,6.21,30.413385,,,,,,,,,,,FEW,3000,SCT,3500,OVC,9000,,,VFR,,,,,,,,,,,,METAR,1278.0
OIBQ 280700Z 31021KT CAVOK 25/20 Q1019,OIBQ,2018-10-28T07:00:00Z,29.27,50.32,25.0,20.0,310,21,,6.21,30.088583,,,,,,,,,,,CAVOK,,,,,,,,VFR,,,,,,,,,,,,METAR,6.0
OIBL 280700Z 10006KT 6000 FEW030 31/23 Q1016,OIBL,2018-10-28T07:00:00Z,26.53,54.82,31.0,23.0,100,6,,3.73,30.0,,,,,,,,,,,FEW,3000,,,,,,,MVFR,,,,,,,,,,,,METAR,14.0
OIZI 280700Z 20004KT 8000 FEW040TCU BKN200 30/13 Q1019,OIZI,2018-10-28T07:00:00Z,27.23,60.72,30.0,13.0,200,4,,4.97,30.088583,,,,,,,,,,,FEW,4000,BKN,20000,,,,,MVFR,,,,,,,,,,,,METAR,591.0
OIZB 280700Z 35025G37KT 1200 SA NSC 24/08 Q1018,OIZB,2018-10-28T07:00:00Z,31.1,61.55,24.0,8.0,350,25,37,0.75,30.059055,,,,,,,,,,SA,CLR,,,,,,,,LIFR,,,,,,,,,,,,METAR,489.0
OING 280700Z 35004KT 9999 FEW020 17/12 Q1034,OING,2018-10-28T07:00:00Z,36.9,54.4,17.0,12.0,350,4,,6.21,30.531496,,,,,,,,,,,FEW,2000,,,,,,,VFR,,,,,,,,,,,,METAR,155.0
OIHR 280700Z 06010KT 7000 FEW035 SCT090 11/03 Q1029,OIHR,2018-10-28T07:00:00Z,34.13,49.85,11.0,3.0,60,10,,4.35,30.383858,,,,,,,,,,,FEW,3500,SCT,9000,,,,,MVFR,,,,,,,,,,,,METAR,1658.0
OIBS 280700Z 08010KT 6000 NSC 31/24 Q1016,OIBS,2018-10-28T07:00:00Z,25.9,54.55,31.0,24.0,80,10,,3.73,30.0,,,,,,,,,,,CLR,,,,,,,,MVFR,,,,,,,,,,,,METAR,14.0
OIBJ 280700Z 07006KT CAVOK 23/18 Q1021,OIBJ,2018-10-28T07:00:00Z,27.82,52.35,23.0,18.0,70,6,,6.21,30.147638,,,,,,,,,,,CAVOK,,,,,,,,VFR,,,,,,,,,,,,METAR,663.0
OIYY 280700Z 31012KT 5000 SA FEW035CB SCT040 BKN090 16/07 Q1028,OIYY,2018-10-28T07:00:00Z,31.9,54.28,16.0,7.0,310,12,,3.11,30.35433,,,,,,,,,,SA,FEW,3500,SCT,4000,BKN,9000,,,MVFR,,,,,,,,,,,,METAR,1236.0
OITR 280700Z 01006KT CAVOK 11/00 Q1033,OITR,2018-10-28T07:00:00Z,37.67,45.07,11.0,0.0,10,6,,6.21,30.501968,,,,,,,,,,,CAVOK,,,,,,,,VFR,,,,,,,,,,,,METAR,1312.0
OINZ 280700Z 07008KT 9999 SCT025 SCT030 17/13 Q1033,OINZ,2018-10-28T07:00:00Z,36.63,53.2,17.0,13.0,70,8,,6.21,30.501968,,,,,,,,,,,SCT,2500,SCT,3000,,,,,VFR,,,,,,,,,,,,METAR,11.0
OIIE 280700Z 32014KT 8000 FEW030 SCT035CB OVC100 10/08 Q1029,OIIE,2018-10-28T07:00:00Z,35.42,51.15,10.0,8.0,320,14,,4.97,30.383858,,,,,,,,,,,FEW,3000,SCT,3500,OVC,10000,,,MVFR,,,,,,,,,,,,METAR,1008.0
OIGG 280700Z 21004KT 8000 -DZ BKN010 FEW015CB OVC060 14/13 Q1034,OIGG,2018-10-28T07:00:00Z,37.33,49.6,14.0,13.0,210,4,,4.97,30.531496,,,,,,,,,,-DZ,BKN,1000,FEW,1500,OVC,6000,,,MVFR,,,,,,,,,,,,METAR,-13.0
OICC 280700Z 03004KT 8000 NSC 14/04 Q1027 A3033 NOSIG,OICC,2018-10-28T07:00:00Z,34.35,47.17,14.0,4.0,30,4,,4.97,30.324802,,,,,,TRUE,,,,,CLR,,,,,,,,MVFR,,,,,,,,,,,,METAR,1322.0
OIBK 280700Z 24006KT 8000 FEW025 SCT190 32/21 Q1016,OIBK,2018-10-28T07:00:00Z,26.53,53.98,32.0,21.0,240,6,,4.97,30.0,,,,,,,,,,,FEW,2500,SCT,19000,,,,,MVFR,,,,,,,,,,,,METAR,30.0
OIAA 280700Z 33012KT CAVOK 21/09 Q1022,OIAA,2018-10-28T07:00:00Z,30.37,48.25,21.0,9.0,330,12,,6.21,30.177166,,,,,,,,,,,CAVOK,,,,,,,,VFR,,,,,,,,,,,,METAR,11.0
OITP 280700Z 30004KT CAVOK 14/10 Q1033,OITP,2018-10-28T07:00:00Z,39.6,47.88,14.0,10.0,300,4,,6.21,30.501968,,,,,,,,,,,CAVOK,,,,,,,,VFR,,,,,,,,,,,,METAR,77.0
OISR 280700Z 00000KT CAVOK 29/16 Q1019,OISR,2018-10-28T07:00:00Z,27.37,53.2,29.0,16.0,0,0,,6.21,30.088583,,,,,,,,,,,CAVOK,,,,,,,,VFR,,,,,,,,,,,,METAR,408.0
OISF 280700Z 12004KT 9999 FEW040 SCT200 22/08 Q1021,OISF,2018-10-28T07:00:00Z,28.9,53.72,22.0,8.0,120,4,,6.21,30.147638,,,,,,,,,,,FEW,4000,SCT,20000,,,,,VFR,,,,,,,,,,,,METAR,1383.0
OICM 280700Z 21002KT CAVOK 18/13 Q1021,OICM,2018-10-28T07:00:00Z,,,18.0,13.0,210,2,,6.21,30.147638,,,,,,,,,,,CAVOK,,,,,,,,VFR,,,,,,,,,,,,METAR,
OIAH 280700Z 00000KT CAVOK 23/14 Q1022,OIAH,2018-10-28T07:00:00Z,30.33,50.83,23.0,14.0,0,0,,6.21,30.177166,,,,,,,,,,,CAVOK,,,,,,,,VFR,,,,,,,,,,,,METAR,738.0
OITZ 280700Z 28004KT 9999 FEW030CB BKN035 BKN090 07/01 Q1032,OITZ,2018-10-28T07:00:00Z,36.77,48.37,7.0,1.0,280,4,,6.21,30.47244,,,,,,,,,,,FEW,3000,BKN,3500,BKN,9000,,,VFR,,,,,,,,,,,,METAR,1663.0
OISY 280700Z 00000KT 9999 FEW030TCU FEW035 SCT080 15/08 Q1027,OISY,2018-10-28T07:00:00Z,30.7,51.55,15.0,8.0,0,0,,6.21,30.324802,,,,,,,,,,,FEW,3000,FEW,3500,SCT,8000,,,VFR,,,,,,,,,,,,METAR,1811.0
OISL 280700Z 00000KT CAVOK 27/14 Q1019,OISL,2018-10-28T07:00:00Z,27.67,54.37,27.0,14.0,0,0,,6.21,30.088583,,,,,,,,,,,CAVOK,,,,,,,,VFR,,,,,,,,,,,,METAR,805.0
OINR 280700Z 21006KT 9999 FEW022CB SCT025 BKN080 15/13 Q1032,OINR,2018-10-28T07:00:00Z,36.88,50.67,15.0,13.0,210,6,,6.21,30.47244,,,,,,,,,,,FEW,2200,SCT,2500,BKN,8000,,,VFR,,,,,,,,,,,,METAR,-20.0
OINN 280700Z 21002KT 9999 FEW020CB SCT025 OVC080 15/14 Q1032,OINN,2018-10-28T07:00:00Z,36.67,51.47,15.0,14.0,210,2,,6.21,30.47244,,,,,,,,,,,FEW,2000,SCT,2500,OVC,8000,,,VFR,,,,,,,,,,,,METAR,-19.0
OIKQ 280700Z 13008KT 6000 FEW025 FEW030TCU 32/26 Q1015,OIKQ,2018-10-28T07:00:00Z,26.75,55.9,32.0,26.0,130,8,,3.73,29.970472,,,,,,,,,,,FEW,2500,FEW,3000,,,,,MVFR,,,,,,,,,,,,METAR,12.0
LPMT 280700Z 34016KT 320V020 9999 FEW028 10/05 Q1008,LPMT,2018-10-28T07:00:00Z,38.7,-9.05,10.0,5.0,340,16,,6.21,29.763779,,,,,,,,,,,FEW,2800,,,,,,,VFR,,,,,,,,,,,,METAR,11.0
SBSN 280700Z 00000KT CAVOK 24/23 Q1009,SBSN,2018-10-28T07:00:00Z,-2.42,-54.78,24.0,23.0,0,0,,6.21,29.793306,,,,,,,,,,,CAVOK,,,,,,,,VFR,,,,,,,,,,,,METAR,72.0
CWLS 280700Z AUTO 35001KT M00/00 RMK AO1 2PAST HR 8009 SLP091 P0001 T10020000 50002,CWLS,2018-10-28T07:00:00Z,43.97,-80.75,-0.2,0.0,350,1,,,,1009.1,,TRUE,TRUE,,,,,,,,,,,,,,,,0.2,,,,,0.01,,,,,,METAR,415.0
CZFS 280700Z AUTO 00000KT M04/M05 RMK AO1 SLP113 T10351051 51003,CZFS,2018-10-28T07:00:00Z,61.77,-121.23,-3.5,-5.1,0,0,,,,1011.3,,TRUE,TRUE,,,,,,,,,,,,,,,,0.3,,,,,,,,,,,METAR,168.0
CWZA 280700Z AUTO 33008KT 10/07 RMK AO1 3PAST HR 5020 PK WND 00021/0600 SLP075 P0001 T01040067 50003,CWZA,2018-10-28T07:00:00Z,49.25,-121.77,10.4,6.7,330,8,,,,1007.5,,TRUE,TRUE,,,,,,,,,,,,,,,,0.3,,,,,0.01,,,,,,METAR,15.0
CWYY 280700Z AUTO 18001KT 09/06 RMK AO1 2PAST HR 5007 SLP151 P0001 T00920055 50002,CWYY,2018-10-28T07:00:00Z,49.03,-119.43,9.2,5.5,180,1,,,,1015.1,,TRUE,TRUE,,,,,,,,,,,,,,,,0.2,,,,,0.01,,,,,,METAR,283.0
CWYL 280700Z AUTO 08002KT M03/M04 RMK AO1 SOG 01 8015 SLP191 T10311035,CWYL,2018-10-28T07:00:00Z,51.45,-116.32,-3.1,-3.5,80,2,,,,1019.1,,TRUE,TRUE,,,,,,,,,,,,,,,,,,,,,,,,,,,METAR,1615.0
CWYJ 280700Z AUTO 06002KT 11/10 RMK AO1 SLP049 T01060102 58008,CWYJ,2018-10-28T07:00:00Z,48.45,-123.3,10.6,10.2,60,2,,,,1004.9,,TRUE,TRUE,,,,,,,,,,,,,,,,-0.8,,,,,,,,,,,METAR,39.0
CWXL 280700Z AUTO 18004KT M02/M07 RMK AO1 T10221070,CWXL,2018-10-28T07:00:00Z,49.73,-111.45,-2.2,-7.0,180,4,,,,,,TRUE,TRUE,,,,,,,,,,,,,,,,,,,,,,,,,,,METAR,817.0
CWSD 280700Z AUTO 08023G31KT 03/02 RMK AO1 7PAST HR 6065 PK WND 08031/0615 SLP202 P0018 T00250016 50047,CWSD,2018-10-28T07:00:00Z,46.42,-63.85,2.5,1.6,80,23,31,,,1020.2,,TRUE,TRUE,,,,,,,,,,,,,,,,4.7,,,,,0.18,,,,,,METAR,24.0
CWRZ 280700Z AUTO 08023KT 02/M00 RMK AO1 PK WND 08027/0653 SLP285 T00241001 58026,CWRZ,2018-10-28T07:00:00Z,48.42,-64.32,2.4,-0.1,80,23,,,,1028.5,,TRUE,TRUE,,,,,,,,,,,,,,,,-2.6,,,,,,,,,,,METAR,16.0
CWRT 280700Z AUTO 23001KT M01/M02 RMK AO1 T10121024,CWRT,2018-10-28T07:00:00Z,49.62,-114.47,-1.2,-2.4,230,1,,,,,,TRUE,TRUE,,,,,,,,,,,,,,,,,,,,,,,,,,,METAR,1303.0
CWQP 280700Z AUTO 02009KT 01/01 RMK AO1 PK WND 03017/0604 SLP065 T00110005 56010,CWQP,2018-10-28T07:00:00Z,43.83,-77.15,1.1,0.5,20,9,,,,1006.5,,TRUE,TRUE,,,,,,,,,,,,,,,,-1.0,,,,,,,,,,,METAR,79.0
CWQO 280700Z AUTO 06016G23KT M00/M05 RMK AO1 PK WND 06023/0657 T10041051,CWQO,2018-10-28T07:00:00Z,48.42,-68.9,-0.4,-5.1,60,16,23,,,,,TRUE,TRUE,,,,,,,,,,,,,,,,,,,,,,,,,,,METAR,1.0
CWQK 280700Z AUTO 01019KT 11/11 RMK AO1 PK WND 02024/0625 SLP048 T01060106 56014,CWQK,2018-10-28T07:00:00Z,48.3,-123.53,10.6,10.6,10,19,,,,1004.8,,TRUE,TRUE,,,,,,,,,,,,,,,,-1.4,,,,,,,,,,,METAR,5.0
CWQH 280700Z AUTO 05010KT 03/01 RMK AO1 T00270012,CWQH,2018-10-28T07:00:00Z,45.37,-71.82,2.7,1.2,50,10,,,,,,TRUE,TRUE,,,,,,,,,,,,,,,,,,,,,,,,,,,METAR,181.0
CXVW 280700Z AUTO 16009KT M02/M05 RMK AO1 T10241054,CXVW,2018-10-28T07:00:00Z,55.1,-117.2,-2.4,-5.4,160,9,,,,,,TRUE,TRUE,,,,,,,,,,,,,,,,,,,,,,,,,,,METAR,698.0
CXSP 280700Z AUTO 14001KT M01/M02 RMK AO1 T10061017,CXSP,2018-10-28T07:00:00Z,54.02,-111.27,-0.6,-1.7,140,1,,,,,,TRUE,TRUE,,,,,,,,,,,,,,,,,,,,,,,,,,,METAR,649.0
CXSL 280700Z AUTO 27003KT 01/M00 RMK AO1 T00101002,CXSL,2018-10-28T07:00:00Z,54.28,-112.5,1.0,-0.2,270,3,,,,,,TRUE,TRUE,,,,,,,,,,,,,,,,,,,,,,,,,,,METAR,680.0
CXSC 280700Z AUTO 00000KT M03/M03 RMK AO1 T10281034,CXSC,2018-10-28T07:00:00Z,50.3,-110.08,-2.8,-3.4,0,0,,,,,,TRUE,TRUE,,,,,,,,,,,,,,,,,,,,,,,,,,,METAR,800.0
CXPL 280700Z AUTO 01006KT M07/M08 RMK AO1 T10731075,CXPL,2018-10-28T07:00:00Z,51.13,-111.7,-7.3,-7.5,10,6,,,,,,TRUE,TRUE,,,,,,,,,,,,,,,,,,,,,,,,,,,METAR,750.0
CXMG 280700Z AUTO 25005KT M05/M08 RMK AO1 T10531076,CXMG,2018-10-28T07:00:00Z,56.97,-117.45,-5.3,-7.6,250,5,,,,,,TRUE,TRUE,,,,,,,,,,,,,,,,,,,,,,,,,,,METAR,457.0
CXHD 280700Z AUTO 23006KT M03/M06 RMK AO1 T10251059,CXHD,2018-10-28T07:00:00Z,53.18,-112.25,-2.5,-5.9,230,6,,,,,,TRUE,TRUE,,,,,,,,,,,,,,,,,,,,,,,,,,,METAR,688.0
CXFM 280700Z AUTO 19006KT M03/M06 RMK AO1 T10301064,CXFM,2018-10-28T07:00:00Z,49.48,-111.48,-3.0,-6.4,190,6,,,,,,TRUE,TRUE,,,,,,,,,,,,,,,,,,,,,,,,,,,METAR,881.0
CPXL 280700Z AUTO 20006KT 00/M06 RMK AO1 T00001058,CPXL,2018-10-28T07:00:00Z,49.87,-111.38,0.0,-5.8,200,6,,,,,,TRUE,TRUE,,,,,,,,,,,,,,,,,,,,,,,,,,,METAR,799.0
CPSV 280700Z AUTO 23009KT M03/M06 RMK AO1 T10261062,CPSV,2018-10-28T07:00:00Z,49.92,-110.92,-2.6,-6.2,230,9,,,,,,TRUE,TRUE,,,,,,,,,,,,,,,,,,,,,,,,,,,METAR,766.0
CPST 280700Z AUTO 01004KT 03/M07 RMK AO1 T00291072,CPST,2018-10-28T07:00:00Z,51.03,-113.28,2.9,-7.2,10,4,,,,,,TRUE,TRUE,,,,,,,,,,,,,,,,,,,,,,,,,,,METAR,967.0
CPRY 280700Z AUTO 23004KT M00/M05 RMK AO1 T10011048,CPRY,2018-10-28T07:00:00Z,49.48,-112.68,-0.1,-4.8,230,4,,,,,,TRUE,TRUE,,,,,,,,,,,,,,,,,,,,,,,,,,,METAR,937.0
CPRO 280700Z AUTO 26003KT M07/M09 RMK AO1 T10701090,CPRO,2018-10-28T07:00:00Z,50.83,-112.05,-7.0,-9.0,260,3,,,,,,TRUE,TRUE,,,,,,,,,,,,,,,,,,,,,,,,,,,METAR,714.0
CPIR 280700Z AUTO 29008KT 04/M04 RMK AO1 T00411043,CPIR,2018-10-28T07:00:00Z,49.9,-112.73,4.1,-4.3,290,8,,,,,,TRUE,TRUE,,,,,,,,,,,,,,,,,,,,,,,,,,,METAR,858.0
CPFI 280700Z AUTO 22006KT M02/M05 RMK AO1 T10201053,CPFI,2018-10-28T07:00:00Z,49.8,-112.03,-2.0,-5.3,220,6,,,,,,TRUE,TRUE,,,,,,,,,,,,,,,,,,,,,,,,,,,METAR,833.0
CPEH 280700Z AUTO 32008KT M02/M05 RMK AO1 T10161054,CPEH,2018-10-28T07:00:00Z,50.18,-112.43,-1.6,-5.4,320,8,,,,,,TRUE,TRUE,,,,,,,,,,,,,,,,,,,,,,,,,,,METAR,801.0
CPBT 280700Z AUTO 25006KT M01/M05 RMK AO1 T10111054,CPBT,2018-10-28T07:00:00Z,49.57,-113.05,-1.1,-5.4,250,6,,,,,,TRUE,TRUE,,,,,,,,,,,,,,,,,,,,,,,,,,,METAR,980.0
CWNZ 280700Z AUTO 12003KT M02/M03 RMK AO1 SOG 01 8013 SLP152 T10181028,CWNZ,2018-10-28T07:00:00Z,49.75,-84.17,-1.8,-2.8,120,3,,,,1015.2,,TRUE,TRUE,,,,,,,,,,,,,,,,,,,,,,,,,,,METAR,256.0
CWNC 280700Z AUTO 05002KT 02/M00 RMK AO1 SLP073 T00151001 56008,CWNC,2018-10-28T07:00:00Z,43.95,-78.17,1.5,-0.1,50,2,,,,1007.3,,TRUE,TRUE,,,,,,,,,,,,,,,,-0.8,,,,,,,,,,,METAR,78.0
CWWZ 280700Z AUTO 03010KT 04/02 RMK AO1 SLP083 T00380023 56009,CWWZ,2018-10-28T07:00:00Z,43.25,-79.22,3.8,2.3,30,10,,,,1008.3,,TRUE,TRUE,,,,,,,,,,,,,,,,-0.9,,,,,,,,,,,METAR,79.0
CWPO 280700Z AUTO 28006KT 02/M01 RMK AO1 SLP113 T00241011 53010,CWPO,2018-10-28T07:00:00Z,49.2,-98.9,2.4,-1.1,280,6,,,,1011.3,,TRUE,TRUE,,,,,,,,,,,,,,,,1.0,,,,,,,,,,,METAR,470.0
CWPC 280700Z AUTO 03009KT 03/02 RMK AO1 SLP083 T00340019 55006,CWPC,2018-10-28T07:00:00Z,42.87,-79.25,3.4,1.9,30,9,,,,1008.3,,TRUE,TRUE,,,,,,,,,,,,,,,,-0.6,,,,,,,,,,,METAR,184.0
LBGO 280700Z AUTO 09006KT 9999 NCD 15/10 Q1018 NOSIG,LBGO,2018-10-28T07:00:00Z,43.15,25.72,15.0,10.0,90,6,,6.21,30.059055,,,TRUE,,,TRUE,,,,,CLR,,,,,,,,VFR,,,,,,,,,,,,METAR,86.0
FSIA 280700Z 26007KT 190V320 9999 FEW018 BKN045 31/23 Q1013 NOSIG,FSIA,2018-10-28T07:00:00Z,-4.67,55.52,31.0,23.0,260,7,,6.21,29.911417,,,,,,TRUE,,,,,FEW,1800,BKN,4500,,,,,VFR,,,,,,,,,,,,METAR,3.0
WADL 280700Z 19010KT 150V230 9999 SCT016 31/21 Q1009 NOSIG,WADL,2018-10-28T07:00:00Z,-8.75,116.28,31.0,21.0,190,10,,6.21,29.793306,,,,,,TRUE,,,,,SCT,1600,,,,,,,VFR,,,,,,,,,,,,METAR,97.0
NGTA 280700Z 20008KT 9999 FEW020 BKN100 29/25 Q1008,NGTA,2018-10-28T07:00:00Z,1.37,173.13,29.0,25.0,200,8,,6.21,29.763779,,,,,,,,,,,FEW,2000,BKN,10000,,,,,VFR,,,,,,,,,,,,METAR,2.0
CYDF 280700Z 08003KT 15SM BKN110 M03/M04 A3057 RMK AC6 SLP356,CYDF,2018-10-28T07:00:00Z,49.22,-57.4,-3.0,-4.0,80,3,,15.0,30.569881,1035.6,,,,,,,,,,BKN,11000,,,,,,,VFR,,,,,,,,,,,,METAR,22.0
UTTT 280700Z 34008KT 310V010 9999 -SHRA OVC017CB 10/09 Q1035 R26R/29//50 NOSIG,UTTT,2018-10-28T07:00:00Z,41.27,69.27,10.0,9.0,340,8,,6.21,30.561024,,,,,,TRUE,,,,-SHRA,OVC,1700,,,,,,,MVFR,,,,,,,,,,,,METAR,489.0
UTFF 280700Z 34006KT 290V360 5000 HZ NSC 21/05 Q1026 R18/CLRD70,UTFF,2018-10-28T07:00:00Z,40.37,71.77,21.0,5.0,340,6,,3.11,30.295275,,,,,,,,,,HZ,CLR,,,,,,,,MVFR,,,,,,,,,,,,METAR,577.0
UTST 280700Z 23026KT 0600 R25/0600N +DS VV005 17/09 Q1027 R88/CLRD70 TEMPO 24035G45KT 0300 +DS VV002 RMK BASE530,UTST,2018-10-28T07:00:00Z,37.28,67.32,17.0,9.0,230,26,,0.37,30.324802,,,,,,,,,,+DS,OVX,0,,,,,,,LIFR,,,,,,,,,,,500,METAR,302.0
UTSS 280700Z 12012KT 6000 -SHRA FEW007 OVC059CB 11/11 Q1033 R27/290350 NOSIG,UTSS,2018-10-28T07:00:00Z,39.7,66.98,11.0,11.0,120,12,,3.73,30.501968,,,,,,TRUE,,,,-SHRA,FEW,700,OVC,5900,,,,,MVFR,,,,,,,,,,,,METAR,724.0
UTSK 280700Z 35006KT 9999 -SHRA BKN007 OVC033CB 09/08 Q1033 R16/290250 RMK BASE730,UTSK,2018-10-28T07:00:00Z,38.83,65.77,9.0,8.0,350,6,,6.21,30.501968,,,,,,,,,,-SHRA,BKN,700,OVC,3300,,,,,IFR,,,,,,,,,,,,METAR,1365.0
UTSB 280700Z 35012KT CAVOK 11/05 Q1035 R01/290065 NOSIG,UTSB,2018-10-28T07:00:00Z,39.77,64.48,11.0,5.0,350,12,,6.21,30.561024,,,,,,TRUE,,,,,CAVOK,,,,,,,,VFR,,,,,,,,,,,,METAR,226.0
UTSA 280700Z 35012KT 9999 NSC 10/05 Q1034 R25/29//65 NOSIG,UTSA,2018-10-28T07:00:00Z,40.12,65.17,10.0,5.0,350,12,,6.21,30.531496,,,,,,TRUE,,,,,CLR,,,,,,,,VFR,,,,,,,,,,,,METAR,346.0
UTNU 280700Z 01002KT CAVOK 10/05 Q1037 R31/CLRD70 NOSIG,UTNU,2018-10-28T07:00:00Z,41.58,60.63,10.0,5.0,10,2,,6.21,30.620079,,,,,,TRUE,,,,,CAVOK,,,,,,,,VFR,,,,,,,,,,,,METAR,98.0
UTNN 280700Z 32006KT CAVOK 11/04 Q1037 R33/CLRD60 NOSIG,UTNN,2018-10-28T07:00:00Z,42.48,59.63,11.0,4.0,320,6,,6.21,30.620079,,,,,,TRUE,,,,,CAVOK,,,,,,,,VFR,,,,,,,,,,,,METAR,67.0
UTFN 280700Z 22010KT 6000 BKN018CB 18/09 Q1025 R28/CLRD70 NOSIG,UTFN,2018-10-28T07:00:00Z,40.98,71.57,18.0,9.0,220,10,,3.73,30.265747,,,,,,TRUE,,,,,BKN,1800,,,,,,,MVFR,,,,,,,,,,,,METAR,490.0
FQQL 280700Z 21005KT 120V260 9999 BKN015 27/19 Q1020,FQQL,2018-10-28T07:00:00Z,-17.87,36.87,27.0,19.0,210,5,,6.21,30.11811,,,,,,,,,,,BKN,1500,,,,,,,MVFR,,,,,,,,,,,,METAR,16.0
VIDD 280700Z 29004KT 2000 HZ NSC 30/16 Q1017 NOSIG,VIDD,2018-10-28T07:00:00Z,28.58,77.22,30.0,16.0,290,4,,1.24,30.029528,,,,,,TRUE,,,,HZ,CLR,,,,,,,,IFR,,,,,,,,,,,,METAR,216.0
VEJS 280700Z 00000KT 5000 HZ FEW020 SCT025 31/18 Q1015,VEJS,2018-10-28T07:00:00Z,22.82,86.17,31.0,18.0,0,0,,3.11,29.970472,,,,,,,,,,HZ,FEW,2000,SCT,2500,,,,,MVFR,,,,,,,,,,,,METAR,142.0
VEGY 280700Z 34006KT 4000 HZ FEW020 29/18 Q1015 NOSIG,VEGY,2018-10-28T07:00:00Z,24.75,84.95,29.0,18.0,340,6,,2.49,29.970472,,,,,,TRUE,,,,HZ,FEW,2000,,,,,,,IFR,,,,,,,,,,,,METAR,116.0
VEBN 280700Z 28003KT 3500 HZ NSC 31/17 Q1015 NOSIG,VEBN,2018-10-28T07:00:00Z,25.45,82.85,31.0,17.0,280,3,,2.17,29.970472,,,,,,TRUE,,,,HZ,CLR,,,,,,,,IFR,,,,,,,,,,,,METAR,83.0
CWVU 280700Z AUTO 09020G25KT 12/12 RMK AO1 8PAST HR 8035 PK WND 08028/0639 SLP077 P0003 T01170115 50008,CWVU,2018-10-28T07:00:00Z,44.28,-66.33,11.7,11.5,90,20,25,,,1007.7,,TRUE,TRUE,,,,,,,,,,,,,,,,0.8,,,,,0.03,,,,,,METAR,16.0
HEIS 280700Z 06007KT CAVOK 22/12 Q1021,HEIS,2018-10-28T07:00:00Z,30.58,32.25,22.0,12.0,60,7,,6.21,30.147638,,,,,,,,,,,CAVOK,,,,,,,,VFR,,,,,,,,,,,,METAR,3.0
HETR 280700Z 00000KT CAVOK 26/13 Q1019,HETR,2018-10-28T07:00:00Z,28.22,33.65,26.0,13.0,0,0,,6.21,30.088583,,,,,,,,,,,CAVOK,,,,,,,,VFR,,,,,,,,,,,,METAR,35.0
LFAT 280700Z AUTO 05010KT CAVOK 05/03 Q1015 TEMPO 4000 BR BKN005 BECMG 04016G26KT,LFAT,2018-10-28T07:00:00Z,50.52,1.62,5.0,3.0,50,10,,6.21,29.970472,,,TRUE,,,,,,,,CAVOK,,,,,,,,VFR,,,,,,,,,,,,SPECI,14.0
LFAQ 280700Z AUTO 05018KT 6000 OVC010 05/04 Q1012 BECMG NSC,LFAQ,2018-10-28T07:00:00Z,49.97,2.7,5.0,4.0,50,18,,3.73,29.88189,,,TRUE,,,,,,,,OVC,1000,,,,,,,MVFR,,,,,,,,,,,,METAR,111.0
LFBU 280700Z AUTO 35010KT 9999 OVC015 05/03 Q1005 TEMPO BKN008,LFBU,2018-10-28T07:00:00Z,45.72,0.22,5.0,3.0,350,10,,6.21,29.675198,,,TRUE,,,,,,,,OVC,1500,,,,,,,MVFR,,,,,,,,,,,,METAR,133.0
LFGA 280700Z AUTO 01014KT 9999 SCT013 OVC034 06/03 Q1005,LFGA,2018-10-28T07:00:00Z,48.1,7.35,6.0,3.0,10,14,,6.21,29.675198,,,TRUE,,,,,,,,SCT,1300,OVC,3400,,,,,VFR,,,,,,,,,,,,METAR,191.0
LFJR 280700Z AUTO 36004KT 330V030 CAVOK 04/03 Q1009 NOSIG,LFJR,2018-10-28T07:00:00Z,47.57,-0.3,4.0,3.0,360,4,,6.21,29.793306,,,TRUE,,,TRUE,,,,,CAVOK,,,,,,,,VFR,,,,,,,,,,,,METAR,60.0
LFPN 280700Z AUTO 02011KT 9999 SCT012 OVC054 05/03 Q1009 TEMPO BKN008 BKN012 BECMG 03015G25KT,LFPN,2018-10-28T07:00:00Z,48.75,2.12,5.0,3.0,20,11,,6.21,29.793306,,,TRUE,,,,,,,,SCT,1200,OVC,5400,,,,,VFR,,,,,,,,,,,,METAR,164.0
LFRC 280700Z AUTO 03018KT 9999 BKN018/// OVC027/// ///CB 08/04 Q1013 TEMPO 05025G40KT 2000 TSRAGS,LFRC,2018-10-28T07:00:00Z,49.63,-1.47,8.0,4.0,30,18,,6.21,29.911417,,,TRUE,,,,,,,,BKN,1800,OVC,2700,,,,,MVFR,,,,,,,,,,,,METAR,138.0
LFRK 280700Z AUTO 06005KT 020V080 CAVOK 05/03 Q1012 TEMPO BKN012 BECMG 05015G25KT,LFRK,2018-10-28T07:00:00Z,49.17,-0.45,5.0,3.0,60,5,,6.21,29.88189,,,TRUE,,,,,,,,CAVOK,,,,,,,,VFR,,,,,,,,,,,,METAR,67.0
VOHS 280700Z 07006KT 6000 NSC 31/12 Q1014 NOSIG,VOHS,2018-10-28T07:00:00Z,17.23,78.43,31.0,12.0,70,6,,3.73,29.940945,,,,,,TRUE,,,,,CLR,,,,,,,,MVFR,,,,,,,,,,,,METAR,1.0
VANP 280700Z 08002KT 3000 HZ NSC 31/15 Q1016 NOSIG,VANP,2018-10-28T07:00:00Z,21.08,79.05,31.0,15.0,80,2,,1.86,30.0,,,,,,TRUE,,,,HZ,CLR,,,,,,,,IFR,,,,,,,,,,,,METAR,310.0
LFRU 280700Z AUTO 02017G27KT 9999 -RA BKN024/// BKN029/// BKN034/// ///TCU 08/05 Q1013,LFRU,2018-10-28T07:00:00Z,48.6,-3.82,8.0,5.0,20,17,27,6.21,29.911417,,,TRUE,,,,,,,-RA,BKN,2400,BKN,2900,BKN,3400,,,MVFR,,,,,,,,,,,,METAR,86.0
NCRG 280700Z 06006KT 8000 RA SCT003 BKN012 OVC080 24/23 Q1010,NCRG,2018-10-28T07:00:00Z,-21.2,-159.82,24.0,23.0,60,6,,4.97,29.822834,,,,,,,,,,RA,SCT,300,BKN,1200,OVC,8000,,,MVFR,,,,,,,,,,,,SPECI,7.0
FBSK 280700Z 05011KT 350V080 CAVOK 26/03 Q1025 NOSIG,FBSK,2018-10-28T07:00:00Z,-24.55,25.92,26.0,3.0,50,11,,6.21,30.265747,,,,,,TRUE,,,,,CAVOK,,,,,,,,VFR,,,,,,,,,,,,METAR,1005.0
GOBD 280700Z 35010KT CAVOK 25/23 Q1013 NOSIG,GOBD,2018-10-28T07:00:00Z,14.67,-17.07,25.0,23.0,350,10,,6.21,29.911417,,,,,,TRUE,,,,,CAVOK,,,,,,,,VFR,,,,,,,,,,,,METAR,88.0
NCAT 280700Z AUTO 04002KT //// ////// Q1005,NCAT,2018-10-28T07:00:00Z,,,,,40,2,,,29.675198,,,TRUE,,,,,,,,,,,,,,,,,,,,,,,,,,,,METAR,
NCMK 280700Z AUTO 02002KT //// //// 24/23 Q1008,NCMK,2018-10-28T07:00:00Z,-20.15,-157.38,24.0,23.0,20,2,,,29.763779,,,TRUE,,,,,,,,,,,,,,,,,,,,,,,,,,,,METAR,9.0
NCMH 280700Z AUTO 11003KT //// ////// 28/24 Q1010,NCMH,2018-10-28T07:00:00Z,-10.38,-161.0,28.0,24.0,110,3,,,29.822834,,,TRUE,,,,,,,,,,,,,,,,,,,,,,,,,,,,METAR,0.0
LFLN 280700Z AUTO 32005KT 9999 -RA OVC021 05/03 Q1001 TEMPO 4000 RA BKN010,LFLN,2018-10-28T07:00:00Z,46.42,4.02,5.0,3.0,320,5,,6.21,29.557087,,,TRUE,,,,,,,-RA,OVC,2100,,,,,,,MVFR,,,,,,,,,,,,METAR,244.0
NCMG 280700Z AUTO 09009KT //// ////// 22/22 Q1007,NCMG,2018-10-28T07:00:00Z,,,22.0,22.0,90,9,,,29.734253,,,TRUE,,,,,,,,,,,,,,,,,,,,,,,,,,,,METAR,
NCPY 280700Z AUTO 06009KT //// ////// 28/24 Q1010,NCPY,2018-10-28T07:00:00Z,-9.02,-158.07,28.0,24.0,60,9,,,29.822834,,,TRUE,,,,,,,,,,,,,,,,,,,,,,,,,,,,METAR,2.0
NCMR 280700Z AUTO 02002KT //// ////// Q1011,NCMR,2018-10-28T07:00:00Z,,,,,20,2,,,29.852362,,,TRUE,,,,,,,,,,,,,,,,,,,,,,,,,,,,METAR,
KVUO 280700Z AUTO 00000KT 4SM -RA BR FEW014 BKN043 OVC050 16/15 A2979 RMK AO2 P0002 T01560150,KVUO,2018-10-28T07:00:00Z,45.62,-122.65,15.6,15.0,0,0,,4.0,29.790354,,,TRUE,TRUE,,,,,,-RA BR,FEW,1400,BKN,4300,OVC,5000,,,MVFR,,,,,,0.02,,,,,,METAR,8.0
LFPM 280700Z AUTO 02008KT 350V080 CAVOK 05/03 Q1009,LFPM,2018-10-28T07:00:00Z,48.62,2.67,5.0,3.0,20,8,,6.21,29.793306,,,TRUE,,,,,,,,CAVOK,,,,,,,,VFR,,,,,,,,,,,,METAR,92.0
LFPT 280700Z AUTO 05010KT 4700 BR BKN011 BKN064 04/03 Q1011,LFPT,2018-10-28T07:00:00Z,49.1,2.03,4.0,3.0,50,10,,2.92,29.852362,,,TRUE,,,,,,,BR,BKN,1100,BKN,6400,,,,,IFR,,,,,,,,,,,,METAR,99.0
LFRH 280700Z AUTO 01010KT 9999 -RA FEW032 BKN041 BKN050 05/04 Q1012 TEMPO 02015G25KT 3000 TSGS SCT015CB,LFRH,2018-10-28T07:00:00Z,47.77,-3.45,5.0,4.0,10,10,,6.21,29.88189,,,TRUE,,,,,,,-RA,FEW,3200,BKN,4100,BKN,5000,,,VFR,,,,,,,,,,,,METAR,44.0
LFRQ 280700Z AUTO 35010KT 9999 -RA FEW036/// SCT056/// BKN150/// ///TCU 05/03 Q1013 TEMPO 02015G25KT 3000 TSGS BKN015CB,LFRQ,2018-10-28T07:00:00Z,47.97,-4.17,5.0,3.0,350,10,,6.21,29.911417,,,TRUE,,,,,,,-RA,FEW,3600,SCT,5600,BKN,15000,,,VFR,,,,,,,,,,,,METAR,94.0
LFSD 280700Z AUTO 02015KT 9999 FEW045 BKN076 OVC130 06/02 Q1002,LFSD,2018-10-28T07:00:00Z,47.27,5.07,6.0,2.0,20,15,,6.21,29.586615,,,TRUE,,,,,,,,FEW,4500,BKN,7600,OVC,13000,,,VFR,,,,,,,,,,,,METAR,227.0
LFRT 280700Z AUTO 05015KT 9999 BKN021/// BKN028/// OVC035/// ///CB 08/05 Q1012,LFRT,2018-10-28T07:00:00Z,48.52,-2.85,8.0,5.0,50,15,,6.21,29.88189,,,TRUE,,,,,,,,BKN,2100,BKN,2800,OVC,3500,,,MVFR,,,,,,,,,,,,METAR,136.0
VOBG 280700Z 04010KT CAVOK 28/09 Q1016,VOBG,2018-10-28T07:00:00Z,12.95,77.63,28.0,9.0,40,10,,6.21,30.0,,,,,,,,,,,CAVOK,,,,,,,,VFR,,,,,,,,,,,,METAR,897.0
VEPT 280700Z 06004KT 4500 HZ SCT018 32/21 Q1014 BECMG 5000 HZ,VEPT,2018-10-28T07:00:00Z,25.6,85.08,32.0,21.0,60,4,,2.8,29.940945,,,,,,,,,,HZ,SCT,1800,,,,,,,IFR,,,,,,,,,,,,METAR,60.0
VIJP 280700Z 10004KT 3000 HZ NSC 31/09 Q1018 NOSIG,VIJP,2018-10-28T07:00:00Z,26.82,75.78,31.0,9.0,100,4,,1.86,30.059055,,,,,,TRUE,,,,HZ,CLR,,,,,,,,IFR,,,,,,,,,,,,METAR,390.0
VOMD 280700Z 07007KT 6000 FEW018 SCT100 34/21 Q1011 NOSIG,VOMD,2018-10-28T07:00:00Z,9.82,78.07,34.0,21.0,70,7,,3.73,29.852362,,,,,,TRUE,,,,,FEW,1800,SCT,10000,,,,,MVFR,,,,,,,,,,,,METAR,131.0
VOPC 280700Z 06008KT 6000 SCT020 30/23 Q1011 NOSIG,VOPC,2018-10-28T07:00:00Z,11.97,79.82,30.0,23.0,60,8,,3.73,29.852362,,,,,,TRUE,,,,,SCT,2000,,,,,,,MVFR,,,,,,,,,,,,METAR,36.0
VORY 280700Z VRB03KT 8000 NSC 31/17 Q1012 NOSIG,VORY,2018-10-28T07:00:00Z,17.1,81.82,31.0,17.0,0,3,,4.97,29.88189,,,,,,TRUE,,,,,CLR,,,,,,,,MVFR,,,,,,,,,,,,METAR,46.0
VOTV 280700Z 28006KT 6000 FEW015 31/24 Q1009 NOSIG,VOTV,2018-10-28T07:00:00Z,8.47,76.95,31.0,24.0,280,6,,3.73,29.793306,,,,,,TRUE,,,,,FEW,1500,,,,,,,MVFR,,,,,,,,,,,,METAR,8.0
VOTP 280700Z 05010G20KT 6000 FEW020 33/18 Q1011,VOTP,2018-10-28T07:00:00Z,13.63,79.55,33.0,18.0,50,10,20,3.73,29.852362,,,,,,,,,,,FEW,2000,,,,,,,MVFR,,,,,,,,,,,,METAR,107.0
VOCL 280700Z 09005KT 6000 FEW015 33/18 Q1010 NOSIG,VOCL,2018-10-28T07:00:00Z,11.13,75.95,33.0,18.0,90,5,,3.73,29.822834,,,,,,TRUE,,,,,FEW,1500,,,,,,,MVFR,,,,,,,,,,,,METAR,104.0
VOBZ 280700Z 12003KT 6000 NSC 32/19 Q1011 NOSIG,VOBZ,2018-10-28T07:00:00Z,16.52,80.78,32.0,19.0,120,3,,3.73,29.852362,,,,,,TRUE,,,,,CLR,,,,,,,,MVFR,,,,,,,,,,,,METAR,24.0
VEGT 280700Z 32004KT 3000 HZ SCT018 BKN100 29/24 Q1014 NOSIG,VEGT,2018-10-28T07:00:00Z,26.1,91.58,29.0,24.0,320,4,,1.86,29.940945,,,,,,TRUE,,,,HZ,SCT,1800,BKN,10000,,,,,IFR,,,,,,,,,,,,METAR,54.0
LFSO 280700Z AUTO 03010KT 350V060 9999 OVC018 05/02 Q1007,LFSO,2018-10-28T07:00:00Z,48.57,5.97,5.0,2.0,30,10,,6.21,29.734253,,,TRUE,,,,,,,,OVC,1800,,,,,,,MVFR,,,,,,,,,,,,METAR,350.0
LFSI 280700Z AUTO 03009KT 9000 NSC 05/02 Q1007,LFSI,2018-10-28T07:00:00Z,48.62,4.9,5.0,2.0,30,9,,5.59,29.734253,,,TRUE,,,,,,,,CLR,,,,,,,,VFR,,,,,,,,,,,,METAR,140.0
LFSX 280700Z AUTO 01010KT 9999 OVC041 06/03 Q1003,LFSX,2018-10-28T07:00:00Z,47.77,6.33,6.0,3.0,10,10,,6.21,29.616142,,,TRUE,,,,,,,,OVC,4100,,,,,,,VFR,,,,,,,,,,,,METAR,273.0
LFYR 280700Z AUTO 02006KT 330V080 9999 -RA OVC012 05/02 Q1006,LFYR,2018-10-28T07:00:00Z,47.32,1.67,5.0,2.0,20,6,,6.21,29.704725,,,TRUE,,,,,,,-RA,OVC,1200,,,,,,,MVFR,,,,,,,,,,,,METAR,86.0
LFBO 280700Z AUTO 28011KT 9999 -RA BKN034 BKN044 OVC052 05/03 Q1002 TEMPO 4000 -RA BKN012 OVC025,LFBO,2018-10-28T07:00:00Z,43.62,1.37,5.0,3.0,280,11,,6.21,29.586615,,,TRUE,,,,,,,-RA,BKN,3400,BKN,4400,OVC,5200,,,VFR,,,,,,,,,,,,METAR,153.0
LFBL 280700Z AUTO 02008KT 340V040 9999 OVC008 02/01 Q1002 TEMPO OVC003,LFBL,2018-10-28T07:00:00Z,45.87,1.17,2.0,1.0,20,8,,6.21,29.586615,,,TRUE,,,,,,,,OVC,800,,,,,,,IFR,,,,,,,,,,,,METAR,402.0
LFBI 280700Z AUTO 01011KT 9999 OVC007 04/03 Q1006 BECMG OVC012,LFBI,2018-10-28T07:00:00Z,46.57,0.32,4.0,3.0,10,11,,6.21,29.704725,,,TRUE,,,,,,,,OVC,700,,,,,,,IFR,,,,,,,,,,,,SPECI,120.0
YPGV 280700Z AUTO 06011KT 9999 // BKN024 30/22 Q1007,YPGV,2018-10-28T07:00:00Z,-12.27,136.82,30.0,22.0,60,11,,6.21,29.734253,,,TRUE,,,,,,,,BKN,2400,,,,,,,MVFR,,,,,,,,,,,,SPECI,55.0
YFRT 280700Z AUTO 10018KT 9999 // SCT044 OVC076 24/14 Q1016,YFRT,2018-10-28T07:00:00Z,-30.83,128.12,24.0,14.0,100,18,,6.21,30.0,,,TRUE,,,,,,,,SCT,4400,OVC,7600,,,,,VFR,,,,,,,,,,,,METAR,156.0
YCIN 280700Z AUTO 21011KT 200V280 9999 // NCD 39/10 Q1004,YCIN,2018-10-28T07:00:00Z,-17.58,123.83,39.0,10.0,210,11,,6.21,29.64567,,,TRUE,,,,,,,,CLR,,,,,,,,VFR,,,,,,,,,,,,SPECI,91.0
DXNG 280700Z 00000KT CAVOK 25/22 Q1016 NOSIG,DXNG,2018-10-28T07:00:00Z,9.77,1.1,25.0,22.0,0,0,,6.21,30.0,,,,,,TRUE,,,,,CAVOK,,,,,,,,VFR,,,,,,,,,,,,METAR,343.0
DXXX 280700Z VRB02KT 8000 FEW012 27/25 Q1013 NOSIG,DXXX,2018-10-28T07:00:00Z,6.17,1.25,27.0,25.0,0,2,,4.97,29.911417,,,,,,TRUE,,,,,FEW,1200,,,,,,,MVFR,,,,,,,,,,,,METAR,25.0
DFFD 280700Z 35002KT CAVOK 27/23 Q1013 NOSIG,DFFD,2018-10-28T07:00:00Z,12.33,-1.52,27.0,23.0,350,2,,6.21,29.911417,,,,,,TRUE,,,,,CAVOK,,,,,,,,VFR,,,,,,,,,,,,METAR,306.0
DFOO 280700Z 00000KT CAVOK 25/23 Q1014,DFOO,2018-10-28T07:00:00Z,11.17,-4.32,25.0,23.0,0,0,,6.21,29.940945,,,,,,,,,,,CAVOK,,,,,,,,VFR,,,,,,,,,,,,METAR,460.0
FTTA 280700Z 18006KT CAVOK 26/21 Q1015,FTTA,2018-10-28T07:00:00Z,9.15,18.37,26.0,21.0,180,6,,6.21,29.970472,,,,,,,,,,,CAVOK,,,,,,,,VFR,,,,,,,,,,,,METAR,365.0
FTTD 280700Z 14006KT 9999 FEW040 28/24 Q1014,FTTD,2018-10-28T07:00:00Z,8.62,16.07,28.0,24.0,140,6,,6.21,29.940945,,,,,,,,,,,FEW,4000,,,,,,,VFR,,,,,,,,,,,,METAR,422.0
FTTY 280700Z 04008KT CAVOK 30/10 Q1017,FTTY,2018-10-28T07:00:00Z,18.0,19.17,30.0,10.0,40,8,,6.21,30.029528,,,,,,,,,,,CAVOK,,,,,,,,VFR,,,,,,,,,,,,METAR,234.0
FTTJ 280700Z VRB02KT 6000 NSC 31/23 Q1011 NOSIG,FTTJ,2018-10-28T07:00:00Z,12.12,15.02,31.0,23.0,0,2,,3.73,29.852362,,,,,,TRUE,,,,,CLR,,,,,,,,MVFR,,,,,,,,,,,,METAR,295.0
DBBB 280700Z VRB03KT 9999 SCT011 27/25 Q1012 NOSIG,DBBB,2018-10-28T07:00:00Z,6.33,2.37,27.0,25.0,0,3,,6.21,29.88189,,,,,,TRUE,,,,,SCT,1100,,,,,,,VFR,,,,,,,,,,,,METAR,9.0
DNKN 280700Z 29003KT 8000 NSC 27/19 Q1016 NOSIG,DNKN,2018-10-28T07:00:00Z,12.05,8.52,27.0,19.0,290,3,,4.97,30.0,,,,,,TRUE,,,,,CLR,,,,,,,,MVFR,,,,,,,,,,,,METAR,481.0
DNMM 280700Z 33004KT 3000 HZ FEW010 FEW020CB 26/25 Q1014 TEMPO TS,DNMM,2018-10-28T07:00:00Z,6.57,3.32,26.0,25.0,330,4,,1.86,29.940945,,,,,,,,,,HZ,FEW,1000,FEW,2000,,,,,IFR,,,,,,,,,,,,SPECI,38.0
DNEN 280700Z 31006KT 9999 FEW010 26/24 Q1013 NOSIG,DNEN,2018-10-28T07:00:00Z,6.47,7.53,26.0,24.0,310,6,,6.21,29.911417,,,,,,TRUE,,,,,FEW,1000,,,,,,,VFR,,,,,,,,,,,,METAR,137.0
DNAA 280700Z VRB01KT 9999 FEW007 26/21 Q1014 NOSIG,DNAA,2018-10-28T07:00:00Z,9.0,7.27,26.0,21.0,0,1,,6.21,29.940945,,,,,,TRUE,,,,,FEW,700,,,,,,,VFR,,,,,,,,,,,,METAR,344.0
DGAA 280700Z 28007KT 8000 NSC 26/25 Q1012 NOSIG,DGAA,2018-10-28T07:00:00Z,5.58,-0.17,26.0,25.0,280,7,,4.97,29.88189,,,,,,TRUE,,,,,CLR,,,,,,,,MVFR,,,,,,,,,,,,METAR,69.0
DRZA 280700Z 00000KT CAVOK 26/22 Q1015,DRZA,2018-10-28T07:00:00Z,16.97,8.0,26.0,22.0,0,0,,6.21,29.970472,,,,,,,,,,,CAVOK,,,,,,,,VFR,,,,,,,,,,,,METAR,502.0
CWRK 280700Z AUTO 02004KT M01/M01 RMK AO1 2PAST HR SOG 04 6020 SLP085 P0001 T10081013 50002,CWRK,2018-10-28T07:00:00Z,45.07,-77.87,-0.8,-1.3,20,4,,,,1008.5,,TRUE,TRUE,,,,,,,,,,,,,,,,0.2,,,,,0.01,,,,,,METAR,331.0
CWRJ 280700Z AUTO 25005KT M06/M08 RMK AO1 SOG 01 1010 SLP168 T10561078,CWRJ,2018-10-28T07:00:00Z,51.57,-107.92,-5.6,-7.8,250,5,,,,1016.8,,TRUE,TRUE,,,,,,,,,,,,,,,,,,,,,,,,,,,METAR,586.0
CWQV 280700Z AUTO 09022G29KT 01/M05 RMK AO1 PK WND 09029/0653 T00141050,CWQV,2018-10-28T07:00:00Z,48.27,-70.12,1.4,-5.0,90,22,29,,,,,TRUE,TRUE,,,,,,,,,,,,,,,,,,,,,,,,,,,METAR,1.0
DRRN 280700Z 06004KT 4000 R09/1400N NSC 30/19 Q1012 BECMG 6000 NSW,DRRN,2018-10-28T07:00:00Z,13.47,2.17,30.0,19.0,60,4,,2.49,29.88189,,,,,,,,,,,CLR,,,,,,,,IFR,,,,,,,,,,,,SPECI,227.0
AYMH 280700Z VRB04KT 9999 BKN030 BKN050 19/16 Q1016 RMKS/ SHRA IN AREA,AYMH,2018-10-28T07:00:00Z,-5.83,144.3,19.0,16.0,0,4,,6.21,30.0,,,,,,,,,,,BKN,3000,BKN,5000,,,,,MVFR,,,,,,,,,,,,METAR,1642.0
AYPY 280700Z 31006KT 9999 FEW025 27/23 Q1007,AYPY,2018-10-28T07:00:00Z,-9.42,147.22,27.0,23.0,310,6,,6.21,29.734253,,,,,,,,,,,FEW,2500,,,,,,,VFR,,,,,,,,,,,,METAR,47.0
YLHI 280700Z AUTO 22013KT 9999 // SCT048 SCT054 19/11 Q1011,YLHI,2018-10-28T07:00:00Z,-31.53,159.07,19.0,11.0,220,13,,6.21,29.852362,,,TRUE,,,,,,,,SCT,4800,SCT,5400,,,,,VFR,,,,,,,,,,,,METAR,2.0
YCFS 280700Z AUTO 17014KT 9999 // BKN029 BKN034 OVC040 20/15 Q1015,YCFS,2018-10-28T07:00:00Z,-30.32,153.12,20.0,15.0,170,14,,6.21,29.970472,,,TRUE,,,,,,,,BKN,2900,BKN,3400,OVC,4000,,,MVFR,,,,,,,,,,,,METAR,5.0
YBRK 280700Z AUTO 01009KT 9999 // NCD 35/19 Q1006,YBRK,2018-10-28T07:00:00Z,-23.37,150.47,35.0,19.0,10,9,,6.21,29.704725,,,TRUE,,,,,,,,CLR,,,,,,,,VFR,,,,,,,,,,,,SPECI,14.0
YSNF 280700Z AUTO 28015KT 9999 // SCT032 SCT038 19/15 Q1008,YSNF,2018-10-28T07:00:00Z,-29.02,167.92,19.0,15.0,280,15,,6.21,29.763779,,,TRUE,,,,,,,,SCT,3200,SCT,3800,,,,,VFR,,,,,,,,,,,,METAR,109.0
YMLT 280700Z AUTO 33015KT 9999 // NCD 12/03 Q1015,YMLT,2018-10-28T07:00:00Z,-41.52,147.18,12.0,3.0,330,15,,6.21,29.970472,,,TRUE,,,,,,,,CLR,,,,,,,,VFR,,,,,,,,,,,,METAR,178.0
YMHB 280700Z 14007KT CAVOK 13/03 Q1015,YMHB,2018-10-28T07:00:00Z,-42.82,147.52,13.0,3.0,140,7,,6.21,29.970472,,,,,,,,,,,CAVOK,,,,,,,,VFR,,,,,,,,,,,,METAR,27.0
YRMD 280700Z AUTO 23008KT 200V280 9999 // NCD 41/07 Q1005,YRMD,2018-10-28T07:00:00Z,-20.7,143.12,41.0,7.0,230,8,,6.21,29.675198,,,TRUE,,,,,,,,CLR,,,,,,,,VFR,,,,,,,,,,,,METAR,207.0
YBRM 280700Z AUTO 26013KT 9999 // NCD 30/21 Q1007,YBRM,2018-10-28T07:00:00Z,-17.93,122.22,30.0,21.0,260,13,,6.21,29.734253,,,TRUE,,,,,,,,CLR,,,,,,,,VFR,,,,,,,,,,,,SPECI,9.0
YPKG 280700Z AUTO 12009KT 9999 // NCD 26/12 Q1016,YPKG,2018-10-28T07:00:00Z,-30.77,121.45,26.0,12.0,120,9,,6.21,30.0,,,TRUE,,,,,,,,CLR,,,,,,,,VFR,,,,,,,,,,,,SPECI,360.0
YSCB 280700Z AUTO 02008KT 350V050 9999 // NCD 22/M01 Q1014,YSCB,2018-10-28T07:00:00Z,-35.28,149.17,22.0,-1.0,20,8,,6.21,29.940945,,,TRUE,,,,,,,,CLR,,,,,,,,VFR,,,,,,,,,,,,METAR,577.0
YBMA 280700Z AUTO 27009KT 200V270 9999 // NCD 38/05 Q1008,YBMA,2018-10-28T07:00:00Z,-20.67,139.47,38.0,5.0,270,9,,6.21,29.763779,,,TRUE,,,,,,,,CLR,,,,,,,,VFR,,,,,,,,,,,,SPECI,344.0
YBHM 280700Z AUTO 33021KT 9999 // NCD 27/22 Q1008,YBHM,2018-10-28T07:00:00Z,-20.35,148.95,27.0,22.0,330,21,,6.21,29.763779,,,TRUE,,,,,,,,CLR,,,,,,,,VFR,,,,,,,,,,,,SPECI,5.0
VOHY 280700Z 07009KT 6000 NSC 31/13 Q1017 NOSIG,VOHY,2018-10-28T07:00:00Z,17.45,78.45,31.0,13.0,70,9,,3.73,30.029528,,,,,,TRUE,,,,,CLR,,,,,,,,MVFR,,,,,,,,,,,,METAR,545.0
ULAA 280700Z 36002MPS 9999 FEW020 M02/M03 Q1012 R26/CLRD70 NOSIG RMK QFE757/1010,ULAA,2018-10-28T07:00:00Z,64.6,40.72,-2.0,-3.0,360,4,,6.21,29.88189,,,,,,TRUE,,,,,FEW,2000,,,,,,,VFR,,,,,,,,,,,,METAR,19.0
UEEE 280700Z 18001MPS CAVOK M11/M12 Q1027 R23L/450157 NOSIG RMK QFE761,UEEE,2018-10-28T07:00:00Z,62.08,129.77,-11.0,-12.0,180,2,,6.21,30.324802,,,,,,TRUE,,,,,CAVOK,,,,,,,,VFR,,,,,,,,,,,,METAR,103.0
HSNN 280700Z 01017KT CAVOK 29/09 Q1015,HSNN,2018-10-28T07:00:00Z,12.05,24.97,29.0,9.0,10,17,,6.21,29.970472,,,,,,,,,,,CAVOK,,,,,,,,VFR,,,,,,,,,,,,METAR,658.0
HSOB 280700Z 34016KT 9999 BKN030 30/23 Q1014,HSOB,2018-10-28T07:00:00Z,13.17,30.22,30.0,23.0,340,16,,6.21,29.940945,,,,,,,,,,,BKN,3000,,,,,,,MVFR,,,,,,,,,,,,METAR,574.0
FDSK 280700Z 10003KT 9999 SCT030 22/15 Q1024 NOSIG,FDSK,2018-10-28T07:00:00Z,-26.35,31.72,22.0,15.0,100,3,,6.21,30.236221,,,,,,TRUE,,,,,SCT,3000,,,,,,,VFR,,,,,,,,,,,,METAR,324.0
GGOV 280700Z 00000KT CAVOK 24/23 Q1012 NOSIG,GGOV,2018-10-28T07:00:00Z,11.87,-15.65,24.0,23.0,0,0,,6.21,29.88189,,,,,,TRUE,,,,,CAVOK,,,,,,,,VFR,,,,,,,,,,,,METAR,36.0
OEYN 280700Z 00000KT 4000 HZ NSC 30/18 Q1013 NOSIG,OEYN,2018-10-28T07:00:00Z,24.13,38.07,30.0,18.0,0,0,,2.49,29.911417,,,,,,TRUE,,,,HZ,CLR,,,,,,,,IFR,,,,,,,,,,,,METAR,8.0
OEWJ 280700Z 05008KT CAVOK 31/16 Q1015 NOSIG,OEWJ,2018-10-28T07:00:00Z,26.18,36.47,31.0,16.0,50,8,,6.21,29.970472,,,,,,TRUE,,,,,CAVOK,,,,,,,,VFR,,,,,,,,,,,,METAR,16.0
OEWD 280700Z 07012KT 2000 DU SKC 29/15 Q1019 NOSIG,OEWD,2018-10-28T07:00:00Z,20.5,45.2,29.0,15.0,70,12,,1.24,30.088583,,,,,,TRUE,,,,DU,SKC,,,,,,,,IFR,,,,,,,,,,,,METAR,617.0
OETR 280700Z 08008KT CAVOK 15/06 Q1027,OETR,2018-10-28T07:00:00Z,31.7,38.73,15.0,6.0,80,8,,6.21,30.324802,,,,,,,,,,,CAVOK,,,,,,,,VFR,,,,,,,,,,,,METAR,855.0
OETF 280700Z 10008KT 2500 HZ NSC 22/13 Q1025 NOSIG,OETF,2018-10-28T07:00:00Z,21.47,40.53,22.0,13.0,100,8,,1.55,30.265747,,,,,,TRUE,,,,HZ,CLR,,,,,,,,IFR,,,,,,,,,,,,METAR,1449.0
OETB 280700Z 08012KT 5000 BLDU NSC 18/04 Q1024 NOSIG,OETB,2018-10-28T07:00:00Z,28.37,36.62,18.0,4.0,80,12,,3.11,30.236221,,,,,,TRUE,,,,BLDU,CLR,,,,,,,,MVFR,,,,,,,,,,,,METAR,770.0
OESK 280700Z 07006KT CAVOK 17/02 Q1029,OESK,2018-10-28T07:00:00Z,29.77,40.1,17.0,2.0,70,6,,6.21,30.383858,,,,,,,,,,,CAVOK,,,,,,,,VFR,,,,,,,,,,,,METAR,684.0
OESH 280700Z 19008KT CAVOK 31/09 Q1019 NOSIG,OESH,2018-10-28T07:00:00Z,17.47,47.12,31.0,9.0,190,8,,6.21,30.088583,,,,,,TRUE,,,,,CAVOK,,,,,,,,VFR,,,,,,,,,,,,METAR,722.0
OERR 280700Z 36008KT CAVOK 17/13 Q1026 NOSIG,OERR,2018-10-28T07:00:00Z,30.88,41.12,17.0,13.0,360,8,,6.21,30.295275,,,,,,TRUE,,,,,CAVOK,,,,,,,,VFR,,,,,,,,,,,,METAR,552.0
OERF 280700Z 31005KT CAVOK 18/M01 Q1025,OERF,2018-10-28T07:00:00Z,29.62,43.47,18.0,-1.0,310,5,,6.21,30.265747,,,,,,,,,,,CAVOK,,,,,,,,VFR,,,,,,,,,,,,METAR,447.0
OEPA 280700Z 35012KT 9999 FEW035 22/11 Q1023 NOSIG,OEPA,2018-10-28T07:00:00Z,28.32,46.12,22.0,11.0,350,12,,6.21,30.206694,,,,,,TRUE,,,,,FEW,3500,,,,,,,VFR,,,,,,,,,,,,METAR,355.0
OENG 280700Z 00000KT CAVOK 29/05 Q1022 NOSIG,OENG,2018-10-28T07:00:00Z,17.62,44.42,29.0,5.0,0,0,,6.21,30.177166,,,,,,TRUE,,,,,CAVOK,,,,,,,,VFR,,,,,,,,,,,,METAR,1203.0
OEKM 280700Z 14004KT 9999 FEW025 24/03 Q1027 NOSIG,OEKM,2018-10-28T07:00:00Z,18.3,42.78,24.0,3.0,140,4,,6.21,30.324802,,,,,,TRUE,,,,,FEW,2500,,,,,,,VFR,,,,,,,,,,,,METAR,2054.0
VTUL 280700Z VRB03KT 9999 SCT030 32/23 Q1014 NOSIG,VTUL,2018-10-28T07:00:00Z,17.43,101.72,32.0,23.0,0,3,,6.21,29.940945,,,,,,TRUE,,,,,SCT,3000,,,,,,,VFR,,,,,,,,,,,,METAR,254.0
WMKC 280700Z 08007KT 040V140 9999 FEW017CB BKN280 31/25 Q1009,WMKC,2018-10-28T07:00:00Z,6.17,102.27,31.0,25.0,80,7,,6.21,29.793306,,,,,,,,,,,FEW,1700,BKN,28000,,,,,VFR,,,,,,,,,,,,METAR,5.0
WMKN 280700Z 02007KT 340V070 9999 FEW016CB SCT018 BKN300 32/25 Q1009,WMKN,2018-10-28T07:00:00Z,5.37,103.08,32.0,25.0,20,7,,6.21,29.793306,,,,,,,,,,,FEW,1600,SCT,1800,BKN,30000,,,VFR,,,,,,,,,,,,METAR,6.0
WMKL 280700Z 14005KT 070V240 9999 FEW022 SCT140 BKN280 33/24 Q1009,WMKL,2018-10-28T07:00:00Z,6.32,99.72,33.0,24.0,140,5,,6.21,29.793306,,,,,,,,,,,FEW,2200,SCT,14000,BKN,28000,,,VFR,,,,,,,,,,,,METAR,7.0
WMKI 280700Z 25010KT 9999 FEW017CB SCT020 BKN280 30/24 Q1009,WMKI,2018-10-28T07:00:00Z,4.57,101.08,30.0,24.0,250,10,,6.21,29.793306,,,,,,,,,,,FEW,1700,SCT,2000,BKN,28000,,,VFR,,,,,,,,,,,,METAR,39.0
WMKE 280700Z 05008KT 010V120 9999 FEW014 FEW015CB BKN260 31/24 Q1008,WMKE,2018-10-28T07:00:00Z,4.53,103.43,31.0,24.0,50,8,,6.21,29.763779,,,,,,,,,,,FEW,1400,FEW,1500,BKN,26000,,,VFR,,,,,,,,,,,,METAR,5.0
WMKD 280700Z VRB06KT 9999 SCT018 BKN280 33/26 Q1008 NOSIG,WMKD,2018-10-28T07:00:00Z,3.77,103.22,33.0,26.0,0,6,,6.21,29.763779,,,,,,TRUE,,,,,SCT,1800,BKN,28000,,,,,VFR,,,,,,,,,,,,METAR,16.0
WMKB 280700Z VRB03KT 9000 FEW017CB SCT140 BKN270 30/25 Q1009 NOSIG,WMKB,2018-10-28T07:00:00Z,5.47,100.37,30.0,25.0,0,3,,5.59,29.793306,,,,,,TRUE,,,,,FEW,1700,SCT,14000,BKN,27000,,,VFR,,,,,,,,,,,,METAR,4.0
WMKA 280700Z 18005KT 120V260 9999 TS FEW017CB SCT020 BKN280 28/25 Q1009,WMKA,2018-10-28T07:00:00Z,6.2,100.4,28.0,25.0,180,5,,6.21,29.793306,,,,,,,,,,TS,FEW,1700,SCT,2000,BKN,28000,,,VFR,,,,,,,,,,,,METAR,5.0
LFBP 280700Z AUTO 28005KT 9999 BKN056 04/02 Q1004 NOSIG,LFBP,2018-10-28T07:00:00Z,43.37,-0.42,4.0,2.0,280,5,,6.21,29.64567,,,TRUE,,,TRUE,,,,,BKN,5600,,,,,,,VFR,,,,,,,,,,,,METAR,185.0
LFBT 280700Z AUTO 31006KT 6000 RA OVC009 03/02 Q1003 TEMPO 4000 -RA,LFBT,2018-10-28T07:00:00Z,43.17,0.0,3.0,2.0,310,6,,3.73,29.616142,,,TRUE,,,,,,,RA,OVC,900,,,,,,,IFR,,,,,,,,,,,,METAR,363.0
LFBZ 280700Z AUTO 00000KT CAVOK 05/02 Q1005 NOSIG,LFBZ,2018-10-28T07:00:00Z,43.47,-1.52,5.0,2.0,0,0,,6.21,29.675198,,,TRUE,,,TRUE,,,,,CAVOK,,,,,,,,VFR,,,,,,,,,,,,METAR,71.0
LFKB 280700Z AUTO 20004KT 120V260 9999 -RA BKN100/// BKN130/// BKN160/// ///CB 18/13 Q0997 TEMPO 16015G28KT TSRA,LFKB,2018-10-28T07:00:00Z,42.53,9.47,18.0,13.0,200,4,,6.21,29.438976,,,TRUE,,,,,,,-RA,BKN,10000,BKN,13000,BKN,16000,,,VFR,,,,,,,,,,,,METAR,12.0
LFLB 280700Z AUTO 35012KT 9999 RA FEW020/// SCT025/// BKN038/// ///TCU 06/03 Q1000 BECMG NSW OVC025,LFLB,2018-10-28T07:00:00Z,45.63,5.87,6.0,3.0,350,12,,6.21,29.52756,,,TRUE,,,,,,,RA,FEW,2000,SCT,2500,BKN,3800,,,VFR,,,,,,,,,,,,METAR,239.0
RJBE 280700Z 26013KT 9999 FEW040 18/06 Q1010,RJBE,2018-10-28T07:00:00Z,34.63,135.23,18.0,6.0,260,13,,6.21,29.822834,,,,,,,,,,,FEW,4000,,,,,,,VFR,,,,,,,,,,,,METAR,5.0
RJBD 280700Z 29007KT 250V320 9999 FEW035 18/07 Q1011,RJBD,2018-10-28T07:00:00Z,33.67,135.37,18.0,7.0,290,7,,6.21,29.852362,,,,,,,,,,,FEW,3500,,,,,,,VFR,,,,,,,,,,,,METAR,108.0
RJAF 280700Z 19009KT 170V230 9999 FEW060 16/04 Q1008,RJAF,2018-10-28T07:00:00Z,36.17,137.92,16.0,4.0,190,9,,6.21,29.763779,,,,,,,,,,,FEW,6000,,,,,,,VFR,,,,,,,,,,,,METAR,660.0
RORS 280700Z 03025KT 9999 BKN040 BKN/// 24/15 Q1013,RORS,2018-10-28T07:00:00Z,24.82,125.15,24.0,15.0,30,25,,6.21,29.911417,,,,,,,,,,,BKN,4000,,,,,,,VFR,,,,,,,,,,,,METAR,16.0
CXVN 280700Z AUTO 03007KT 04/02 RMK AO1 SLP078 T00380022 56009,CXVN,2018-10-28T07:00:00Z,43.18,-79.4,3.8,2.2,30,7,,,,1007.8,,TRUE,TRUE,,,,,,,,,,,,,,,,-0.9,,,,,,,,,,,METAR,79.0
CXTO 280700Z AUTO 02/01 RMK AO1 4PAST HR 8010 SLP085 P0002 T00210006 50004,CXTO,2018-10-28T07:00:00Z,43.67,-79.4,2.1,0.6,,,,,,1008.5,,TRUE,TRUE,,,,,,,,,,,,,,,,0.4,,,,,0.02,,,,,,METAR,113.0
CXTD 280700Z AUTO 09014G24KT 04/03 RMK AO1 2PAST HR PRESFR 8055 PK WND 07024/0658 SLP224 P0005 T00380028 50012,CXTD,2018-10-28T07:00:00Z,45.62,-61.68,3.8,2.8,90,14,24,,,1022.4,,TRUE,TRUE,,,,,,,,,,,,,,,,1.2,,,,,0.05,,,,,,METAR,68.0
CXRL 280700Z AUTO 26003KT 01/M01 RMK AO1 T00051010,CXRL,2018-10-28T07:00:00Z,54.5,-111.7,0.5,-1.0,260,3,,,,,,TRUE,TRUE,,,,,,,,,,,,,,,,,,,,,,,,,,,METAR,585.0
CXRB 280700Z AUTO 36001KT M19/M21 RMK AO1 SOG 02 3003 SLP138 T11921209,CXRB,2018-10-28T07:00:00Z,74.72,-94.98,-19.2,-20.9,360,1,,,,1013.8,,TRUE,TRUE,,,,,,,,,,,,,,,,,,,,,,,,,,,METAR,68.0
CXPC 280700Z AUTO 01/M01 RMK AO1 3PAST HR 6019 SLP092 P0001 T00061006 50003,CXPC,2018-10-28T07:00:00Z,45.35,-80.05,0.6,-0.6,,,,,,1009.2,,TRUE,TRUE,,,,,,,,,,,,,,,,0.3,,,,,0.01,,,,,,METAR,176.0
CXPA 280700Z AUTO 09003KT M04/M07 RMK AO1 T10431070,CXPA,2018-10-28T07:00:00Z,55.62,-118.3,-4.3,-7.0,90,3,,,,,,TRUE,TRUE,,,,,,,,,,,,,,,,,,,,,,,,,,,METAR,621.0
FYKT 280700Z 05005KT CAVOK 29/01 Q1022,FYKT,2018-10-28T07:00:00Z,-26.52,18.12,29.0,1.0,50,5,,6.21,30.177166,,,,,,,,,,,CAVOK,,,,,,,,VFR,,,,,,,,,,,,METAR,1061.0
FYGB 280700Z AUTO 04009KT //// // ////// 30/M00 Q1027,FYGB,2018-10-28T07:00:00Z,-22.5,18.97,30.0,0.0,40,9,,,30.324802,,,TRUE,,,,,,,,,,,,,,,,,,,,,,,,,,,,METAR,1442.0
VERC 280700Z 00000KT 4000 HZ SCT020 SCT025 27/11 Q1017 NOSIG,VERC,2018-10-28T07:00:00Z,23.32,85.32,27.0,11.0,0,0,,2.49,30.029528,,,,,,TRUE,,,,HZ,SCT,2000,SCT,2500,,,,,IFR,,,,,,,,,,,,METAR,652.0
YGLA 280700Z AUTO 03011KT 9999 // NCD 27/21 Q1008,YGLA,2018-10-28T07:00:00Z,-23.87,151.22,27.0,21.0,30,11,,6.21,29.763779,,,TRUE,,,,,,,,CLR,,,,,,,,VFR,,,,,,,,,,,,METAR,52.0
YGEL 280700Z AUTO 18018KT 9999 // NCD 28/13 Q1012,YGEL,2018-10-28T07:00:00Z,-28.8,114.7,28.0,13.0,180,18,,6.21,29.88189,,,TRUE,,,,,,,,CLR,,,,,,,,VFR,,,,,,,,,,,,METAR,37.0
YHID 280700Z AUTO 10013KT 9999 // SCT016 29/25 Q1007,YHID,2018-10-28T07:00:00Z,-10.58,142.3,29.0,25.0,100,13,,6.21,29.734253,,,TRUE,,,,,,,,SCT,1600,,,,,,,VFR,,,,,,,,,,,,METAR,13.0
YPJT 280700Z AUTO 23013KT 9999 // NCD 24/12 Q1015 RF00.0/000.0,YPJT,2018-10-28T07:00:00Z,-32.1,115.88,24.0,12.0,230,13,,6.21,29.970472,,,TRUE,,,,,,,,CLR,,,,,,,,VFR,,,,,,,,,,,,METAR,30.0
YSRI 280700Z AUTO 09010KT 9999 // BKN039 OVC045 18/10 Q1017,YSRI,2018-10-28T07:00:00Z,-33.6,150.77,18.0,10.0,90,10,,6.21,30.029528,,,TRUE,,,,,,,,BKN,3900,OVC,4500,,,,,VFR,,,,,,,,,,,,METAR,21.0
YPEA 280700Z AUTO 16006KT 100V230 9999 // NCD 30/08 Q1014,YPEA,2018-10-28T07:00:00Z,-31.67,116.02,30.0,8.0,160,6,,6.21,29.940945,,,TRUE,,,,,,,,CLR,,,,,,,,VFR,,,,,,,,,,,,METAR,49.0
YPWR 280700Z AUTO 14012KT 9999 // SCT100 25/10 Q1015,YPWR,2018-10-28T07:00:00Z,-31.12,136.82,25.0,10.0,140,12,,6.21,29.970472,,,TRUE,,,,,,,,SCT,10000,,,,,,,VFR,,,,,,,,,,,,METAR,167.0
YSDU 280700Z AUTO 10011KT 9999 // NCD 24/10 Q1013,YSDU,2018-10-28T07:00:00Z,-32.22,148.57,24.0,10.0,100,11,,6.21,29.911417,,,TRUE,,,,,,,,CLR,,,,,,,,VFR,,,,,,,,,,,,SPECI,275.0
"RPVM 280700Z 12005KT 060V160 9999 FEW018CB BKN100 29/23 Q1007 CB NW, SW, NE",RPVM,2018-10-28T07:00:00Z,10.32,123.98,29.0,23.0,120,5,,6.21,29.734253,,,,,,,,,,,FEW,1800,BKN,10000,,,,,VFR,,,,,,,,,,,,METAR,10.0
RPLL 280700Z 28010KT 9999 FEW025 BKN300 32/22 Q1006 NOSIG RMK A2971,RPLL,2018-10-28T07:00:00Z,14.52,121.0,32.0,22.0,280,10,,6.21,29.704725,,,,,,TRUE,,,,,FEW,2500,BKN,30000,,,,,VFR,,,,,,,,,,,,METAR,21.0
EIKN 280700Z 01004KT 9999 FEW020 03/01 Q1028 NOSIG,EIKN,2018-10-28T07:00:00Z,53.92,-8.82,3.0,1.0,10,4,,6.21,30.35433,,,,,,TRUE,,,,,FEW,2000,,,,,,,VFR,,,,,,,,,,,,METAR,64.0
EICK 280700Z 34012KT 9999 FEW019CB 01/M01 Q1026 NOSIG,EICK,2018-10-28T07:00:00Z,51.85,-8.47,1.0,-1.0,340,12,,6.21,30.295275,,,,,,TRUE,,,,,FEW,1900,,,,,,,VFR,,,,,,,,,,,,METAR,162.0
EIDW 280700Z 34007KT 9999 FEW017 SCT022 02/00 Q1027 NOSIG,EIDW,2018-10-28T07:00:00Z,53.42,-6.25,2.0,0.0,340,7,,6.21,30.324802,,,,,,TRUE,,,,,FEW,1700,SCT,2200,,,,,VFR,,,,,,,,,,,,METAR,85.0
SBKP 280700Z 13012KT 9999 SCT025 17/14 Q1012,SBKP,2018-10-28T07:00:00Z,-23.0,-47.12,17.0,14.0,130,12,,6.21,29.88189,,,,,,,,,,,SCT,2500,,,,,,,VFR,,,,,,,,,,,,METAR,661.0
LQTZ 280700Z VRB06G18KT 9999 SCT040 20/07 Q1010,LQTZ,2018-10-28T07:00:00Z,44.47,18.73,20.0,7.0,0,6,18,6.21,29.822834,,,,,,,,,,,SCT,4000,,,,,,,VFR,,,,,,,,,,,,METAR,306.0
LQSA 280700Z 16016KT 9999 -RA FEW010 BKN045 15/08 Q1013 WS ALL RWY NOSIG,LQSA,2018-10-28T07:00:00Z,43.82,18.32,15.0,8.0,160,16,,6.21,29.911417,,,,,,TRUE,,,,-RA,FEW,1000,BKN,4500,,,,,VFR,,,,,,,,,,,,METAR,511.0
LQMO 280700Z 15011KT 9999 FEW040 BKN060 17/14 Q1012,LQMO,2018-10-28T07:00:00Z,43.28,17.83,17.0,14.0,150,11,,6.21,29.88189,,,,,,,,,,,FEW,4000,BKN,6000,,,,,VFR,,,,,,,,,,,,METAR,48.0
LQBK 280700Z 17013KT 9999 FEW043 21/09 Q1007 NOSIG,LQBK,2018-10-28T07:00:00Z,44.93,17.3,21.0,9.0,170,13,,6.21,29.734253,,,,,,TRUE,,,,,FEW,4300,,,,,,,VFR,,,,,,,,,,,,METAR,122.0
BIRK 280700Z 18013KT 9999 VCSH FEW011 OVC021 08/06 Q1005,BIRK,2018-10-28T07:00:00Z,64.13,-21.93,8.0,6.0,180,13,,6.21,29.675198,,,,,,,,,,VCSH,FEW,1100,OVC,2100,,,,,MVFR,,,,,,,,,,,,METAR,61.0
BIKF 280700Z 21016KT 0800 R19/P1500N -DZ FG SCT002 BKN004 OVC018 07/07 Q1005 R88/CLRD//,BIKF,2018-10-28T07:00:00Z,63.98,-22.6,7.0,7.0,210,16,,0.5,29.675198,,,,,,,,,,-DZ FG,SCT,200,BKN,400,OVC,1800,,,LIFR,,,,,,,,,,,,METAR,54.0
BIEG 280700Z 21016KT 9999 VCSH SCT030 BKN040 03/01 Q1012 RERA R04/290095,BIEG,2018-10-28T07:00:00Z,65.27,-14.4,3.0,1.0,210,16,,6.21,29.88189,,,,,,,,,,VCSH,SCT,3000,BKN,4000,,,,,VFR,,,,,,,,,,,,METAR,38.0
BIAR 280700Z 18026G38KT CAVOK 05/M00 Q1006,BIAR,2018-10-28T07:00:00Z,65.67,-18.07,5.0,0.0,180,26,38,6.21,29.704725,,,,,,,,,,,CAVOK,,,,,,,,VFR,,,,,,,,,,,,METAR,27.0
LBIA 280700Z 10004KT 0100 FG VV000 14/14 Q1021,LBIA,2018-10-28T07:00:00Z,42.45,26.35,14.0,14.0,100,4,,0.06,30.147638,,,,,,,,,,FG,OVX,0,,,,,,,LIFR,,,,,,,,,,,0,METAR,155.0
LDRI 280700Z 15017G30KT 9999 SCT027 BKN050 20/14 Q1005,LDRI,2018-10-28T07:00:00Z,45.22,14.57,20.0,14.0,150,17,30,6.21,29.675198,,,,,,,,,,,SCT,2700,BKN,5000,,,,,VFR,,,,,,,,,,,,METAR,85.0
SKCG 280700Z VRB02KT 9999 FEW020 SCT200 27/26 A2980,SKCG,2018-10-28T07:00:00Z,10.43,-75.52,27.0,26.0,0,2,,6.21,29.799213,,,,,,,,,,,FEW,2000,SCT,20000,,,,,VFR,,,,,,,,,,,,METAR,1.0
OTHH 280700Z 31013KT 9999 FEW035 BKN120 28/17 Q1017 NOSIG,OTHH,2018-10-28T07:00:00Z,25.25,51.6,28.0,17.0,310,13,,6.21,30.029528,,,,,,TRUE,,,,,FEW,3500,BKN,12000,,,,,VFR,,,,,,,,,,,,METAR,0.0
OTBD 280700Z 30016KT 9999 FEW035 SCT 120 29/17 Q1017 NOSIG,OTBD,2018-10-28T07:00:00Z,25.25,51.57,29.0,17.0,300,16,,6.21,30.029528,,,,,,TRUE,,,,,FEW,3500,SCT,12000,,,,,VFR,,,,,,,,,,,,METAR,10.0
LZZI 280700Z 12003KT 9999 -RA FEW006 BKN049 OVC063 07/06 Q1008 RERA,LZZI,2018-10-28T07:00:00Z,49.23,18.62,7.0,6.0,120,3,,6.21,29.763779,,,,,,,,,,-RA,FEW,600,BKN,4900,OVC,6300,,,VFR,,,,,,,,,,,,METAR,311.0
LZSL 280700Z VRB02KT 9999 OVC057 11/10 Q1009,LZSL,2018-10-28T07:00:00Z,48.63,19.13,11.0,10.0,0,2,,6.21,29.793306,,,,,,,,,,,OVC,5700,,,,,,,VFR,,,,,,,,,,,,METAR,313.0
LZPP 280700Z 36006KT 9999 BKN045 OVC070 10/08 Q1006,LZPP,2018-10-28T07:00:00Z,48.62,17.83,10.0,8.0,360,6,,6.21,29.704725,,,,,,,,,,,BKN,4500,OVC,7000,,,,,VFR,,,,,,,,,,,,METAR,161.0
UKWW 280700Z 20004MPS CAVOK 13/07 Q1013 R13/0///65 NOSIG,UKWW,2018-10-28T07:00:00Z,49.25,28.6,13.0,7.0,200,8,,6.21,29.911417,,,,,,TRUE,,,,,CAVOK,,,,,,,,VFR,,,,,,,,,,,,METAR,293.0
UKOH 280700Z 19006MPS CAVOK 17/14 Q1019 R21/190065 NOSIG,UKOH,2018-10-28T07:00:00Z,46.67,32.5,17.0,14.0,190,12,,6.21,30.088583,,,,,,TRUE,,,,,CAVOK,,,,,,,,VFR,,,,,,,,,,,,METAR,45.0
UKLN 280700Z 08002MPS CAVOK 16/08 Q1013 R15/09//70 NOSIG,UKLN,2018-10-28T07:00:00Z,48.27,25.98,16.0,8.0,80,4,,6.21,29.911417,,,,,,TRUE,,,,,CAVOK,,,,,,,,VFR,,,,,,,,,,,,METAR,252.0
UKKM 280700Z 33002MPS 9999 BKN023 11/11 Q1014,UKKM,2018-10-28T07:00:00Z,50.6,30.2,11.0,11.0,330,4,,6.21,29.940945,,,,,,,,,,,BKN,2300,,,,,,,MVFR,,,,,,,,,,,,METAR,157.0
UKKK 280700Z 00000MPS 9000 NSC 11/09 Q1014 R26/CLRD70 NOSIG,UKKK,2018-10-28T07:00:00Z,50.4,30.45,11.0,9.0,0,0,,5.59,29.940945,,,,,,TRUE,,,,,CLR,,,,,,,,VFR,,,,,,,,,,,,METAR,179.0
VIDP 280700Z 29006KT 2000 HZ NSC 29/15 Q1017 NOSIG,VIDP,2018-10-28T07:00:00Z,28.57,77.12,29.0,15.0,290,6,,1.24,30.029528,,,,,,TRUE,,,,HZ,CLR,,,,,,,,IFR,,,,,,,,,,,,METAR,233.0
EPZG 280700Z 03007KT 360V060 9999 OVC012 05/04 Q1014,EPZG,2018-10-28T07:00:00Z,52.13,15.8,5.0,4.0,30,7,,6.21,29.940945,,,,,,,,,,,OVC,1200,,,,,,,MVFR,,,,,,,,,,,,METAR,59.0
EPWR 280700Z 04003KT 010V070 9999 -RA BKN020 05/03 Q1013,EPWR,2018-10-28T07:00:00Z,51.1,16.87,5.0,3.0,40,3,,6.21,29.911417,,,,,,,,,,-RA,BKN,2000,,,,,,,MVFR,,,,,,,,,,,,METAR,121.0
EPSC 280700Z 03004KT 350V060 CAVOK 04/03 Q1016,EPSC,2018-10-28T07:00:00Z,53.58,14.9,4.0,3.0,30,4,,6.21,30.0,,,,,,,,,,,CAVOK,,,,,,,,VFR,,,,,,,,,,,,METAR,47.0
EPRA 280700Z 03005KT 6000 -RA SCT019 OVC040 05/05 Q1014,EPRA,2018-10-28T07:00:00Z,51.38,21.22,5.0,5.0,30,5,,3.73,29.940945,,,,,,,,,,-RA,SCT,1900,OVC,4000,,,,,MVFR,,,,,,,,,,,,METAR,178.0
EPMO 280700Z VRB02KT CAVOK 04/03 Q1014,EPMO,2018-10-28T07:00:00Z,52.45,20.65,4.0,3.0,0,2,,6.21,29.940945,,,,,,,,,,,CAVOK,,,,,,,,VFR,,,,,,,,,,,,METAR,104.0
EPLB 280700Z VRB01KT 9000 -RA OVC048 05/05 Q1014,EPLB,2018-10-28T07:00:00Z,51.23,22.72,5.0,5.0,0,1,,5.59,29.940945,,,,,,,,,,-RA,OVC,4800,,,,,,,VFR,,,,,,,,,,,,METAR,206.0
EPKT 280700Z 06006KT 7000 -RA FEW003 OVC005 04/03 Q1012,EPKT,2018-10-28T07:00:00Z,50.47,19.08,4.0,3.0,60,6,,4.35,29.88189,,,,,,,,,,-RA,FEW,300,OVC,500,,,,,IFR,,,,,,,,,,,,METAR,284.0
EPBY 280700Z VRB02KT CAVOK 03/02 Q1015,EPBY,2018-10-28T07:00:00Z,53.1,18.0,3.0,2.0,0,2,,6.21,29.970472,,,,,,,,,,,CAVOK,,,,,,,,VFR,,,,,,,,,,,,METAR,71.0
EPWA 280700Z 33003KT CAVOK 06/03 Q1014 NOSIG,EPWA,2018-10-28T07:00:00Z,52.17,20.97,6.0,3.0,330,3,,6.21,29.940945,,,,,,TRUE,,,,,CAVOK,,,,,,,,VFR,,,,,,,,,,,,METAR,107.0
EPRZ 280700Z 06009KT 6000 -RA BKN005 OVC010 06/05 Q1012,EPRZ,2018-10-28T07:00:00Z,50.1,22.05,6.0,5.0,60,9,,3.73,29.88189,,,,,,,,,,-RA,BKN,500,OVC,1000,,,,,IFR,,,,,,,,,,,,METAR,202.0
EPPO 280700Z 07007KT 9999 BKN035 06/03 Q1014,EPPO,2018-10-28T07:00:00Z,52.42,16.82,6.0,3.0,70,7,,6.21,29.940945,,,,,,,,,,,BKN,3500,,,,,,,VFR,,,,,,,,,,,,METAR,92.0
EPLL 280700Z 05006KT 9999 -RA FEW013 BKN020 05/03 Q1014,EPLL,2018-10-28T07:00:00Z,51.72,19.4,5.0,3.0,50,6,,6.21,29.940945,,,,,,,,,,-RA,FEW,1300,BKN,2000,,,,,MVFR,,,,,,,,,,,,METAR,184.0
EPKK 280700Z 04012KT 9999 -RA BKN007 05/04 Q1012,EPKK,2018-10-28T07:00:00Z,50.07,19.8,5.0,4.0,40,12,,6.21,29.88189,,,,,,,,,,-RA,BKN,700,,,,,,,IFR,,,,,,,,,,,,METAR,237.0
EPGD 280700Z 36008KT 9999 -SHRA FEW016TCU SCT020 04/03 Q1015,EPGD,2018-10-28T07:00:00Z,54.37,18.47,4.0,3.0,360,8,,6.21,29.970472,,,,,,,,,,-SHRA,FEW,1600,SCT,2000,,,,,VFR,,,,,,,,,,,,METAR,138.0
FYWB 280700Z AUTO 02003KT //// // ////// 21/16 Q1017,FYWB,2018-10-28T07:00:00Z,-22.98,14.65,21.0,16.0,20,3,,,30.029528,,,TRUE,,,,,,,,,,,,,,,,,,,,,,,,,,,,SPECI,46.0
FYMP 280700Z /////KT CAVOK ///// Q////,FYMP,2018-10-28T07:00:00Z,,,,,,,,6.21,,,,,,,,,,,,CAVOK,,,,,,,,VFR,,,,,,,,,,,,METAR,
WSSL 280700Z 08010KT 6000 VCTS FEW015CB FEW016TCU BKN190 25/23 Q1009,WSSL,2018-10-28T07:00:00Z,1.42,103.87,25.0,23.0,80,10,,3.73,29.793306,,,,,,,,,,VCTS,FEW,1500,FEW,1600,BKN,19000,,,MVFR,,,,,,,,,,,,METAR,14.0
GMTT 280700Z 13005KT 5000 -RA SCT010 BKN020 FEW023CB 12/09 Q1003 NOSIG,GMTT,2018-10-28T07:00:00Z,35.72,-5.9,12.0,9.0,130,5,,3.11,29.616142,,,,,,TRUE,,,,-RA,SCT,1000,BKN,2000,FEW,2300,,,MVFR,,,,,,,,,,,,METAR,21.0
GMMX 280700Z 22009KT 8000 FEW013 BKN026 13/12 Q1012 NOSIG,GMMX,2018-10-28T07:00:00Z,31.62,-8.02,13.0,12.0,220,9,,4.97,29.88189,,,,,,TRUE,,,,,FEW,1300,BKN,2600,,,,,MVFR,,,,,,,,,,,,METAR,466.0
GMMN 280700Z 24017KT 9999 BKN016 13/13 Q1008 NOSIG,GMMN,2018-10-28T07:00:00Z,33.37,-7.57,13.0,13.0,240,17,,6.21,29.763779,,,,,,TRUE,,,,,BKN,1600,,,,,,,MVFR,,,,,,,,,,,,METAR,206.0
GMME 280700Z 31012G22KT 260V340 3500 RA SCT013TCU BKN016 13/11 Q1005 TEMPO SHRA,GMME,2018-10-28T07:00:00Z,34.03,-6.77,13.0,11.0,310,12,22,2.17,29.675198,,,,,,,,,,RA,SCT,1300,BKN,1600,,,,,IFR,,,,,,,,,,,,METAR,75.0
GMAD 280700Z 25003KT 9999 FEW033 SCT083 17/13 Q1011 NOSIG,GMAD,2018-10-28T07:00:00Z,30.32,-9.42,17.0,13.0,250,3,,6.21,29.852362,,,,,,TRUE,,,,,FEW,3300,SCT,8300,,,,,VFR,,,,,,,,,,,,METAR,74.0
GMFO 280700Z 21009KT 180V240 9999 FEW020 SCT040TCU 12/07 Q1004 NOSIG,GMFO,2018-10-28T07:00:00Z,34.77,-1.92,12.0,7.0,210,9,,6.21,29.64567,,,,,,TRUE,,,,,FEW,2000,SCT,4000,,,,,VFR,,,,,,,,,,,,METAR,470.0
GMTA 280700Z 30012KT 9999 SCT030 14/07 Q1003 NOSIG,GMTA,2018-10-28T07:00:00Z,35.17,-3.85,14.0,7.0,300,12,,6.21,29.616142,,,,,,TRUE,,,,,SCT,3000,,,,,,,VFR,,,,,,,,,,,,METAR,14.0
GMMZ 280700Z 26009KT 9999 BKN040 13/05 Q1008 NOSIG,GMMZ,2018-10-28T07:00:00Z,30.92,-6.9,13.0,5.0,260,9,,6.21,29.763779,,,,,,TRUE,,,,,BKN,4000,,,,,,,VFR,,,,,,,,,,,,METAR,1140.0
GMMW 280700Z VRB01KT 9999 FEW020 BKN100 12/09 Q1002 NOSIG,GMMW,2018-10-28T07:00:00Z,34.98,-3.02,12.0,9.0,0,1,,6.21,29.586615,,,,,,TRUE,,,,,FEW,2000,BKN,10000,,,,,VFR,,,,,,,,,,,,METAR,175.0
GMML 280700Z 29004KT 1200 BR SCT003 16/16 Q1016 TEMPO 0800 FG,GMML,2018-10-28T07:00:00Z,27.13,-13.23,16.0,16.0,290,4,,0.75,30.0,,,,,,,,,,BR,SCT,300,,,,,,,LIFR,,,,,,,,,,,,METAR,6.0
GMMH 280700Z 02009KT 6000 FEW010 BKN100 20/19 TEMPO 3000 BR,GMMH,2018-10-28T07:00:00Z,23.72,-15.93,20.0,19.0,20,9,,3.73,,,,,,,,,,,,FEW,1000,BKN,10000,,,,,MVFR,,,,,,,,,,,,METAR,11.0
GMMD 280700Z 20012KT 9999 BKN026TCU FEW030CB 12/09 Q1010 NOSIG,GMMD,2018-10-28T07:00:00Z,32.4,-6.32,12.0,9.0,200,12,,6.21,29.822834,,,,,,TRUE,,,,,BKN,2600,FEW,3000,,,,,MVFR,,,,,,,,,,,,METAR,509.0
GMMC 280700Z 30012KT 6000 BKN016TCU SCT026 FEW030 15/12 Q1007 RERA,GMMC,2018-10-28T07:00:00Z,33.57,-7.67,15.0,12.0,300,12,,3.73,29.734253,,,,,,,,,,,BKN,1600,SCT,2600,FEW,3000,,,MVFR,,,,,,,,,,,,METAR,62.0
GMFM 280700Z 25009KT 5000 -RA SCT013 BKN016 10/10 Q1005 NOSIG,GMFM,2018-10-28T07:00:00Z,33.87,-5.52,10.0,10.0,250,9,,3.11,29.675198,,,,,,TRUE,,,,-RA,SCT,1300,BKN,1600,,,,,MVFR,,,,,,,,,,,,METAR,549.0
GMFK 280700Z 09003KT 9999 SCT026 11/08 Q1006 NOSIG,GMFK,2018-10-28T07:00:00Z,31.95,-4.4,11.0,8.0,90,3,,6.21,29.704725,,,,,,TRUE,,,,,SCT,2600,,,,,,,VFR,,,,,,,,,,,,METAR,1045.0
GMFF 280700Z 25012KT 9999 RA SCT026 BKN080 11/09 Q1005 NOSIG,GMFF,2018-10-28T07:00:00Z,33.92,-4.97,11.0,9.0,250,12,,6.21,29.675198,,,,,,TRUE,,,,RA,SCT,2600,BKN,8000,,,,,VFR,,,,,,,,,,,,METAR,579.0
GMAT 280700Z 34008KT 9999 FEW013 SCT016 16/16 Q1014 NOSIG,GMAT,2018-10-28T07:00:00Z,28.43,-11.15,16.0,16.0,340,8,,6.21,29.940945,,,,,,TRUE,,,,,FEW,1300,SCT,1600,,,,,VFR,,,,,,,,,,,,METAR,200.0
NTAA 280700Z 08004KT 9999 FEW020 BKN053 26/22 Q1013 TEMPO 36015G25KT 3000 SHRA FEW008 SCT016 BKN040,NTAA,2018-10-28T07:00:00Z,-17.55,-149.62,26.0,22.0,80,4,,6.21,29.911417,,,,,,,,,,,FEW,2000,BKN,5300,,,,,VFR,,,,,,,,,,,,METAR,2.0
NGFU 280700Z VRB02KT 9999 FEW020 BKN300 30/25 Q1010,NGFU,2018-10-28T07:00:00Z,-8.52,179.22,30.0,25.0,0,2,,6.21,29.822834,,,,,,,,,,,FEW,2000,BKN,30000,,,,,VFR,,,,,,,,,,,,METAR,1.0
VIDN 280700Z 26006KT 6000 NSC 27/13 Q1018,VIDN,2018-10-28T07:00:00Z,30.2,78.18,27.0,13.0,260,6,,3.73,30.059055,,,,,,,,,,,CLR,,,,,,,,MVFR,,,,,,,,,,,,METAR,558.0
KHFD 280700Z AUTO 35007KT 3SM -RA BR OVC005 06/06 A2964 RMK AO2 P0000 T00610056,KHFD,2018-10-28T07:00:00Z,41.73,-72.65,6.1,5.6,350,7,,3.0,29.639763,,,TRUE,TRUE,,,,,,-RA BR,OVC,500,,,,,,,IFR,,,,,,0.005,,,,,,METAR,4.0
KGUY 280700Z AUTO 32014KT 10SM CLR 12/06 A3005 RMK AO2 WSHFT 0640 T01220056,KGUY,2018-10-28T07:00:00Z,36.68,-101.5,12.2,5.6,320,14,,10.0,30.050198,,,TRUE,TRUE,,,,,,,CLR,,,,,,,,VFR,,,,,,,,,,,,SPECI,948.0
KDXR 280700Z AUTO 36003KT 4SM BR OVC007 07/06 A2966 RMK AO2 RAE00 P0000 T00670061,KDXR,2018-10-28T07:00:00Z,41.37,-73.48,6.7,6.1,360,3,,4.0,29.660433,,,TRUE,TRUE,,,,,,BR,OVC,700,,,,,,,IFR,,,,,,0.005,,,,,,METAR,139.0
CYWK 280700Z AUTO 17007KT 9SM CLR M20/M22 A3035 RMK SLP329,CYWK,2018-10-28T07:00:00Z,52.92,-66.87,-20.0,-22.0,170,7,,9.0,30.351377,1032.9,,TRUE,,,,,,,,CLR,,,,,,,,VFR,,,,,,,,,,,,SPECI,551.0
CYUY 280700Z 03006KT 15SM BKN180 BKN210 M03/M07 A2992 RMK AS5CI2 SLP151,CYUY,2018-10-28T07:00:00Z,48.2,-78.82,-3.0,-7.0,30,6,,15.0,29.920275,1015.1,,,,,,,,,,BKN,18000,BKN,21000,,,,,VFR,,,,,,,,,,,,SPECI,301.0
CYQI 280700Z 16016G22KT 2SM -RA BR OVC003 14/14 A2972 RMK SF8 PRESFR SLP067 DENSITY ALT 400FT,CYQI,2018-10-28T07:00:00Z,43.83,-66.08,14.0,14.0,160,16,22,2.0,29.719488,1006.7,,,,,,,,,-RA BR,OVC,300,,,,,,,LIFR,,,,,,,,,,,,SPECI,43.0
CYNM 280700Z AUTO 10005KT 9SM OVC230 M05/M08 A3003 RMK SLP188,CYNM,2018-10-28T07:00:00Z,49.77,-77.82,-5.0,-8.0,100,5,,9.0,30.029528,1018.8,,TRUE,,,,,,,,OVC,23000,,,,,,,VFR,,,,,,,,,,,,SPECI,281.0
CYMT 280700Z AUTO 09010G15KT 9SM CLR M05/M11 A3008 RMK SLP213,CYMT,2018-10-28T07:00:00Z,49.77,-74.52,-5.0,-11.0,90,10,15,9.0,30.079725,1021.3,,TRUE,,,,,,,,CLR,,,,,,,,VFR,,,,,,,,,,,,SPECI,387.0
CYMH 280700Z AUTO VRB02KT 9SM CLR M06/M11 A3049 RMK SLP326,CYMH,2018-10-28T07:00:00Z,52.28,-55.85,-6.0,-11.0,0,2,,9.0,30.490158,1032.6,,TRUE,,,,,,,,CLR,,,,,,,,VFR,,,,,,,,,,,,SPECI,11.0
CYGV 280700Z AUTO 06007KT 9SM FEW250 M06/M08 A3051 RMK SLP337,CYGV,2018-10-28T07:00:00Z,50.27,-63.62,-6.0,-8.0,60,7,,9.0,30.510826,1033.7,,TRUE,,,,,,,,FEW,25000,,,,,,,VFR,,,,,,,,,,,,SPECI,33.0
CYBX 280700Z 27005KT 15SM SKC M05/M10 A3055 RMK SLP349,CYBX,2018-10-28T07:00:00Z,51.45,-57.17,-5.0,-10.0,270,5,,15.0,30.549213,1034.9,,,,,,,,,,SKC,,,,,,,,VFR,,,,,,,,,,,,SPECI,35.0
CYAH 280700Z AUTO 01002KT 9SM CLR M12/M13 A3028 RMK SLP282,CYAH,2018-10-28T07:00:00Z,53.75,-73.67,-12.0,-13.0,10,2,,9.0,30.280512,1028.2,,TRUE,,,,,,,,CLR,,,,,,,,VFR,,,,,,,,,,,,SPECI,306.0
MNMG 280700Z 00000KT 9999 FEW020 SCT300 24/23 Q1012 A2990 NOSIG,MNMG,2018-10-28T07:00:00Z,12.15,-86.17,24.0,23.0,0,0,,6.21,29.88189,,,,,,TRUE,,,,,FEW,2000,SCT,30000,,,,,VFR,,,,,,,,,,,,METAR,59.0
NZCH 280700Z AUTO 10005KT 9999 -RA FEW013/// BKN070/// OVC090/// 11/10 Q0997 TEMPO BKN020,NZCH,2018-10-28T07:00:00Z,-43.47,172.55,11.0,10.0,100,5,,6.21,29.438976,,,TRUE,,,,,,,-RA,FEW,1300,BKN,7000,OVC,9000,,,VFR,,,,,,,,,,,,METAR,34.0
NZWN 280700Z AUTO 36018KT 9999 SCT023/// 13/09 Q0998 NOSIG,NZWN,2018-10-28T07:00:00Z,-41.32,174.8,13.0,9.0,360,18,,6.21,29.468504,,,TRUE,,,TRUE,,,,,SCT,2300,,,,,,,VFR,,,,,,,,,,,,METAR,7.0
NZAA 280700Z AUTO 25008KT 9999 NCD 15/10 Q1000 NOSIG,NZAA,2018-10-28T07:00:00Z,-37.02,174.8,15.0,10.0,250,8,,6.21,29.52756,,,TRUE,,,TRUE,,,,,CLR,,,,,,,,VFR,,,,,,,,,,,,METAR,6.0
KONX 280700Z AUTO 10SM SCT039 11/11 A2981 RMK AO2 T01120108,KONX,2018-10-28T07:00:00Z,36.4,-76.02,11.2,10.8,,,,10.0,29.811024,,,TRUE,TRUE,,,,,,,SCT,3900,,,,,,,VFR,,,,,,,,,,,,SPECI,5.0
KMWK 280700Z AUTO 29005KT 10SM CLR 10/05 A2991 RMK AO2 T00980051,KMWK,2018-10-28T07:00:00Z,36.47,-80.55,9.8,5.1,290,5,,10.0,29.911417,,,TRUE,TRUE,,,,,,,CLR,,,,,,,,VFR,,,,,,,,,,,,SPECI,380.0
KMTN 280700Z AUTO 00000KT 10SM -RA OVC070 09/09 A2976 RMK AO2,KMTN,2018-10-28T07:00:00Z,39.32,-76.42,9.0,9.0,0,0,,10.0,29.760826,,,TRUE,TRUE,,,,,,-RA,OVC,7000,,,,,,,VFR,,,,,,,,,,,,SPECI,7.0
KMRN 280700Z AUTO 26006KT 10SM OVC048 10/05 A2997 RMK AO2 T01000045,KMRN,2018-10-28T07:00:00Z,35.82,-81.62,10.0,4.5,260,6,,10.0,29.970472,,,TRUE,TRUE,,,,,,,OVC,4800,,,,,,,VFR,,,,,,,,,,,,SPECI,387.0
KMQI 280700Z AUTO 28007KT 10SM CLR 12/11 A2983 RMK AO2 T01230107,KMQI,2018-10-28T07:00:00Z,35.92,-75.7,12.3,10.7,280,7,,10.0,29.828741,,,TRUE,TRUE,,,,,,,CLR,,,,,,,,VFR,,,,,,,,,,,,SPECI,4.0
KJNX 280700Z AUTO 00000KT 10SM CLR 10/09 A2989 RMK AO2,KJNX,2018-10-28T07:00:00Z,35.53,-78.38,10.0,9.0,0,0,,10.0,29.890747,,,TRUE,TRUE,,,,,,,CLR,,,,,,,,VFR,,,,,,,,,,,,SPECI,50.0
KIXA 280700Z AUTO 24005KT 10SM CLR 09/07 A2985 RMK AO2,KIXA,2018-10-28T07:00:00Z,36.33,-77.63,9.0,7.0,240,5,,10.0,29.84941,,,TRUE,TRUE,,,,,,,CLR,,,,,,,,VFR,,,,,,,,,,,,SPECI,44.0
KISO 280700Z AUTO 23003KT 10SM CLR 11/10 A2989 RMK AO2 T01050098,KISO,2018-10-28T07:00:00Z,35.32,-77.62,10.5,9.8,230,3,,10.0,29.890747,,,TRUE,TRUE,,,,,,,CLR,,,,,,,,VFR,,,,,,,,,,,,SPECI,29.0
CWUS 280700Z AUTO 27002KT 06/06 RMK AO1 2PAST HR 5019 SLP148 P0005 T00640055 50012,CWUS,2018-10-28T07:00:00Z,49.57,-119.65,6.4,5.5,270,2,,,,1014.8,,TRUE,TRUE,,,,,,,,,,,,,,,,1.2,,,,,0.05,,,,,,METAR,454.0
CWTY 280700Z AUTO 06021G29KT 02/01 RMK AO1 PK WND 05031/0626 SLP114 T00180008 56032,CWTY,2018-10-28T07:00:00Z,46.35,-72.52,1.8,0.8,60,21,29,,,1011.4,,TRUE,TRUE,,,,,,,,,,,,,,,,-3.2,,,,,,,,,,,METAR,6.0
CWTT 280700Z AUTO 04006KT 02/02 RMK AO1 T00200016,CWTT,2018-10-28T07:00:00Z,45.27,-72.17,2.0,1.6,40,6,,,,,,TRUE,TRUE,,,,,,,,,,,,,,,,,,,,,,,,,,,METAR,209.0
CWTN 280700Z AUTO 05020G31KT 01/M03 RMK AO1 0PAST HR 6047 PK WND 06040/0629 SLP153 P0004 T00131031 50010,CWTN,2018-10-28T07:00:00Z,47.07,-70.78,1.3,-3.1,50,20,31,,,1015.3,,TRUE,TRUE,,,,,,,,,,,,,,,,1.0,,,,,0.04,,,,,,METAR,6.0
CWTG 280700Z AUTO 06031G36KT 01/M03 RMK AO1 PK WND 06036/0659 SLP273 T00091030 56022,CWTG,2018-10-28T07:00:00Z,49.32,-67.37,0.9,-3.0,60,31,36,,,1027.3,,TRUE,TRUE,,,,,,,,,,,,,,,,-2.2,,,,,,,,,,,METAR,5.0
CWTA 280700Z AUTO 03002G19KT 01/M00 RMK AO1 PK WND 01019/0658 SLP085 T00061003 56032,CWTA,2018-10-28T07:00:00Z,45.5,-73.58,0.6,-0.3,30,2,19,,,1008.5,,TRUE,TRUE,,,,,,,,,,,,,,,,-3.2,,,,,,,,,,,METAR,63.0
RJAW 280700Z 15010KT 9999 FEW015 29/25 Q1010 RMK 2CU015 A2983,RJAW,2018-10-28T07:00:00Z,24.77,141.32,29.0,25.0,150,10,,6.21,29.822834,,,,,,,,,,,FEW,1500,,,,,,,VFR,,,,,,,,,,,,METAR,116.0
SAOC 280700Z 36009KT 9999 SCT030 BKN060 14/10 Q1014,SAOC,2018-10-28T07:00:00Z,-33.12,-64.27,14.0,10.0,360,9,,6.21,29.940945,,,,,,,,,,,SCT,3000,BKN,6000,,,,,VFR,,,,,,,,,,,,SPECI,421.0
DAOV 280700Z 26005KT 7000 -RA SCT020 FEW023CB BKN026 12/12 Q1003,DAOV,2018-10-28T07:00:00Z,35.2,0.15,12.0,12.0,260,5,,4.35,29.616142,,,,,,,,,,-RA,SCT,2000,FEW,2300,BKN,2600,,,MVFR,,,,,,,,,,,,SPECI,514.0
DAOR 280700Z 18004KT 9999 FEW033 13/11 Q1005,DAOR,2018-10-28T07:00:00Z,31.65,-2.27,13.0,11.0,180,4,,6.21,29.675198,,,,,,,,,,,FEW,3300,,,,,,,VFR,,,,,,,,,,,,SPECI,773.0
DAOL 280700Z 22010KT 7000 FEW010 BKN026 15/14 Q1003,DAOL,2018-10-28T07:00:00Z,35.53,-0.52,15.0,14.0,220,10,,4.35,29.616142,,,,,,,,,,,FEW,1000,BKN,2600,,,,,MVFR,,,,,,,,,,,,SPECI,112.0
CYTL 280700Z AUTO 16011KT 9SM -RA OVC006 02/02 A2978 RMK SLP099,CYTL,2018-10-28T07:00:00Z,53.82,-89.88,2.0,2.0,160,11,,9.0,29.778543,1009.9,,TRUE,,,,,,,-RA,OVC,600,,,,,,,IFR,,,,,,,,,,,,SPECI,224.0
CYQT 280700Z 12007KT 15SM OVC012 06/05 A2978 RMK SC8 SLP093,CYQT,2018-10-28T07:00:00Z,48.37,-89.32,6.0,5.0,120,7,,15.0,29.778543,1009.3,,,,,,,,,,OVC,1200,,,,,,,MVFR,,,,,,,,,,,,SPECI,199.0
FTTC 280700Z 10014KT CAVOK 31/// Q1015,FTTC,2018-10-28T07:00:00Z,13.83,20.85,,,100,14,,6.21,29.970472,,,,,,,,,,,CAVOK,,,,,,,,VFR,,,,,,,,,,,,METAR,549.0
WBGB 280700Z 30007KT 250V350 9999 SCT016 BKN150 30/26 Q1007,WBGB,2018-10-28T07:00:00Z,3.12,113.02,30.0,26.0,300,7,,6.21,29.734253,,,,,,,,,,,SCT,1600,BKN,15000,,,,,VFR,,,,,,,,,,,,METAR,5.0
CWDO 280700Z AUTO 27010G15KT M00/M06 RMK AO1 SOG 02 1005 SLP357 T10031064,CWDO,2018-10-28T07:00:00Z,49.67,-54.78,-0.3,-6.4,270,10,15,,,1035.7,,TRUE,TRUE,,,,,,,,,,,,,,,,,,,,,,,,,,,METAR,92.0
CWDM 280700Z AUTO 35004KT M07/M08 RMK AO1 SLP351 T10701081 50003,CWDM,2018-10-28T07:00:00Z,50.47,-59.62,-7.0,-8.1,350,4,,,,1035.1,,TRUE,TRUE,,,,,,,,,,,,,,,,0.3,,,,,,,,,,,METAR,6.0
CWQR 280700Z AUTO 04012KT M04/M06 RMK AO1 T10421059,CWQR,2018-10-28T07:00:00Z,50.22,-64.22,-4.2,-5.9,40,12,,,,,,TRUE,TRUE,,,,,,,,,,,,,,,,,,,,,,,,,,,METAR,9.0
UUYY 280700Z 24001MPS 9999 SCT010 BKN024CB M00/M02 Q1008 R36/390140 NOSIG RMK QFE747/0996,UUYY,2018-10-28T07:00:00Z,61.65,50.82,0.0,-2.0,240,2,,6.21,29.763779,,,,,,TRUE,,,,,SCT,1000,BKN,2400,,,,,MVFR,,,,,,,,,,,,METAR,119.0
UUOO 280700Z 24005MPS 7000 OVC008 11/10 Q1012 R12/290250 NOSIG RMK QFE745,UUOO,2018-10-28T07:00:00Z,51.82,39.23,11.0,10.0,240,10,,4.35,29.88189,,,,,,TRUE,,,,,OVC,800,,,,,,,IFR,,,,,,,,,,,,METAR,157.0
ULLI 280700Z 03005MPS 360V070 9999 -SHRASN SCT020CB OVC028 02/M01 Q1012 R88/290050 NOSIG RMK 10R/03005G09MPS 10L/03005G08MPS,ULLI,2018-10-28T07:00:00Z,59.8,30.27,2.0,-1.0,30,10,,6.21,29.88189,,,,,,TRUE,,,,-SHRA -SHSN,SCT,2000,OVC,2800,,,,,MVFR,,,,,,,,,,,,METAR,4.0
USCM 280700Z 25008MPS 9999 BKN030CB 03/M04 Q1019 R18/090060 TEMPO 25017MPS 3100 -SHSNRA BKN011CB RMK QFE726,USCM,2018-10-28T07:00:00Z,53.4,58.75,3.0,-4.0,250,16,,6.21,30.088583,,,,,,,,,,,BKN,3000,,,,,,,MVFR,,,,,,,,,,,,METAR,435.0
USHH 280700Z 24005MPS CAVOK 01/M04 Q1002 R24/010060 NOSIG RMK QFE748,USHH,2018-10-28T07:00:00Z,61.03,69.08,1.0,-4.0,240,10,,6.21,29.586615,,,,,,TRUE,,,,,CAVOK,,,,,,,,VFR,,,,,,,,,,,,METAR,23.0
USTR 280700Z 27007MPS 9999 FEW036CB 04/M04 Q1009 R30/CLRD65 TEMPO 25014MPS 2000 SHSNRA RMK QFE747/0996,USTR,2018-10-28T07:00:00Z,57.17,65.32,4.0,-4.0,270,14,,6.21,29.793306,,,,,,,,,,,FEW,3600,,,,,,,VFR,,,,,,,,,,,,METAR,115.0
UNTT 280700Z 19010MPS CAVOK 17/M03 Q1007 R21/090060 NOSIG RMK QFE740,UNTT,2018-10-28T07:00:00Z,56.38,85.22,17.0,-3.0,190,19,,6.21,29.734253,,,,,,TRUE,,,,,CAVOK,,,,,,,,VFR,,,,,,,,,,,,METAR,182.0
UNOO 280700Z 32008G13MPS 6000 -SHRA BKN007 BKN030CB 02/01 Q1001 R25/290350 NOSIG RMK QFE743,UNOO,2018-10-28T07:00:00Z,54.97,73.32,2.0,1.0,320,16,25,3.73,29.557087,,,,,,TRUE,,,,-SHRA,BKN,700,BKN,3000,,,,,IFR,,,,,,,,,,,,METAR,95.0
UNNT 280700Z 17008MPS CAVOK 16/M03 Q1005 R25/090070 R16/090070 NOSIG RMK QFE744/0992,UNNT,2018-10-28T07:00:00Z,55.02,82.63,16.0,-3.0,170,16,,6.21,29.675198,,,,,,TRUE,,,,,CAVOK,,,,,,,,VFR,,,,,,,,,,,,METAR,111.0
UNKL 280700Z 22002MPS 180V260 CAVOK 16/M03 Q1016 R11/CLRD65 NOSIG RMK QFE736,UNKL,2018-10-28T07:00:00Z,56.17,92.48,16.0,-3.0,220,4,,6.21,30.0,,,,,,TRUE,,,,,CAVOK,,,,,,,,VFR,,,,,,,,,,,,METAR,276.0
UNEE 280700Z 13005MPS CAVOK 14/M00 Q1011 R23/CLRD60 NOSIG RMK QFE735,UNEE,2018-10-28T07:00:00Z,55.27,86.08,14.0,0.0,130,10,,6.21,29.852362,,,,,,TRUE,,,,,CAVOK,,,,,,,,VFR,,,,,,,,,,,,METAR,260.0
UNBB 280700Z 16007MPS CAVOK 17/M08 Q1009 R24/CLRD66 NOSIG RMK QFE735,UNBB,2018-10-28T07:00:00Z,53.37,83.53,17.0,-8.0,160,14,,6.21,29.793306,,,,,,TRUE,,,,,CAVOK,,,,,,,,VFR,,,,,,,,,,,,METAR,255.0
UNAA 280700Z VRB01MPS 7000 NSC 07/01 Q1019 R02/190060 NOSIG RMK QFE741,UNAA,2018-10-28T07:00:00Z,53.75,91.4,7.0,1.0,0,2,,4.35,30.088583,,,,,,TRUE,,,,,CLR,,,,,,,,MVFR,,,,,,,,,,,,METAR,245.0
UHSS 280700Z 23002MPS 9999 SCT040CB 09/01 Q1005 R19/70D NOSIG RMK QFE752/1003,UHSS,2018-10-28T07:00:00Z,46.88,142.72,9.0,1.0,230,4,,6.21,29.675198,,,,,,TRUE,,,,,SCT,4000,,,,,,,VFR,,,,,,,,,,,,METAR,31.0
UHMM 280700Z 05002MPS 9999 SCT010 OVC016 04/03 Q1019 R10/19//50 NOSIG RMK QFE749,UHMM,2018-10-28T07:00:00Z,59.92,150.72,4.0,3.0,50,4,,6.21,30.088583,,,,,,TRUE,,,,,SCT,1000,OVC,1600,,,,,MVFR,,,,,,,,,,,,METAR,175.0
UHMA 280700Z 32003MPS 9999 -SN BKN007 M05/M06 Q1015 R01/////// NOSIG RMK END R01/30002MPS QFE757/1010,UHMA,2018-10-28T07:00:00Z,64.73,177.73,-5.0,-6.0,320,6,,6.21,29.970472,,,,,,TRUE,,,,-SN,BKN,700,,,,,,,IFR,,,,,,,,,,,,METAR,62.0
UHWW 280700Z 16006MPS 9999 BKN033CB 06/00 Q1002 R25L/0///70 NOSIG RMK QFE750,UHWW,2018-10-28T07:00:00Z,43.4,132.15,6.0,0.0,160,12,,6.21,29.586615,,,,,,TRUE,,,,,BKN,3300,,,,,,,VFR,,,,,,,,,,,,METAR,14.0
UHPP 280700Z 17002MPS 9999 SCT040CB 06/03 Q1021 R16R/190060 NOSIG RMK QFE763/1017,UHPP,2018-10-28T07:00:00Z,53.17,158.45,6.0,3.0,170,4,,6.21,30.147638,,,,,,TRUE,,,,,SCT,4000,,,,,,,VFR,,,,,,,,,,,,METAR,40.0
UHHH 280700Z VRB01MPS 9999 SCT030CB 02/M03 Q1003 R23L/190050 NOSIG RMK QFE746/0995,UHHH,2018-10-28T07:00:00Z,48.52,135.18,2.0,-3.0,0,2,,6.21,29.616142,,,,,,TRUE,,,,,SCT,3000,,,,,,,VFR,,,,,,,,,,,,METAR,72.0
UHBB 280700Z 04004MPS 2400 -SHSN BKN004 BKN016CB 00/M00 Q0996 R36/690535 NOSIG RMK QBB120 QFE730/0973,UHBB,2018-10-28T07:00:00Z,50.43,127.42,0.0,0.0,40,8,,1.49,29.409449,,,,,,TRUE,,,,-SHSN,BKN,400,BKN,1600,,,,,LIFR,,,,,,,,,,,,METAR,195.0
OICK 280700Z 09004KT 9999 FEW040 19/08 Q1024,OICK,2018-10-28T07:00:00Z,33.43,48.28,19.0,8.0,90,4,,6.21,30.236221,,,,,,,,,,,FEW,4000,,,,,,,VFR,,,,,,,,,,,,METAR,1155.0
RJOR 280700Z 29016KT 9999 FEW040 17/06 Q1010,RJOR,2018-10-28T07:00:00Z,35.52,134.17,17.0,6.0,290,16,,6.21,29.822834,,,,,,,,,,,FEW,4000,,,,,,,VFR,,,,,,,,,,,,METAR,18.0
RJNW 280700Z 25011KT 9999 FEW030 14/07 Q1009,RJNW,2018-10-28T07:00:00Z,37.3,136.97,14.0,7.0,250,11,,6.21,29.793306,,,,,,,,,,,FEW,3000,,,,,,,VFR,,,,,,,,,,,,METAR,219.0
RJKA 280700Z 35012KT 9999 FEW040 SCT050 BKN/// 22/13 Q1013,RJKA,2018-10-28T07:00:00Z,28.42,129.72,22.0,13.0,350,12,,6.21,29.911417,,,,,,,,,,,FEW,4000,SCT,5000,,,,,VFR,,,,,,,,,,,,METAR,7.0
ROYN 280700Z AUTO 02024KT 9999 SCT042 23/15 Q1014,ROYN,2018-10-28T07:00:00Z,24.47,122.97,23.0,15.0,20,24,,6.21,29.940945,,,TRUE,,,,,,,,SCT,4200,,,,,,,VFR,,,,,,,,,,,,METAR,17.0
RORY 280700Z AUTO 01014KT 9999 FEW038 SCT046 22/13 Q1013,RORY,2018-10-28T07:00:00Z,27.05,128.4,22.0,13.0,10,14,,6.21,29.911417,,,TRUE,,,,,,,,FEW,3800,SCT,4600,,,,,VFR,,,,,,,,,,,,METAR,16.0
RJFG 280700Z 29015KT 9999 FEW035 18/09 Q1014,RJFG,2018-10-28T07:00:00Z,30.62,130.98,18.0,9.0,290,15,,6.21,29.940945,,,,,,,,,,,FEW,3500,,,,,,,VFR,,,,,,,,,,,,METAR,237.0
RJEB 280700Z VRB01KT 9999 FEW030 SCT040 BKN100 11/08 Q1006,RJEB,2018-10-28T07:00:00Z,44.3,143.4,11.0,8.0,0,1,,6.21,29.704725,,,,,,,,,,,FEW,3000,SCT,4000,BKN,10000,,,VFR,,,,,,,,,,,,METAR,25.0
RJDT 280700Z 24007KT 190V310 9999 SCT040 17/07 Q1010,RJDT,2018-10-28T07:00:00Z,34.27,129.32,17.0,7.0,240,7,,6.21,29.822834,,,,,,,,,,,SCT,4000,,,,,,,VFR,,,,,,,,,,,,METAR,66.0
RJDC 280700Z 26010KT 240V300 9999 FEW035 18/07 Q1011,RJDC,2018-10-28T07:00:00Z,33.92,131.27,18.0,7.0,260,10,,6.21,29.852362,,,,,,,,,,,FEW,3500,,,,,,,VFR,,,,,,,,,,,,METAR,8.0
RJCW 280700Z 25010KT 9999 FEW030 BKN040 09/03 Q1005,RJCW,2018-10-28T07:00:00Z,45.38,141.8,9.0,3.0,250,10,,6.21,29.675198,,,,,,,,,,,FEW,3000,BKN,4000,,,,,VFR,,,,,,,,,,,,METAR,11.0
RJBT 280700Z 36003KT 9999 FEW030 BKN060 15/05 Q1010,RJBT,2018-10-28T07:00:00Z,35.5,134.8,15.0,5.0,360,3,,6.21,29.822834,,,,,,,,,,,FEW,3000,BKN,6000,,,,,VFR,,,,,,,,,,,,METAR,210.0
OEAB 280700Z 00000KT CAVOK 23/07 Q1028 NOSIG,OEAB,2018-10-28T07:00:00Z,18.22,42.63,23.0,7.0,0,0,,6.21,30.35433,,,,,,TRUE,,,,,CAVOK,,,,,,,,VFR,,,,,,,,,,,,METAR,2084.0
NIUE 280700Z AUTO 07004KT //// // ///////// 24/22 Q1010,NIUE,2018-10-28T07:00:00Z,-19.07,-169.92,24.0,22.0,70,4,,,29.822834,,,TRUE,,,,,,,,,,,,,,,,,,,,,,,,,,,,METAR,20.0
UIUU 280700Z 34007MPS 290V010 9999 NSC 13/M05 Q1020 R26/60D NOSIG RMK QFE720/0961,UIUU,2018-10-28T07:00:00Z,51.8,107.45,13.0,-5.0,340,14,,6.21,30.11811,,,,,,TRUE,,,,,CLR,,,,,,,,VFR,,,,,,,,,,,,METAR,515.0
UIII 280700Z VRB01MPS CAVOK 12/M04 Q1023 R12/60D NOSIG RMK QFE725/0967,UIII,2018-10-28T07:00:00Z,52.27,104.4,12.0,-4.0,0,2,,6.21,30.206694,,,,,,TRUE,,,,,CAVOK,,,,,,,,VFR,,,,,,,,,,,,METAR,513.0
UIBB 280700Z 15003MPS 110V190 9999 NSC 10/M05 Q1021 R30/60D NOSIG RMK QFE722/0963,UIBB,2018-10-28T07:00:00Z,56.37,101.7,10.0,-5.0,150,6,,6.21,30.147638,,,,,,TRUE,,,,,CLR,,,,,,,,VFR,,,,,,,,,,,,METAR,490.0
UIAA 280700Z 01007MPS 9999 NSC 06/M17 Q1016 R29/70D NOSIG RMK QFE703/0938,UIAA,2018-10-28T07:00:00Z,52.02,113.32,6.0,-17.0,10,14,,6.21,30.0,,,,,,TRUE,,,,,CLR,,,,,,,,VFR,,,,,,,,,,,,METAR,685.0
UWGG 280700Z 20004MPS 8000 -SHRA OVC008CB 02/02 Q1003 R18L/650142 NOSIG,UWGG,2018-10-28T07:00:00Z,56.23,43.78,2.0,2.0,200,8,,4.97,29.616142,,,,,,TRUE,,,,-SHRA,OVC,800,,,,,,,IFR,,,,,,,,,,,,METAR,73.0
UUOK 280700Z 26004MPS 220V290 8000 OVC005 11/11 Q1013 R30/////// NOSIG RMK QFE741/0988,UUOK,2018-10-28T07:00:00Z,51.75,36.28,11.0,11.0,260,8,,4.97,29.911417,,,,,,TRUE,,,,,OVC,500,,,,,,,IFR,,,,,,,,,,,,METAR,209.0
UUOB 280700Z 22006MPS 9999 BKN011 12/10 Q1014 R11/190057 NOSIG,UUOB,2018-10-28T07:00:00Z,50.65,36.58,12.0,10.0,220,12,,6.21,29.940945,,,,,,TRUE,,,,,BKN,1100,,,,,,,MVFR,,,,,,,,,,,,METAR,224.0
UUBP 280700Z 25006MPS 9999 SCT033 08/04 Q1011 R16/CLRD70 NOSIG RMK QFE740/0987,UUBP,2018-10-28T07:00:00Z,53.22,34.18,8.0,4.0,250,12,,6.21,29.852362,,,,,,TRUE,,,,,SCT,3300,,,,,,,VFR,,,,,,,,,,,,METAR,202.0
UUBC 280700Z 25006MPS 220V280 9999 BKN010 OVC020 07/05 Q1008 R31/290150 NOSIG RMK QFE739/0985,UUBC,2018-10-28T07:00:00Z,54.55,36.37,7.0,5.0,250,12,,6.21,29.763779,,,,,,TRUE,,,,,BKN,1000,OVC,2000,,,,,MVFR,,,,,,,,,,,,METAR,199.0
ULWC 280700Z 03004G09MPS 6000 -SN BKN008 M01/M02 Q1005 R03/690140 NOSIG RMK QFE744/0992,ULWC,2018-10-28T07:00:00Z,59.28,38.02,-1.0,-2.0,30,8,17,3.73,29.675198,,,,,,TRUE,,,,-SN,BKN,800,,,,,,,IFR,,,,,,,,,,,,METAR,115.0
USSS 280700Z 26008MPS 240V300 9999 -SHSN BKN038CB 01/M05 Q1012 R26R/290038 NOSIG RMK QFE738/0985,USSS,2018-10-28T07:00:00Z,56.75,60.82,1.0,-5.0,260,16,,6.21,29.88189,,,,,,TRUE,,,,-SHSN,BKN,3800,,,,,,,VFR,,,,,,,,,,,,METAR,233.0
USRR 280700Z 27005MPS CAVOK 02/M03 Q1002 R25/220060 NOSIG RMK QFE746,USRR,2018-10-28T07:00:00Z,61.33,73.42,2.0,-3.0,270,10,,6.21,29.586615,,,,,,TRUE,,,,,CAVOK,,,,,,,,VFR,,,,,,,,,,,,METAR,44.0
USNN 280700Z 31003MPS CAVOK 03/M00 Q1002 R21/220158 NOSIG RMK QFE746,USNN,2018-10-28T07:00:00Z,60.95,76.48,3.0,0.0,310,6,,6.21,29.586615,,,,,,TRUE,,,,,CAVOK,,,,,,,,VFR,,,,,,,,,,,,METAR,54.0
USCC 280700Z 27008MPS 9999 BKN023CB 03/M04 Q1014 R27/000060 NOSIG RMK QFE741,USCC,2018-10-28T07:00:00Z,55.3,61.5,3.0,-4.0,270,16,,6.21,29.940945,,,,,,TRUE,,,,,BKN,2300,,,,,,,MVFR,,,,,,,,,,,,METAR,234.0
UWUU 280700Z 20005MPS 9999 OVC040 02/M01 Q1019 R14R/0///60 NOSIG RMK QFE754/1005,UWUU,2018-10-28T07:00:00Z,54.57,55.87,2.0,-1.0,200,10,,6.21,30.088583,,,,,,TRUE,,,,,OVC,4000,,,,,,,VFR,,,,,,,,,,,,METAR,137.0
UWWW 280700Z 19008MPS 9999 -RASN BKN016 02/00 Q1015 R15/CLRD60 NOSIG RMK QFE750/1000,UWWW,2018-10-28T07:00:00Z,53.5,50.17,2.0,0.0,190,16,,6.21,29.970472,,,,,,TRUE,,,,-RA -SN,BKN,1600,,,,,,,MVFR,,,,,,,,,,,,METAR,146.0
UWSS 280700Z 20006G11MPS 9999 OVC009 08/07 Q1014 R12/210055 NOSIG RMK OBST OBSC QFE748,UWSS,2018-10-28T07:00:00Z,51.57,46.07,8.0,7.0,200,12,21,6.21,29.940945,,,,,,TRUE,,,,,OVC,900,,,,,,,IFR,,,,,,,,,,,,METAR,166.0
UWOO 280700Z 22004MPS 190V250 CAVOK 05/M01 Q1024 R26/60D NOSIG RMK QFE757/1010,UWOO,2018-10-28T07:00:00Z,51.8,55.47,5.0,-1.0,220,8,,6.21,30.236221,,,,,,TRUE,,,,,CAVOK,,,,,,,,VFR,,,,,,,,,,,,METAR,109.0
UWOR 280700Z 28008MPS CAVOK 05/M04 Q1025 R25/CLRD65 NOSIG RMK QFE745/0994,UWOR,2018-10-28T07:00:00Z,51.07,58.6,5.0,-4.0,280,16,,6.21,30.265747,,,,,,TRUE,,,,,CAVOK,,,,,,,,VFR,,,,,,,,,,,,METAR,277.0
UWLW 280700Z 17007MPS 2200 R20/2000U -SNRA OVC005 01/00 Q1011 R20/290250 TEMPO 1500 SNRA OVC004 RMK QFE752,UWLW,2018-10-28T07:00:00Z,54.4,48.8,1.0,0.0,170,14,,1.37,29.852362,,,,,,,,,,-SN RA,OVC,500,,,,,,,IFR,,,,,,,,,,,,METAR,66.0
UWKS 280700Z 17006MPS 1300 1200NW R06/1500D SHSN OVC003CB 00/M00 Q1005 R06/591038 TEMPO 0500 +SHSN VV002 RMK QFE739,UWKS,2018-10-28T07:00:00Z,56.08,47.35,0.0,0.0,170,12,,0.81,29.675198,,,,,,,,,,SHSN,OVC,300,,,,,,,LIFR,,,,,,,,,,,,METAR,170.0
UWKE 280700Z 18005G10MPS 9999 BKN006 M00/M02 Q1015 R21/090070 NOSIG RMK OBST OBSC QFE744/0992,UWKE,2018-10-28T07:00:00Z,55.57,52.08,0.0,-2.0,180,10,19,6.21,29.970472,,,,,,TRUE,,,,,BKN,600,,,,,,,IFR,,,,,,,,,,,,METAR,196.0
UWKD 280700Z 15004G09MPS 3300 -SNRA OVC004 01/00 Q1009 R11/2/0050 TEMPO 15005G12MPS 1000 SNRA OVC003 RMK QFE747/0996,UWKD,2018-10-28T07:00:00Z,55.62,49.28,1.0,0.0,150,8,17,2.05,29.793306,,,,,,,,,,-SN -RA,OVC,400,,,,,,,LIFR,,,,,,,,,,,,METAR,126.0
USPP 280700Z 25007MPS 9999 OVC032 02/M04 Q1012 R21/090060 NOSIG RMK QFE748,USPP,2018-10-28T07:00:00Z,57.92,56.02,2.0,-4.0,250,14,,6.21,29.88189,,,,,,TRUE,,,,,OVC,3200,,,,,,,VFR,,,,,,,,,,,,METAR,123.0
GOGG 280700Z 31004KT CAVOK 26/25 Q1012,GOGG,2018-10-28T07:00:00Z,12.55,-16.27,26.0,25.0,310,4,,6.21,29.88189,,,,,,,,,,,CAVOK,,,,,,,,VFR,,,,,,,,,,,,METAR,23.0
GOTT 280700Z 22004KT CAVOK 26/25 Q1011,GOTT,2018-10-28T07:00:00Z,13.73,-13.65,26.0,25.0,220,4,,6.21,29.852362,,,,,,,,,,,CAVOK,,,,,,,,VFR,,,,,,,,,,,,METAR,50.0
GOSS 280700Z 00000KT CAVOK 24/22 Q1012,GOSS,2018-10-28T07:00:00Z,16.05,-16.43,24.0,22.0,0,0,,6.21,29.88189,,,,,,,,,,,CAVOK,,,,,,,,VFR,,,,,,,,,,,,METAR,4.0
GOOK 280700Z 00000KT CAVOK 25/22 Q1013,GOOK,2018-10-28T07:00:00Z,14.15,-16.07,25.0,22.0,0,0,,6.21,29.911417,,,,,,,,,,,CAVOK,,,,,,,,VFR,,,,,,,,,,,,METAR,7.0
GOOY 280700Z 36008KT 9999 FEW013 26/23 Q1012,GOOY,2018-10-28T07:00:00Z,14.72,-17.5,26.0,23.0,360,8,,6.21,29.88189,,,,,,,,,,,FEW,1300,,,,,,,VFR,,,,,,,,,,,,METAR,24.0
GQNO 280700Z 35011KT CAVOK 23/18 Q1012 NOSIG,GQNO,2018-10-28T07:00:00Z,18.3,-15.97,23.0,18.0,350,11,,6.21,29.88189,,,,,,TRUE,,,,,CAVOK,,,,,,,,VFR,,,,,,,,,,,,METAR,4.0
URWW 280700Z 22013G18MPS CAVOK 13/07 Q1022 R24/010070 NOSIG,URWW,2018-10-28T07:00:00Z,48.78,44.33,13.0,7.0,220,25,35,6.21,30.177166,,,,,,TRUE,,,,,CAVOK,,,,,,,,VFR,,,,,,,,,,,,METAR,147.0
URWI 280700Z 21006MPS CAVOK 13/03 Q1028 R27/010065 NOSIG,URWI,2018-10-28T07:00:00Z,46.37,44.33,13.0,3.0,210,12,,6.21,30.35433,,,,,,TRUE,,,,,CAVOK,,,,,,,,VFR,,,,,,,,,,,,METAR,150.0
URWA 280700Z 20007MPS CAVOK 15/03 Q1031 R27/010070 NOSIG RMK QFE775/1033,URWA,2018-10-28T07:00:00Z,46.28,48.02,15.0,3.0,200,14,,6.21,30.442913,,,,,,TRUE,,,,,CAVOK,,,,,,,,VFR,,,,,,,,,,,,METAR,-20.0
URSS 280700Z 04006MPS 9999 NSC 14/05 Q1028 R02/090070 R06/090070 NOSIG RMK R06/07005MPS QFE769,URSS,2018-10-28T07:00:00Z,43.45,39.95,14.0,5.0,40,12,,6.21,30.35433,,,,,,TRUE,,,,,CLR,,,,,,,,VFR,,,,,,,,,,,,METAR,16.0
URRP 280700Z 23007MPS 200V260 9999 FEW/// 15/11 Q1024 R23/CLRD70 NOSIG RMK QFE760/1013,URRP,2018-10-28T07:00:00Z,47.5,39.92,15.0,11.0,230,14,,6.21,30.236221,,,,,,TRUE,,,,,,,,,,,,,,,,,,,,,,,,,METAR,65.0
URMT 280700Z 17004MPS CAVOK 15/03 Q1028 R25/010070 NOSIG RMK QFE732,URMT,2018-10-28T07:00:00Z,45.12,42.12,15.0,3.0,170,8,,6.21,30.35433,,,,,,TRUE,,,,,CAVOK,,,,,,,,VFR,,,,,,,,,,,,METAR,453.0
URMO 280700Z VRB01MPS 9999 NSC 10/03 Q1028 R09/010070 NOSIG RMK QFE727/0970,URMO,2018-10-28T07:00:00Z,43.2,44.6,10.0,3.0,0,2,,6.21,30.35433,,,,,,TRUE,,,,,CLR,,,,,,,,VFR,,,,,,,,,,,,METAR,510.0
URMN 280700Z 03001MPS 9999 NSC 13/00 Q1027 R24/010070 NOSIG RMK QFE734,URMN,2018-10-28T07:00:00Z,43.52,43.63,13.0,0.0,30,2,,6.21,30.324802,,,,,,TRUE,,,,,CLR,,,,,,,,VFR,,,,,,,,,,,,METAR,445.0
URMM 280700Z 14007MPS 9999 NSC 15/M01 Q1028 R12/090070 NOSIG RMK QFE743/0991,URMM,2018-10-28T07:00:00Z,44.22,43.1,15.0,-1.0,140,14,,6.21,30.35433,,,,,,TRUE,,,,,CLR,,,,,,,,VFR,,,,,,,,,,,,METAR,314.0
URML 280700Z 15009MPS 9999 NSC 17/09 Q1030 R14/01//70 TEMPO 14009G14MPS RMK QFE772/1030,URML,2018-10-28T07:00:00Z,42.82,47.65,17.0,9.0,150,17,,6.21,30.413385,,,,,,,,,,,CLR,,,,,,,,VFR,,,,,,,,,,,,METAR,4.0
URMG 280700Z VRB01MPS CAVOK 11/02 Q1029 R08/000070 NOSIG RMK QFE757/1009,URMG,2018-10-28T07:00:00Z,43.37,45.7,11.0,2.0,0,2,,6.21,30.383858,,,,,,TRUE,,,,,CAVOK,,,,,,,,VFR,,,,,,,,,,,,METAR,263.0
URKK 280700Z 15003MPS CAVOK 16/09 Q1026 R23L/CLRD70 NOSIG RMK QFE766,URKK,2018-10-28T07:00:00Z,45.03,39.15,16.0,9.0,150,6,,6.21,30.295275,,,,,,TRUE,,,,,CAVOK,,,,,,,,VFR,,,,,,,,,,,,METAR,34.0
URKA 280700Z 19011MPS 9999 FEW/// 18/14 Q1025 R22/010070 NOSIG RMK QFE764/1018,URKA,2018-10-28T07:00:00Z,45.0,37.35,18.0,14.0,190,21,,6.21,30.265747,,,,,,TRUE,,,,,,,,,,,,,,,,,,,,,,,,,METAR,53.0
UUOL 280700Z 25007MPS 9999 BKN018 10/09 Q1011 R15/290250 NOSIG,UUOL,2018-10-28T07:00:00Z,,,10.0,9.0,250,14,,6.21,29.852362,,,,,,TRUE,,,,,BKN,1800,,,,,,,MVFR,,,,,,,,,,,,METAR,
UUMO 280700Z 26005MPS 9999 BKN011 OVC040 07/06 Q1006 R26/290350 NOSIG RMK QFE739/0986,UUMO,2018-10-28T07:00:00Z,55.52,37.5,7.0,6.0,260,10,,6.21,29.704725,,,,,,TRUE,,,,,BKN,1100,OVC,4000,,,,,MVFR,,,,,,,,,,,,METAR,174.0
UUWW 280700Z 24006MPS 9999 SCT013 BKN040 06/03 Q1006 R24/290050 NOSIG,UUWW,2018-10-28T07:00:00Z,55.6,37.27,6.0,3.0,240,12,,6.21,29.704725,,,,,,TRUE,,,,,SCT,1300,BKN,4000,,,,,VFR,,,,,,,,,,,,METAR,203.0
UUEE 280700Z 23008MPS 9999 BKN036 06/04 Q1005 R24C/290051 R24L/290051 NOSIG,UUEE,2018-10-28T07:00:00Z,55.97,37.42,6.0,4.0,230,16,,6.21,29.675198,,,,,,TRUE,,,,,BKN,3600,,,,,,,VFR,,,,,,,,,,,,METAR,190.0
UUDL 280700Z 24003MPS 9999 OVC004 01/00 Q1002 R23/190050 NOSIG RMK QBB120 QFE743,UUDL,2018-10-28T07:00:00Z,57.57,40.17,1.0,0.0,240,6,,6.21,29.586615,,,,,,TRUE,,,,,OVC,400,,,,,,,LIFR,,,,,,,,,,,,METAR,88.0
UUDD 280700Z 25006MPS 9999 SCT016 07/04 Q1006 R88/290095 NOSIG,UUDD,2018-10-28T07:00:00Z,55.4,37.9,7.0,4.0,250,12,,6.21,29.704725,,,,,,TRUE,,,,,SCT,1600,,,,,,,VFR,,,,,,,,,,,,METAR,168.0
UUBW 280700Z 24005MPS 9999 BKN015 07/04 Q1006 R30/210050 NOSIG,UUBW,2018-10-28T07:00:00Z,55.55,38.15,7.0,4.0,240,10,,6.21,29.704725,,,,,,TRUE,,,,,BKN,1500,,,,,,,MVFR,,,,,,,,,,,,METAR,115.0
ULMM 280700Z 26002MPS 230V300 9999 SCT011CB M04/M05 Q1018 R31/690335 NOSIG RMK QFE756,ULMM,2018-10-28T07:00:00Z,68.78,32.75,-4.0,-5.0,260,4,,6.21,30.059055,,,,,,TRUE,,,,,SCT,1100,,,,,,,VFR,,,,,,,,,,,,METAR,51.0
OEKJ 280700Z 02015KT 8000 SCT030 BKN070 25/17 Q1025,OEKJ,2018-10-28T07:00:00Z,24.07,47.58,25.0,17.0,20,15,,4.97,30.265747,,,,,,,,,,,SCT,3000,BKN,7000,,,,,MVFR,,,,,,,,,,,,METAR,503.0
OEHL 280700Z 12006KT 1500 DU NSC 17/07 Q1026,OEHL,2018-10-28T07:00:00Z,27.42,41.67,17.0,7.0,120,6,,0.93,30.295275,,,,,,,,,,DU,CLR,,,,,,,,LIFR,,,,,,,,,,,,METAR,1013.0
OEGT 280700Z 33002KT CAVOK 15/00 Q1026 NOSIG,OEGT,2018-10-28T07:00:00Z,31.42,37.27,15.0,0.0,330,2,,6.21,30.295275,,,,,,TRUE,,,,,CAVOK,,,,,,,,VFR,,,,,,,,,,,,METAR,499.0
OEGS 280700Z 04012KT 5000 DU BKN030 20/10 Q1023,OEGS,2018-10-28T07:00:00Z,26.3,43.77,20.0,10.0,40,12,,3.11,30.206694,,,,,,,,,,DU,BKN,3000,,,,,,,MVFR,,,,,,,,,,,,METAR,650.0
OEGN 280700Z 21006KT 9999 FEW030 34/25 Q1015 NOSIG,OEGN,2018-10-28T07:00:00Z,16.88,42.57,34.0,25.0,210,6,,6.21,29.970472,,,,,,TRUE,,,,,FEW,3000,,,,,,,VFR,,,,,,,,,,,,METAR,3.0
OEDM 280700Z 07012KT 5000 SCT040 BKN080 20/18 Q1023,OEDM,2018-10-28T07:00:00Z,24.45,44.12,20.0,18.0,70,12,,3.11,30.206694,,,,,,,,,,,SCT,4000,BKN,8000,,,,,MVFR,,,,,,,,,,,,METAR,922.0
OEBH 280700Z 06002KT CAVOK 27/15 Q1022 NOSIG,OEBH,2018-10-28T07:00:00Z,19.97,42.62,27.0,15.0,60,2,,6.21,30.177166,,,,,,TRUE,,,,,CAVOK,,,,,,,,VFR,,,,,,,,,,,,METAR,1157.0
OEBA 280700Z 36003KT CAVOK 22/15 Q1025 NOSIG,OEBA,2018-10-28T07:00:00Z,20.3,41.62,22.0,15.0,360,3,,6.21,30.265747,,,,,,TRUE,,,,,CAVOK,,,,,,,,VFR,,,,,,,,,,,,METAR,1656.0
OEAR 280700Z 00000KT CAVOK 30/22 Q1015,OEAR,2018-10-28T07:00:00Z,,,30.0,22.0,0,0,,6.21,29.970472,,,,,,,,,,,CAVOK,,,,,,,,VFR,,,,,,,,,,,,METAR,
OEAO 280700Z 33010KT 1500 BLDU NSC 23/07 Q1022,OEAO,2018-10-28T07:00:00Z,26.48,38.12,23.0,7.0,330,10,,0.93,30.177166,,,,,,,,,,BLDU,CLR,,,,,,,,LIFR,,,,,,,,,,,,METAR,624.0
OEAH 280700Z 30018KT 6000 SCT040 OVC100 22/20 Q1019 NOSIG,OEAH,2018-10-28T07:00:00Z,25.27,49.47,22.0,20.0,300,18,,3.73,30.088583,,,,,,TRUE,,,,,SCT,4000,OVC,10000,,,,,MVFR,,,,,,,,,,,,METAR,172.0
LFRI 280700Z AUTO 36008KT 9999 FEW008 BKN058 02/01 Q1008 NOSIG,LFRI,2018-10-28T07:00:00Z,46.7,-1.37,2.0,1.0,360,8,,6.21,29.763779,,,TRUE,,,TRUE,,,,,FEW,800,BKN,5800,,,,,VFR,,,,,,,,,,,,METAR,91.0
LFOV 280700Z AUTO 35009KT CAVOK 03/02 Q1010,LFOV,2018-10-28T07:00:00Z,48.03,-0.75,3.0,2.0,350,9,,6.21,29.822834,,,TRUE,,,,,,,,CAVOK,,,,,,,,VFR,,,,,,,,,,,,METAR,101.0
LFMI 280700Z AUTO 35009KT CAVOK 07/07 Q0995 TEMPO 4000 -RA BKN013 BKN030,LFMI,2018-10-28T07:00:00Z,43.52,4.92,7.0,7.0,350,9,,6.21,29.379921,,,TRUE,,,,,,,,CAVOK,,,,,,,,VFR,,,,,,,,,,,,METAR,24.0
LFBA 280700Z AUTO 30008KT CAVOK 05/01 Q1002 NOSIG,LFBA,2018-10-28T07:00:00Z,44.17,0.6,5.0,1.0,300,8,,6.21,29.586615,,,TRUE,,,TRUE,,,,,CAVOK,,,,,,,,VFR,,,,,,,,,,,,METAR,60.0
LFML 280700Z AUTO 34008KT 9999 FEW009 OVC014 09/07 Q0996 TEMPO 4000 RA BKN008 BKN030,LFML,2018-10-28T07:00:00Z,43.45,5.22,9.0,7.0,340,8,,6.21,29.409449,,,TRUE,,,,,,,,FEW,900,OVC,1400,,,,,MVFR,,,,,,,,,,,,METAR,36.0
WMAU 280700Z VRB08KT 9999 FEW018CB SCT140 BKN270 32/25 Q//// QFF1008,WMAU,2018-10-28T07:00:00Z,2.38,103.88,32.0,25.0,0,8,,6.21,,,,,,,,,,,,FEW,1800,SCT,14000,BKN,27000,,,VFR,,,,,,,,,,,,METAR,45.0
FWKI 280700Z 11015KT CAVOK 23/10 Q1023 NOSIG,FWKI,2018-10-28T07:00:00Z,-13.77,33.77,23.0,10.0,110,15,,6.21,30.206694,,,,,,TRUE,,,,,CAVOK,,,,,,,,VFR,,,,,,,,,,,,SPECI,1229.0
SAZS 280700Z 27007KT 9999 BKN045 SCT200 10/07 Q1015,SAZS,2018-10-28T07:00:00Z,-41.13,-71.17,10.0,7.0,270,7,,6.21,29.970472,,,,,,,,,,,BKN,4500,SCT,20000,,,,,VFR,,,,,,,,,,,,METAR,840.0
SARC 280700Z 14005KT CAVOK 14/12 Q1014,SARC,2018-10-28T07:00:00Z,-27.43,-58.77,14.0,12.0,140,5,,6.21,29.940945,,,,,,,,,,,CAVOK,,,,,,,,VFR,,,,,,,,,,,,METAR,62.0
VILK 280700Z 34004KT 4000 HZ NSC 31/17 Q1016 NOSIG,VILK,2018-10-28T07:00:00Z,26.75,80.87,31.0,17.0,340,4,,2.49,30.0,,,,,,TRUE,,,,HZ,CLR,,,,,,,,IFR,,,,,,,,,,,,METAR,128.0
VEBS 280700Z 36004KT 2500 HZ BKN016 OVC090 25/21 Q1014 NOSIG,VEBS,2018-10-28T07:00:00Z,20.25,85.82,25.0,21.0,360,4,,1.55,29.940945,,,,,,TRUE,,,,HZ,BKN,1600,OVC,9000,,,,,IFR,,,,,,,,,,,,METAR,46.0
VOGO 280700Z 03005KT 6000 FEW020 BKN100 33/13 Q1011 NOSIG,VOGO,2018-10-28T07:00:00Z,15.38,73.83,33.0,13.0,30,5,,3.73,29.852362,,,,,,TRUE,,,,,FEW,2000,BKN,10000,,,,,MVFR,,,,,,,,,,,,METAR,52.0
VOGO 280700Z 03005KT 6000 FEW020 BKN100 33/13 Q1011 NOSIG,VOGO,2018-10-28T07:00:00Z,15.38,73.83,33.0,13.0,30,5,,3.73,29.852362,,,,,,TRUE,,,,,FEW,2000,BKN,10000,,,,,MVFR,,,,,,,,,,,,METAR,52.0
WMKK 280700Z VRB04KT 7000 -TSRA FEW008 FEW016CB SCT018 BKN270 27/26 Q1008 TEMPO TL0740 3000 TSRA,WMKK,2018-10-28T07:00:00Z,2.75,101.72,27.0,26.0,0,4,,4.35,29.763779,,,,,,,,,,-TSRA,FEW,800,FEW,1600,SCT,1800,BKN,27000,MVFR,,,,,,,,,,,,METAR,22.0
CWRF 280700Z AUTO 10022KT M14/ A2977 RMK SLP124,CWRF,2018-10-28T07:00:00Z,69.42,-89.72,-14.0,,100,22,,,29.769686,1012.4,,TRUE,,,,,,,,,,,,,,,,,,,,,,,,,,,,METAR,325.0
LFRO 280700Z AUTO 01020G33KT 330V030 9999 BKN026/// BKN033/// OVC044/// ///CB 09/05 Q1013 TEMPO 3000 TSGS,LFRO,2018-10-28T07:00:00Z,48.75,-3.47,9.0,5.0,10,20,33,6.21,29.911417,,,TRUE,,,,,,,,BKN,2600,BKN,3300,OVC,4400,,,MVFR,,,,,,,,,,,,METAR,89.0
LFRM 280700Z AUTO 36010KT CAVOK 05/03 Q1009 NOSIG,LFRM,2018-10-28T07:00:00Z,47.95,0.2,5.0,3.0,360,10,,6.21,29.793306,,,TRUE,,,TRUE,,,,,CAVOK,,,,,,,,VFR,,,,,,,,,,,,METAR,52.0
LFRZ 280700Z AUTO 36008KT CAVOK 03/02 Q1010 NOSIG,LFRZ,2018-10-28T07:00:00Z,47.32,-2.17,3.0,2.0,360,8,,6.21,29.822834,,,TRUE,,,TRUE,,,,,CAVOK,,,,,,,,VFR,,,,,,,,,,,,METAR,4.0
LFRV 280700Z AUTO 01008KT CAVOK 05/03 Q1010,LFRV,2018-10-28T07:00:00Z,47.72,-2.72,5.0,3.0,10,8,,6.21,29.822834,,,TRUE,,,,,,,,CAVOK,,,,,,,,VFR,,,,,,,,,,,,METAR,133.0
LFCR 280700Z AUTO 30007KT CAVOK 03/01 Q0999 NOSIG,LFCR,2018-10-28T07:00:00Z,44.38,2.47,3.0,1.0,300,7,,6.21,29.498032,,,TRUE,,,TRUE,,,,,CAVOK,,,,,,,,VFR,,,,,,,,,,,,METAR,580.0
LFMY 280700Z AUTO 35009KT CAVOK 07/05 Q0996,LFMY,2018-10-28T07:00:00Z,43.6,5.08,7.0,5.0,350,9,,6.21,29.409449,,,TRUE,,,,,,,,CAVOK,,,,,,,,VFR,,,,,,,,,,,,METAR,60.0
LFMO 280700Z AUTO 35016KT CAVOK 07/04 Q0997 BECMG 35015G25KT,LFMO,2018-10-28T07:00:00Z,44.12,4.87,7.0,4.0,350,16,,6.21,29.438976,,,TRUE,,,,,,,,CAVOK,,,,,,,,VFR,,,,,,,,,,,,METAR,55.0
LFMC 280700Z AUTO VRB02KT 9999 ////// 12/11 Q0995,LFMC,2018-10-28T07:00:00Z,43.37,6.37,12.0,11.0,0,2,,6.21,29.379921,,,TRUE,,,,,,,,,,,,,,,,,,,,,,,,,,,,METAR,78.0
LFKS 280700Z AUTO 22005KT 170V260 9999 SCT064/// BKN100/// BKN120/// ///TCU 20/12 Q0998,LFKS,2018-10-28T07:00:00Z,41.92,9.4,20.0,12.0,220,5,,6.21,29.468504,,,TRUE,,,,,,,,SCT,6400,BKN,10000,BKN,12000,,,VFR,,,,,,,,,,,,METAR,22.0
LFBY 280700Z AUTO 34005KT 300V010 9999 // NSC 05/01 Q1005,LFBY,2018-10-28T07:00:00Z,43.67,-1.07,5.0,1.0,340,5,,6.21,29.675198,,,TRUE,,,,,,,,CLR,,,,,,,,VFR,,,,,,,,,,,,METAR,32.0
LFBM 280700Z AUTO 33004KT CAVOK 03/01 Q1004 NOSIG,LFBM,2018-10-28T07:00:00Z,43.92,-0.5,3.0,1.0,330,4,,6.21,29.64567,,,TRUE,,,TRUE,,,,,CAVOK,,,,,,,,VFR,,,,,,,,,,,,METAR,63.0
LFBG 280700Z AUTO 36009KT 9999 OVC014 05/03 Q1007,LFBG,2018-10-28T07:00:00Z,45.67,-0.32,5.0,3.0,360,9,,6.21,29.734253,,,TRUE,,,,,,,,OVC,1400,,,,,,,MVFR,,,,,,,,,,,,METAR,31.0
LFBC 280700Z AUTO 36011KT 9999 FEW012 BKN200 OVC220 05/03 Q1006 TEMPO BKN012,LFBC,2018-10-28T07:00:00Z,44.52,-1.12,5.0,3.0,360,11,,6.21,29.704725,,,TRUE,,,,,,,,FEW,1200,BKN,20000,OVC,22000,,,VFR,,,,,,,,,,,,METAR,33.0
LFPG 280700Z 03014KT 010V090 5000 BR BKN006 SCT060 04/02 Q1010 TEMPO BKN005,LFPG,2018-10-28T07:00:00Z,49.02,2.52,4.0,2.0,30,14,,3.11,29.822834,,,,,,,,,,BR,BKN,600,SCT,6000,,,,,IFR,,,,,,,,,,,,METAR,109.0
LFRS 280700Z AUTO 36006KT 330V040 CAVOK 03/01 Q1009 NOSIG,LFRS,2018-10-28T07:00:00Z,47.17,-1.6,3.0,1.0,360,6,,6.21,29.793306,,,TRUE,,,TRUE,,,,,CAVOK,,,,,,,,VFR,,,,,,,,,,,,METAR,27.0
LFRB 280700Z AUTO 02014G24KT 9999 FEW027/// SCT038/// OVC050/// ///TCU 08/04 Q1014 TEMPO 3000 TSGS BKN015CB,LFRB,2018-10-28T07:00:00Z,48.45,-4.42,8.0,4.0,20,14,24,6.21,29.940945,,,TRUE,,,,,,,,FEW,2700,SCT,3800,OVC,5000,,,VFR,,,,,,,,,,,,METAR,103.0
LFQQ 280700Z AUTO 03011KT CAVOK 03/01 Q1014 NOSIG,LFQQ,2018-10-28T07:00:00Z,50.57,3.1,3.0,1.0,30,11,,6.21,29.940945,,,TRUE,,,TRUE,,,,,CAVOK,,,,,,,,VFR,,,,,,,,,,,,METAR,52.0
LFPO 280700Z 03013KT 9999 FEW013 BKN055 BKN120 05/03 Q1009 TEMPO BKN008,LFPO,2018-10-28T07:00:00Z,48.72,2.38,5.0,3.0,30,13,,6.21,29.793306,,,,,,,,,,,FEW,1300,BKN,5500,BKN,12000,,,VFR,,,,,,,,,,,,METAR,96.0
LFMN 280700Z 01004KT 350V060 9999 SCT021 BKN050 BKN070 15/13 Q0995 NOSIG,LFMN,2018-10-28T07:00:00Z,43.63,7.2,15.0,13.0,10,4,,6.21,29.379921,,,,,,TRUE,,,,,SCT,2100,BKN,5000,BKN,7000,,,VFR,,,,,,,,,,,,METAR,10.0
LFLL 280700Z 36005KT 9999 BKN012 OVC016 05/04 Q1000 TEMPO BKN017,LFLL,2018-10-28T07:00:00Z,45.72,5.07,5.0,4.0,360,5,,6.21,29.52756,,,,,,,,,,,BKN,1200,OVC,1600,,,,,MVFR,,,,,,,,,,,,SPECI,240.0
LFBH 280700Z AUTO 04012KT 9999 OVC009 04/03 Q1008 NOSIG,LFBH,2018-10-28T07:00:00Z,46.18,-1.2,4.0,3.0,40,12,,6.21,29.763779,,,TRUE,,,TRUE,,,,,OVC,900,,,,,,,IFR,,,,,,,,,,,,METAR,10.0
LFBD 280700Z AUTO 36012KT 9999 BKN009 BKN190 04/02 Q1006 NOSIG,LFBD,2018-10-28T07:00:00Z,44.82,-0.7,4.0,2.0,360,12,,6.21,29.704725,,,TRUE,,,TRUE,,,,,BKN,900,BKN,19000,,,,,IFR,,,,,,,,,,,,METAR,61.0
LFSG 280700Z AUTO 03015KT 9999 OVC015 05/02 Q1005,LFSG,2018-10-28T07:00:00Z,48.33,6.07,5.0,2.0,30,15,,6.21,29.675198,,,TRUE,,,,,,,,OVC,1500,,,,,,,MVFR,,,,,,,,,,,,METAR,330.0
LFJL 280700Z AUTO 04013KT 9999 OVC025 06/02 Q1008 TEMPO BKN014,LFJL,2018-10-28T07:00:00Z,48.97,6.25,6.0,2.0,40,13,,6.21,29.763779,,,TRUE,,,,,,,,OVC,2500,,,,,,,MVFR,,,,,,,,,,,,METAR,264.0
LFKC 280700Z AUTO 21009KT 150V240 9999 FEW050/// SCT070/// BKN100/// ///CB 18/13 Q0996 TEMPO 18020G35KT 4000 TSRA,LFKC,2018-10-28T07:00:00Z,42.52,8.8,18.0,13.0,210,9,,6.21,29.409449,,,TRUE,,,,,,,,FEW,5000,SCT,7000,BKN,10000,,,VFR,,,,,,,,,,,,SPECI,58.0
LFKF 280700Z AUTO 23012KT 9999 FEW037 SCT076 BKN096 19/15 Q0999 TEMPO 4000 TSRA BKN025 SCT030CB BKN070 BECMG 06005KT,LFKF,2018-10-28T07:00:00Z,41.5,9.08,19.0,15.0,230,12,,6.21,29.498032,,,TRUE,,,,,,,,FEW,3700,SCT,7600,BKN,9600,,,VFR,,,,,,,,,,,,METAR,23.0
LFKJ 280700Z AUTO 13005KT 100V170 9999 VCTS FEW074/// BKN088/// OVC110/// ///CB 18/15 Q0998 TEMPO 16015G25KT 4000 TSRA,LFKJ,2018-10-28T07:00:00Z,41.92,8.8,18.0,15.0,130,5,,6.21,29.468504,,,TRUE,,,,,,,VCTS,FEW,7400,BKN,8800,OVC,11000,,,VFR,,,,,,,,,,,,SPECI,9.0
LFLC 280700Z AUTO 35008KT 7000 -RA OVC013 03/02 Q1001 TEMPO BKN003,LFLC,2018-10-28T07:00:00Z,45.77,3.17,3.0,2.0,350,8,,4.35,29.557087,,,TRUE,,,,,,,-RA,OVC,1300,,,,,,,MVFR,,,,,,,,,,,,SPECI,330.0
RPMD 280700Z 17006KT 130V230 9999 FEW015CB SCT290 32/22 Q1005 RMK A2968 CB NNW,RPMD,2018-10-28T07:00:00Z,7.12,125.65,32.0,22.0,170,6,,6.21,29.675198,,,,,,,,,,,FEW,1500,SCT,29000,,,,,VFR,,,,,,,,,,,,METAR,18.0
TFFR 280700Z AUTO VRB02KT 9999 FEW034/// SCT078/// 23/23 Q1012 TEMPO 4000 SHRA BKN018TCU,TFFR,2018-10-28T07:00:00Z,16.27,-61.53,23.0,23.0,0,2,,6.21,29.88189,,,TRUE,,,,,,,,FEW,3400,SCT,7800,,,,,VFR,,,,,,,,,,,,METAR,11.0
NCRK 280700Z AUTO 08002KT //// ////// 27/23 Q1010,NCRK,2018-10-28T07:00:00Z,-10.05,-161.08,27.0,23.0,80,2,,,29.822834,,,TRUE,,,,,,,,,,,,,,,,,,,,,,,,,,,,METAR,5.0
NCPK 280700Z AUTO NIL,NCPK,2018-10-28T07:00:00Z,,,,,,,,,,,,TRUE,,,,,,,,,,,,,,,,,,,,,,,,,,,,METAR,
RPLB 280700Z 33011KT 9999 FEW020 BKN300 31/24 Q1007 NOSIG RMK A2974,RPLB,2018-10-28T07:00:00Z,14.8,120.27,31.0,24.0,330,11,,6.21,29.734253,,,,,,TRUE,,,,,FEW,2000,BKN,30000,,,,,VFR,,,,,,,,,,,,METAR,17.0
RPLI 280700Z 06008G24KT 9999 FEW018 29/16 Q1009 NOSIG RMK A2980,RPLI,2018-10-28T07:00:00Z,18.17,120.52,29.0,16.0,60,8,24,6.21,29.793306,,,,,,TRUE,,,,,FEW,1800,,,,,,,VFR,,,,,,,,,,,,METAR,5.0
RPMZ 280700Z 28009KT 250V320 9999 FEW016CB FEW017 SCT090 32/24 Q1006 RMK A2971 CB E,RPMZ,2018-10-28T07:00:00Z,6.92,122.07,32.0,24.0,280,9,,6.21,29.704725,,,,,,,,,,,FEW,1600,FEW,1700,SCT,9000,,,VFR,,,,,,,,,,,,METAR,6.0
YLRE 280700Z AUTO 23014KT 9999 // NCD 41/02 Q1005,YLRE,2018-10-28T07:00:00Z,-23.43,144.28,41.0,2.0,230,14,,6.21,29.675198,,,TRUE,,,,,,,,CLR,,,,,,,,VFR,,,,,,,,,,,,METAR,193.0
YMAY 280700Z AUTO 24007KT 9999 // NCD 25/M04 Q1012,YMAY,2018-10-28T07:00:00Z,-36.07,146.93,25.0,-4.0,240,7,,6.21,29.88189,,,TRUE,,,,,,,,CLR,,,,,,,,VFR,,,,,,,,,,,,METAR,171.0
YMAV 280700Z AUTO 18012KT 9999 // NCD 14/05 Q1018,YMAV,2018-10-28T07:00:00Z,-38.03,144.48,14.0,5.0,180,12,,6.21,30.059055,,,TRUE,,,,,,,,CLR,,,,,,,,VFR,,,,,,,,,,,,METAR,8.0
YMEK 280700Z AUTO 21005KT 160V240 9999 // SCT105 33/04 Q1013,YMEK,2018-10-28T07:00:00Z,-26.62,118.55,33.0,4.0,210,5,,6.21,29.911417,,,TRUE,,,,,,,,SCT,10500,,,,,,,VFR,,,,,,,,,,,,METAR,522.0
YMDG 280700Z AUTO 05013KT 9999 // NCD 20/09 Q1014,YMDG,2018-10-28T07:00:00Z,-32.57,149.62,20.0,9.0,50,13,,6.21,29.940945,,,TRUE,,,,,,,,CLR,,,,,,,,VFR,,,,,,,,,,,,METAR,471.0
YMER 280700Z AUTO 13007KT 9999 // NCD 15/07 Q1017,YMER,2018-10-28T07:00:00Z,-36.92,149.9,15.0,7.0,130,7,,6.21,30.029528,,,TRUE,,,,,,,,CLR,,,,,,,,VFR,,,,,,,,,,,,METAR,2.0
YMEN 280700Z AUTO 18016KT 9999 // NCD 14/06 Q1017,YMEN,2018-10-28T07:00:00Z,-37.72,144.9,14.0,6.0,180,16,,6.21,30.029528,,,TRUE,,,,,,,,CLR,,,,,,,,VFR,,,,,,,,,,,,METAR,86.0
YMIA 280700Z AUTO 17005KT 110V250 9999 // NCD 22/01 Q1015,YMIA,2018-10-28T07:00:00Z,-34.23,142.08,22.0,1.0,170,5,,6.21,29.970472,,,TRUE,,,,,,,,CLR,,,,,,,,VFR,,,,,,,,,,,,METAR,51.0
YMML 280700Z 17014KT CAVOK 14/04 Q1018,YMML,2018-10-28T07:00:00Z,-37.67,144.82,14.0,4.0,170,14,,6.21,30.059055,,,,,,,,,,,CAVOK,,,,,,,,VFR,,,,,,,,,,,,METAR,141.0
LYBE 280700Z 14011KT CAVOK 19/10 Q1011 NOSIG,LYBE,2018-10-28T07:00:00Z,44.82,20.28,19.0,10.0,140,11,,6.21,29.852362,,,,,,TRUE,,,,,CAVOK,,,,,,,,VFR,,,,,,,,,,,,METAR,99.0
YMOR 280700Z AUTO 27010KT 9999 // BKN120 27/01 Q1011,YMOR,2018-10-28T07:00:00Z,-29.5,149.85,27.0,1.0,270,10,,6.21,29.852362,,,TRUE,,,,,,,,BKN,12000,,,,,,,VFR,,,,,,,,,,,,METAR,214.0
LYBT 280700Z 12010KT CAVOK 19/09 Q1011 NOSIG,LYBT,2018-10-28T07:00:00Z,44.93,20.25,19.0,9.0,120,10,,6.21,29.852362,,,,,,TRUE,,,,,CAVOK,,,,,,,,VFR,,,,,,,,,,,,METAR,80.0
DAOB 280700Z 22012KT 9999 BKN023 FEW026CB 10/09 Q1003,DAOB,2018-10-28T07:00:00Z,35.33,1.47,10.0,9.0,220,12,,6.21,29.616142,,,,,,,,,,,BKN,2300,FEW,2600,,,,,MVFR,,,,,,,,,,,,METAR,989.0
DAUG 280700Z 22007KT CAVOK 18/09 Q1008,DAUG,2018-10-28T07:00:00Z,32.37,3.82,18.0,9.0,220,7,,6.21,29.763779,,,,,,,,,,,CAVOK,,,,,,,,VFR,,,,,,,,,,,,METAR,450.0
DAUB 280700Z 10012KT 6000 BKN040 19/15 Q1006,DAUB,2018-10-28T07:00:00Z,34.78,5.72,19.0,15.0,100,12,,3.73,29.704725,,,,,,,,,,,BKN,4000,,,,,,,MVFR,,,,,,,,,,,,METAR,87.0
DAUA 280700Z 17012KT CAVOK 21/08 Q1008,DAUA,2018-10-28T07:00:00Z,27.83,-0.18,21.0,8.0,170,12,,6.21,29.763779,,,,,,,,,,,CAVOK,,,,,,,,VFR,,,,,,,,,,,,METAR,263.0
DAOI 280700Z 23007KT 9000 -RA FEW023CB BKN026 14/12 Q1000,DAOI,2018-10-28T07:00:00Z,36.22,1.32,14.0,12.0,230,7,,5.59,29.52756,,,,,,,,,,-RA,FEW,2300,BKN,2600,,,,,MVFR,,,,,,,,,,,,METAR,143.0
HDAM 280700Z 08009KT 9999 FEW023 32/25 Q1016,HDAM,2018-10-28T07:00:00Z,11.55,43.17,32.0,25.0,80,9,,6.21,30.0,,,,,,,,,,,FEW,2300,,,,,,,VFR,,,,,,,,,,,,METAR,49.0
DABB 280700Z 22009KT 9999 FEW026 BKN033 21/12 Q1001,DABB,2018-10-28T07:00:00Z,36.82,7.82,21.0,12.0,220,9,,6.21,29.557087,,,,,,,,,,,FEW,2600,BKN,3300,,,,,VFR,,,,,,,,,,,,METAR,4.0
DAAT 280700Z 34003KT CAVOK 17/M00 Q1021,DAAT,2018-10-28T07:00:00Z,22.82,5.47,17.0,0.0,340,3,,6.21,30.147638,,,,,,,,,,,CAVOK,,,,,,,,VFR,,,,,,,,,,,,METAR,1377.0
DABC 280700Z 22008KT 9999 FEW030 SCT090 15/10 Q1005,DABC,2018-10-28T07:00:00Z,36.27,6.62,15.0,10.0,220,8,,6.21,29.675198,,,,,,,,,,,FEW,3000,SCT,9000,,,,,VFR,,,,,,,,,,,,METAR,694.0
DAAG 280700Z 22005KT 9999 FEW020TCU SCT043 16/13 Q1001,DAAG,2018-10-28T07:00:00Z,36.72,3.22,16.0,13.0,220,5,,6.21,29.557087,,,,,,,,,,,FEW,2000,SCT,4300,,,,,VFR,,,,,,,,,,,,METAR,25.0
LYKV 280700Z 14010KT CAVOK 18/12 Q1014 NOSIG,LYKV,2018-10-28T07:00:00Z,43.82,20.58,18.0,12.0,140,10,,6.21,29.940945,,,,,,TRUE,,,,,CAVOK,,,,,,,,VFR,,,,,,,,,,,,METAR,209.0
LYPG 280700Z 14006KT 9999 RA FEW025 SCT040 OVC080 18/17 Q1016 NOSIG,LYPG,2018-10-28T07:00:00Z,42.37,19.25,18.0,17.0,140,6,,6.21,30.0,,,,,,TRUE,,,,RA,FEW,2500,SCT,4000,OVC,8000,,,VFR,,,,,,,,,,,,METAR,43.0
LYNI 280700Z 13007KT 080V190 CAVOK 16/08 Q1017 NOSIG,LYNI,2018-10-28T07:00:00Z,43.32,21.88,16.0,8.0,130,7,,6.21,30.029528,,,,,,TRUE,,,,,CAVOK,,,,,,,,VFR,,,,,,,,,,,,METAR,202.0
LYTV 280700Z 15011KT 120V180 9999 -RA FEW023 SCT030 OVC080 18/15 Q1016 NOSIG,LYTV,2018-10-28T07:00:00Z,42.38,18.72,18.0,15.0,150,11,,6.21,30.0,,,,,,TRUE,,,,-RA,FEW,2300,SCT,3000,OVC,8000,,,VFR,,,,,,,,,,,,METAR,5.0
LYUZ 280700Z VRB04KT 9999 SCT023 15/07 Q1014,LYUZ,2018-10-28T07:00:00Z,43.9,19.7,15.0,7.0,0,4,,6.21,29.940945,,,,,,,,,,,SCT,2300,,,,,,,VFR,,,,,,,,,,,,METAR,904.0
UTAA 280700Z 09004KT 060V120 9999 BKN033 OVC100 11/07 Q1036 R88/CLRD70 NOSIG,UTAA,2018-10-28T07:00:00Z,37.98,58.37,11.0,7.0,90,4,,6.21,30.590551,,,,,,TRUE,,,,,BKN,3300,OVC,10000,,,,,VFR,,,,,,,,,,,,METAR,210.0
LYVR 280700Z 13018G31KT CAVOK 20/08 Q1013 NOSIG,LYVR,2018-10-28T07:00:00Z,45.13,21.32,20.0,8.0,130,18,31,6.21,29.911417,,,,,,TRUE,,,,,CAVOK,,,,,,,,VFR,,,,,,,,,,,,METAR,85.0
UTAK 280700Z 13012KT CAVOK 14/04 Q1036 R34L/CLRD70 NOSIG,UTAK,2018-10-28T07:00:00Z,40.05,53.0,14.0,4.0,130,12,,6.21,30.590551,,,,,,TRUE,,,,,CAVOK,,,,,,,,VFR,,,,,,,,,,,,METAR,85.0
UTAM 280700Z 34006KT 9999 -SHRA SCT020CB BKN020 09/07 Q1038 NOSIG,UTAM,2018-10-28T07:00:00Z,37.62,61.9,9.0,7.0,340,6,,6.21,30.649607,,,,,,TRUE,,,,-SHRA,SCT,2000,BKN,2000,,,,,MVFR,,,,,,,,,,,,METAR,222.0
UTAT 280700Z 01006KT 340V050 CAVOK 11/04 Q1037 R26/CLRD70 NOSIG,UTAT,2018-10-28T07:00:00Z,41.77,59.83,11.0,4.0,10,6,,6.21,30.620079,,,,,,TRUE,,,,,CAVOK,,,,,,,,VFR,,,,,,,,,,,,METAR,83.0
LDZA 280700Z 05004KT 020V080 CAVOK 12/09 Q1005 NOSIG,LDZA,2018-10-28T07:00:00Z,45.72,16.07,12.0,9.0,50,4,,6.21,29.675198,,,,,,TRUE,,,,,CAVOK,,,,,,,,VFR,,,,,,,,,,,,METAR,107.0
LDSP 280700Z 15013G25KT 120V180 9999 FEW025 BKN030 21/16 Q1009 NOSIG,LDSP,2018-10-28T07:00:00Z,43.52,16.3,21.0,16.0,150,13,25,6.21,29.793306,,,,,,TRUE,,,,,FEW,2500,BKN,3000,,,,,MVFR,,,,,,,,,,,,METAR,21.0
LDOS 280700Z 14009KT CAVOK 17/08 Q1009,LDOS,2018-10-28T07:00:00Z,45.47,18.82,17.0,8.0,140,9,,6.21,29.793306,,,,,,,,,,,CAVOK,,,,,,,,VFR,,,,,,,,,,,,METAR,89.0
LDDU 280700Z 12020KT 9999 FEW023 BKN048 17/14 Q1015 NOSIG,LDDU,2018-10-28T07:00:00Z,42.57,18.27,17.0,14.0,120,20,,6.21,29.970472,,,,,,TRUE,,,,,FEW,2300,BKN,4800,,,,,VFR,,,,,,,,,,,,METAR,165.0
UBBQ 280700Z 19003KT 9999 FEW040 15/08 Q1034 R34/CLRD// NOSIG RMK MT OP,UBBQ,2018-10-28T07:00:00Z,40.82,47.72,15.0,8.0,190,3,,6.21,30.531496,,,,,,TRUE,,,,,FEW,4000,,,,,,,VFR,,,,,,,,,,,,METAR,338.0
LFLS 280700Z AUTO 34006KT 9999 BKN014/// BKN024/// BKN029/// ///TCU 04/03 Q0998 TEMPO RA OVC004,LFLS,2018-10-28T07:00:00Z,45.37,5.32,4.0,3.0,340,6,,6.21,29.468504,,,TRUE,,,,,,,,BKN,1400,BKN,2400,BKN,2900,,,MVFR,,,,,,,,,,,,SPECI,386.0
LFMP 280700Z AUTO 32016G26KT 9999 SCT100/// SCT210/// BKN240/// 09/02 Q0998 TEMPO SHRA SCT025CB BKN030,LFMP,2018-10-28T07:00:00Z,42.72,2.87,9.0,2.0,320,16,26,6.21,29.468504,,,TRUE,,,,,,,,SCT,10000,SCT,21000,BKN,24000,,,VFR,,,,,,,,,,,,METAR,48.0
LFMV 280700Z AUTO 35011KT CAVOK 07/04 Q0996 TEMPO 4000 -RA BKN013 BKN030,LFMV,2018-10-28T07:00:00Z,43.9,4.9,7.0,4.0,350,11,,6.21,29.409449,,,TRUE,,,,,,,,CAVOK,,,,,,,,VFR,,,,,,,,,,,,METAR,38.0
LFSL 280700Z AUTO 33007KT 300V360 CAVOK 05/01 Q1001 BECMG BKN013 OVC040,LFSL,2018-10-28T07:00:00Z,45.03,1.48,5.0,1.0,330,7,,6.21,29.557087,,,TRUE,,,,,,,,CAVOK,,,,,,,,VFR,,,,,,,,,,,,METAR,310.0
SCCF 280700Z 11015KT CAVOK 06/M12 Q1025,SCCF,2018-10-28T07:00:00Z,-22.5,-68.9,6.0,-12.0,110,15,,6.21,30.265747,,,,,,,,,,,CAVOK,,,,,,,,VFR,,,,,,,,,,,,METAR,2312.0
SCBA 280700Z AUTO 29002KT 9999 07/04 Q1009,SCBA,2018-10-28T07:00:00Z,-45.92,-71.67,7.0,4.0,290,2,,6.21,29.793306,,,TRUE,,,,,,,,,,,,,,,,,,,,,,,,,,,,METAR,524.0
SCFA 280700Z 36010KT 9999 OVC022 16/10 Q1015 NOSIG,SCFA,2018-10-28T07:00:00Z,-23.42,-70.42,16.0,10.0,360,10,,6.21,29.970472,,,,,,TRUE,,,,,OVC,2200,,,,,,,MVFR,,,,,,,,,,,,METAR,120.0
SCSE 280700Z AUTO 00000KT 4200 BR BKN002/// OVC005/// 12/12 Q1013,SCSE,2018-10-28T07:00:00Z,-29.92,-71.2,12.0,12.0,0,0,,2.61,29.911417,,,TRUE,,,,,,,BR,BKN,200,OVC,500,,,,,LIFR,,,,,,,,,,,,METAR,146.0
SCDA 280700Z 20006KT 9999 OVC029 17/13 Q1014,SCDA,2018-10-28T07:00:00Z,-20.52,-70.17,17.0,13.0,200,6,,6.21,29.940945,,,,,,,,,,,OVC,2900,,,,,,,MVFR,,,,,,,,,,,,METAR,52.0
SCIE 280700Z 23004KT 5000 BR OVC002 14/13 Q1016,SCIE,2018-10-28T07:00:00Z,-36.77,-73.07,14.0,13.0,230,4,,3.11,30.0,,,,,,,,,,BR,OVC,200,,,,,,,LIFR,,,,,,,,,,,,METAR,16.0
SBJP 280700Z 27003KT 9999 SCT023 22/20 Q1012,SBJP,2018-10-28T07:00:00Z,-7.15,-34.95,22.0,20.0,270,3,,6.21,29.88189,,,,,,,,,,,SCT,2300,,,,,,,VFR,,,,,,,,,,,,METAR,66.0
SCCI 280700Z 28020KT 9999 FEW045 SCT150 BKN200 10/02 Q0999 NOSIG,SCCI,2018-10-28T07:00:00Z,-53.0,-70.83,10.0,2.0,280,20,,6.21,29.498032,,,,,,TRUE,,,,,FEW,4500,SCT,15000,BKN,20000,,,VFR,,,,,,,,,,,,METAR,37.0
SCVD 280700Z AUTO 02004KT 360V060 9999 FEW007 SCT009 OVC014 13/13 Q1014,SCVD,2018-10-28T07:00:00Z,-39.65,-73.07,13.0,13.0,20,4,,6.21,29.940945,,,TRUE,,,,,,,,FEW,700,SCT,900,OVC,1400,,,MVFR,,,,,,,,,,,,METAR,14.0
SCTE 280700Z 02012KT 9000 -RA SCT005 OVC020 13/12 Q1013 NOSIG,SCTE,2018-10-28T07:00:00Z,-41.42,-73.07,13.0,12.0,20,12,,5.59,29.911417,,,,,,TRUE,,,,-RA,SCT,500,OVC,2000,,,,,MVFR,,,,,,,,,,,,METAR,86.0
SCQP 280700Z 23002KT 9999 OVC038 13/13 Q1015 RESHRA,SCQP,2018-10-28T07:00:00Z,-38.92,-72.65,13.0,13.0,230,2,,6.21,29.970472,,,,,,,,,,,OVC,3800,,,,,,,VFR,,,,,,,,,,,,METAR,97.0
LDPL 280700Z 14010KT 100V180 9999 FEW040 19/15 Q1004 NOSIG,LDPL,2018-10-28T07:00:00Z,44.88,13.92,19.0,15.0,140,10,,6.21,29.64567,,,,,,TRUE,,,,,FEW,4000,,,,,,,VFR,,,,,,,,,,,,METAR,63.0
LDZD 280700Z 14020KT 9999 -RA FEW017 BKN075 19/17 Q1007 NOSIG,LDZD,2018-10-28T07:00:00Z,44.1,15.37,19.0,17.0,140,20,,6.21,29.734253,,,,,,TRUE,,,,-RA,FEW,1700,BKN,7500,,,,,VFR,,,,,,,,,,,,METAR,84.0
LFCK 280700Z AUTO 28009KT 9999 OVC011 05/03 Q1001 TEMPO 4000 -RA OVC007,LFCK,2018-10-28T07:00:00Z,43.55,2.28,5.0,3.0,280,9,,6.21,29.557087,,,TRUE,,,,,,,,OVC,1100,,,,,,,MVFR,,,,,,,,,,,,METAR,240.0
LFLU 280700Z AUTO 35014KT 9999 OVC026 06/04 Q0999,LFLU,2018-10-28T07:00:00Z,44.92,4.98,6.0,4.0,350,14,,6.21,29.498032,,,TRUE,,,,,,,,OVC,2600,,,,,,,MVFR,,,,,,,,,,,,METAR,160.0
LFLP 280700Z AUTO VRB02KT 6000 -RA BKN030/// OVC052/// ///TCU 03/02 Q1000 TEMPO BKN013 BKN020,LFLP,2018-10-28T07:00:00Z,45.92,6.08,3.0,2.0,0,2,,3.73,29.52756,,,TRUE,,,,,,,-RA,BKN,3000,OVC,5200,,,,,MVFR,,,,,,,,,,,,METAR,463.0
LFLX 280700Z AUTO 02013KT 9000 OVC009 05/03 Q1005 TEMPO 03020G30KT 4000 RA BKN014,LFLX,2018-10-28T07:00:00Z,46.85,1.72,5.0,3.0,20,13,,5.59,29.675198,,,TRUE,,,,,,,,OVC,900,,,,,,,IFR,,,,,,,,,,,,METAR,157.0
LFOH 280700Z AUTO 06011KT CAVOK 06/03 Q1012 TEMPO BKN006 BECMG 03017G27KT,LFOH,2018-10-28T07:00:00Z,49.52,0.07,6.0,3.0,60,11,,6.21,29.88189,,,TRUE,,,,,,,,CAVOK,,,,,,,,VFR,,,,,,,,,,,,METAR,103.0
LFOP 280700Z AUTO 04014KT 7000 OVC008 04/03 Q1011 TEMPO OVC004,LFOP,2018-10-28T07:00:00Z,49.37,1.17,4.0,3.0,40,14,,4.35,29.852362,,,TRUE,,,,,,,,OVC,800,,,,,,,IFR,,,,,,,,,,,,METAR,157.0
LFQA 280700Z AUTO 03011KT CAVOK 04/02 Q1009,LFQA,2018-10-28T07:00:00Z,49.2,4.15,4.0,2.0,30,11,,6.21,29.793306,,,TRUE,,,,,,,,CAVOK,,,,,,,,VFR,,,,,,,,,,,,METAR,95.0
LFQB 280700Z AUTO 02008KT 9000 NSC 04/02 Q1007,LFQB,2018-10-28T07:00:00Z,48.32,4.02,4.0,2.0,20,8,,5.59,29.734253,,,TRUE,,,,,,,,CLR,,,,,,,,VFR,,,,,,,,,,,,METAR,118.0
LFOC 280700Z AUTO 02012KT 9000 NSC 04/03 Q1007,LFOC,2018-10-28T07:00:00Z,48.03,1.37,4.0,3.0,20,12,,5.59,29.734253,,,TRUE,,,,,,,,CLR,,,,,,,,VFR,,,,,,,,,,,,METAR,127.0
LFOE 280700Z AUTO 02011KT 3900 BR BKN008 BKN068 04/03 Q1011 BECMG 9999 NSW BKN025,LFOE,2018-10-28T07:00:00Z,49.02,1.22,4.0,3.0,20,11,,2.42,29.852362,,,TRUE,,,,,,,BR,BKN,800,BKN,6800,,,,,IFR,,,,,,,,,,,,METAR,146.0
LFOJ 280700Z AUTO 03012KT 8000 FEW012 OVC150 04/02 Q1007,LFOJ,2018-10-28T07:00:00Z,47.97,1.75,4.0,2.0,30,12,,4.97,29.734253,,,TRUE,,,,,,,,FEW,1200,OVC,15000,,,,,MVFR,,,,,,,,,,,,METAR,125.0
LFRJ 280700Z AUTO 02018G28KT 9999 SCT026/// BKN032/// BKN040/// ///TCU 08/05 Q1014,LFRJ,2018-10-28T07:00:00Z,48.52,-4.15,8.0,5.0,20,18,28,6.21,29.940945,,,TRUE,,,,,,,,SCT,2600,BKN,3200,BKN,4000,,,VFR,,,,,,,,,,,,METAR,115.0
LFMH 280700Z AUTO 33005KT 9999 -DZ BKN008 OVC012 04/03 Q1000 TEMPO BKN003,LFMH,2018-10-28T07:00:00Z,45.52,4.28,4.0,3.0,330,5,,6.21,29.52756,,,TRUE,,,,,,,-DZ,BKN,800,OVC,1200,,,,,IFR,,,,,,,,,,,,SPECI,402.0
LFMD 280700Z AUTO 02003KT 320V060 9999 BKN022 BKN040 BKN072 14/13 Q0994 TEMPO 2000 TSRA FEW010CB OVC012,LFMD,2018-10-28T07:00:00Z,43.53,6.95,14.0,13.0,20,3,,6.21,29.350393,,,TRUE,,,,,,,,BKN,2200,BKN,4000,BKN,7200,,,MVFR,,,,,,,,,,,,METAR,9.0
LFGJ 280700Z AUTO 04016KT 9999 -RA FEW014 OVC120 06/04 Q1001 TEMPO 4500 RA BKN014,LFGJ,2018-10-28T07:00:00Z,47.05,5.43,6.0,4.0,40,16,,6.21,29.557087,,,TRUE,,,,,,,-RA,FEW,1400,OVC,12000,,,,,VFR,,,,,,,,,,,,SPECI,196.0
LFBE 280700Z AUTO 31009KT 280V340 CAVOK 04/02 Q1004 TEMPO BKN008,LFBE,2018-10-28T07:00:00Z,44.82,0.52,4.0,2.0,310,9,,6.21,29.64567,,,TRUE,,,,,,,,CAVOK,,,,,,,,VFR,,,,,,,,,,,,METAR,52.0
LJCE 280700Z 04005KT 360V080 CAVOK 14/10 Q1004 RMK BLU,LJCE,2018-10-28T07:00:00Z,45.9,15.52,14.0,10.0,40,5,,6.21,29.64567,,,,,,,,,,,CAVOK,,,,,,,,VFR,,,,,,,,,,,,METAR,155.0
LJPZ 280700Z 13016KT 9999 -RA FEW050 SCT085 OVC100 18/15 Q1003,LJPZ,2018-10-28T07:00:00Z,45.47,13.62,18.0,15.0,130,16,,6.21,29.616142,,,,,,,,,,-RA,FEW,5000,SCT,8500,OVC,10000,,,VFR,,,,,,,,,,,,METAR,2.0
LJMB 280700Z 00000KT 3000 BR OVC003 09/08 Q1006,LJMB,2018-10-28T07:00:00Z,46.47,15.67,9.0,8.0,0,0,,1.86,29.704725,,,,,,,,,,BR,OVC,300,,,,,,,LIFR,,,,,,,,,,,,METAR,265.0
LJLJ 280700Z 36005KT 9999 -RA FEW004 BKN020 OVC080 15/14 Q1005 RERA NOSIG,LJLJ,2018-10-28T07:00:00Z,46.22,14.47,15.0,14.0,360,5,,6.21,29.675198,,,,,,TRUE,,,,-RA,FEW,400,BKN,2000,OVC,8000,,,MVFR,,,,,,,,,,,,METAR,385.0
LFPV 280700Z AUTO 02010KT 360V060 8000 BKN012 BKN052 05/02 Q1009 TEMPO BKN005,LFPV,2018-10-28T07:00:00Z,48.77,2.2,5.0,2.0,20,10,,4.97,29.793306,,,TRUE,,,,,,,,BKN,1200,BKN,5200,,,,,MVFR,,,,,,,,,,,,METAR,179.0
LFOA 280700Z AUTO 03015KT 9999 -RA FEW029 BKN050 OVC060 05/02 Q1004,LFOA,2018-10-28T07:00:00Z,47.03,2.63,5.0,2.0,30,15,,6.21,29.64567,,,TRUE,,,,,,,-RA,FEW,2900,BKN,5000,OVC,6000,,,VFR,,,,,,,,,,,,METAR,179.0
LFRL 280700Z AUTO 01009KT 9999 FEW024/// BKN034/// BKN048/// ///TCU 07/05 Q1014,LFRL,2018-10-28T07:00:00Z,48.27,-4.42,7.0,5.0,10,9,,6.21,29.940945,,,TRUE,,,,,,,,FEW,2400,BKN,3400,BKN,4800,,,VFR,,,,,,,,,,,,METAR,82.0
LFOT 280700Z AUTO 36007KT 310V020 9999 BKN013 BKN054 OVC130 05/03 Q1007 TEMPO BKN007 BKN012,LFOT,2018-10-28T07:00:00Z,47.43,0.72,5.0,3.0,360,7,,6.21,29.734253,,,TRUE,,,,,,,,BKN,1300,BKN,5400,OVC,13000,,,MVFR,,,,,,,,,,,,METAR,108.0
LFRG 280700Z AUTO 04006KT 010V080 CAVOK 04/03 Q1012 TEMPO BKN008,LFRG,2018-10-28T07:00:00Z,49.37,0.15,4.0,3.0,40,6,,6.21,29.88189,,,TRUE,,,,,,,,CAVOK,,,,,,,,VFR,,,,,,,,,,,,METAR,146.0
LFST 280700Z AUTO 03017KT 9999 BKN015 BKN062 BKN076 06/03 Q1006 TEMPO BKN012 OVC030 BECMG 03015G25KT,LFST,2018-10-28T07:00:00Z,48.53,7.62,6.0,3.0,30,17,,6.21,29.704725,,,TRUE,,,,,,,,BKN,1500,BKN,6200,BKN,7600,,,MVFR,,,,,,,,,,,,METAR,154.0
LFTH 280700Z AUTO 31005KT 290V350 CAVOK 13/11 Q0995 TEMPO 4000 -RA BKN013 BKN030,LFTH,2018-10-28T07:00:00Z,43.1,6.15,13.0,11.0,310,5,,6.21,29.379921,,,TRUE,,,,,,,,CAVOK,,,,,,,,VFR,,,,,,,,,,,,METAR,4.0
LFTW 280700Z AUTO 01010KT 9999 OVC043 08/05 Q0996 NOSIG,LFTW,2018-10-28T07:00:00Z,43.75,4.42,8.0,5.0,10,10,,6.21,29.409449,,,TRUE,,,TRUE,,,,,OVC,4300,,,,,,,VFR,,,,,,,,,,,,METAR,96.0
LFLY 280700Z AUTO 36006KT 330V040 9999 OVC016 06/02 Q1000 TEMPO OVC012,LFLY,2018-10-28T07:00:00Z,45.72,4.95,6.0,2.0,360,6,,6.21,29.52756,,,TRUE,,,,,,,,OVC,1600,,,,,,,MVFR,,,,,,,,,,,,SPECI,201.0
LFMT 280700Z AUTO VRB02KT CAVOK 08/07 Q0997 BECMG 33012KT,LFMT,2018-10-28T07:00:00Z,43.57,3.97,8.0,7.0,0,2,,6.21,29.438976,,,TRUE,,,,,,,,CAVOK,,,,,,,,VFR,,,,,,,,,,,,METAR,6.0
LFMK 280700Z AUTO 28009KT 9999 BKN016 OVC033 07/04 Q1001 TEMPO BKN010,LFMK,2018-10-28T07:00:00Z,43.22,2.32,7.0,4.0,280,9,,6.21,29.557087,,,TRUE,,,,,,,,BKN,1600,OVC,3300,,,,,MVFR,,,,,,,,,,,,METAR,130.0
LFOB 280700Z AUTO 02011KT 3800 BR OVC007 05/04 Q1011 TEMPO OVC004,LFOB,2018-10-28T07:00:00Z,49.47,2.12,5.0,4.0,20,11,,2.36,29.852362,,,TRUE,,,,,,,BR,OVC,700,,,,,,,IFR,,,,,,,,,,,,METAR,111.0
LFMU 280700Z AUTO 27013KT CAVOK 08/04 Q0998 NOSIG,LFMU,2018-10-28T07:00:00Z,43.32,3.35,8.0,4.0,270,13,,6.21,29.468504,,,TRUE,,,TRUE,,,,,CAVOK,,,,,,,,VFR,,,,,,,,,,,,METAR,17.0
LFOK 280700Z AUTO 03015KT 6000 NSC 03/02 Q1008 TEMPO 4000 BR BECMG 02017G27KT,LFOK,2018-10-28T07:00:00Z,48.78,4.18,3.0,2.0,30,15,,3.73,29.763779,,,TRUE,,,,,,,,CLR,,,,,,,,MVFR,,,,,,,,,,,,METAR,162.0
LFRD 280700Z AUTO 04007KT 9999 -RA FEW011 SCT030 BKN070 06/05 Q1012 TEMPO 4000 SHRAGS BKN020TCU BECMG 04015G25KT,LFRD,2018-10-28T07:00:00Z,48.58,-2.07,6.0,5.0,40,7,,6.21,29.88189,,,TRUE,,,,,,,-RA,FEW,1100,SCT,3000,BKN,7000,,,VFR,,,,,,,,,,,,METAR,59.0
LFPB 280700Z AUTO 01011KT 7000 FEW009 OVC062 04/02 Q1010 TEMPO BKN006,LFPB,2018-10-28T07:00:00Z,48.97,2.45,4.0,2.0,10,11,,4.35,29.822834,,,TRUE,,,,,,,,FEW,900,OVC,6200,,,,,MVFR,,,,,,,,,,,,METAR,65.0
LFRN 280700Z AUTO 01008KT CAVOK 04/03 Q1011 NOSIG,LFRN,2018-10-28T07:00:00Z,48.07,-1.72,4.0,3.0,10,8,,6.21,29.852362,,,TRUE,,,TRUE,,,,,CAVOK,,,,,,,,VFR,,,,,,,,,,,,METAR,37.0
LFSB 280700Z 02009KT 350V050 9999 -RA SCT012 BKN025 05/03 Q1003 NOSIG,LFSB,2018-10-28T07:00:00Z,47.6,7.52,5.0,3.0,20,9,,6.21,29.616142,,,,,,TRUE,,,,-RA,SCT,1200,BKN,2500,,,,,MVFR,,,,,,,,,,,,METAR,271.0
WSAP 280700Z 10006KT 1000 +TSRA FEW008 FEW014CB SCT016TCU 26/24 Q1009,WSAP,2018-10-28T07:00:00Z,1.37,103.92,26.0,24.0,100,6,,0.62,29.793306,,,,,,,,,,+TSRA,FEW,800,FEW,1400,SCT,1600,,,LIFR,,,,,,,,,,,,METAR,32.0
GCFV 280700Z 33004KT 300V360 9999 FEW025 SCT035 20/17 Q1016,GCFV,2018-10-28T07:00:00Z,28.43,-13.87,20.0,17.0,330,4,,6.21,30.0,,,,,,,,,,,FEW,2500,SCT,3500,,,,,VFR,,,,,,,,,,,,METAR,23.0
GCLP 280700Z 33010KT 9999 FEW018 SCT045TCU BKN055 20/17 Q1017 TEMPO RA,GCLP,2018-10-28T07:00:00Z,27.92,-15.37,20.0,17.0,330,10,,6.21,30.029528,,,,,,,,,,,FEW,1800,SCT,4500,BKN,5500,,,VFR,,,,,,,,,,,,METAR,25.0
GCRR 280700Z 35016KT 9999 FEW017 SCT035 BKN040 19/16 Q1016 RERA,GCRR,2018-10-28T07:00:00Z,28.93,-13.58,19.0,16.0,350,16,,6.21,30.0,,,,,,,,,,,FEW,1700,SCT,3500,BKN,4000,,,VFR,,,,,,,,,,,,METAR,40.0
GCTS 280700Z 05007KT 9999 FEW025 20/15 Q1017 NOSIG,GCTS,2018-10-28T07:00:00Z,28.05,-16.57,20.0,15.0,50,7,,6.21,30.029528,,,,,,TRUE,,,,,FEW,2500,,,,,,,VFR,,,,,,,,,,,,METAR,72.0
GCXO 280700Z 31007KT 280V350 8000 -RA SCT005 BKN010 BKN050 16/15 Q1019 NOSIG,GCXO,2018-10-28T07:00:00Z,28.48,-16.35,16.0,15.0,310,7,,4.97,30.088583,,,,,,TRUE,,,,-RA,SCT,500,BKN,1000,BKN,5000,,,MVFR,,,,,,,,,,,,METAR,632.0
GCLA 280700Z 32009KT 9999 FEW030 BKN060 20/16 Q1018,GCLA,2018-10-28T07:00:00Z,28.62,-17.75,20.0,16.0,320,9,,6.21,30.059055,,,,,,,,,,,FEW,3000,BKN,6000,,,,,VFR,,,,,,,,,,,,METAR,31.0
CYYY 280700Z 06014KT 30SM OVC061 M01/M07 A3027 RMK SC8 SLP255,CYYY,2018-10-28T07:00:00Z,48.6,-68.22,-1.0,-7.0,60,14,,30.0,30.268702,1025.5,,,,,,,,,,OVC,6100,,,,,,,VFR,,,,,,,,,,,,SPECI,52.0
CYXR 280700Z AUTO 01007KT 9SM BKN035 BKN110 OVC130 M01/M05 A2990 RMK SLP137,CYXR,2018-10-28T07:00:00Z,47.7,-79.83,-1.0,-5.0,10,7,,9.0,29.899607,1013.7,,TRUE,,,,,,,,BKN,3500,BKN,11000,OVC,13000,,,VFR,,,,,,,,,,,,SPECI,243.0
CYWA 280700Z AUTO 04004KT 010V080 1 3/4SM -UP OVC006 01/00 A2981 RMK PCPN 0.5MM PAST HR SLP101,CYWA,2018-10-28T07:00:00Z,45.95,-77.32,1.0,0.0,40,4,,1.75,29.811024,1010.1,,TRUE,,,,,,,UP,OVC,600,,,,,,,IFR,,,,,,,,,,,,SPECI,130.0
CYVV 280700Z 11004KT 6SM -RA BR OVC013 02/01 A2980 RMK SF8 SLP098,CYVV,2018-10-28T07:00:00Z,44.75,-81.08,2.0,1.0,110,4,,6.0,29.799213,1009.8,,,,,,,,,-RA BR,OVC,1300,,,,,,,MVFR,,,,,,,,,,,,SPECI,222.0
CYVP 280700Z 25008KT 15SM BKN035 M05/M08 A3033 RMK SC7 SLP275,CYVP,2018-10-28T07:00:00Z,58.12,-68.42,-5.0,-8.0,250,8,,15.0,30.33071,1027.5,,,,,,,,,,BKN,3500,,,,,,,VFR,,,,,,,,,,,,SPECI,60.0
CYTZ 280700Z AUTO 36003KT 310V040 9SM -RA BKN012 BKN018 OVC026 02/01 A2978 RMK SLP089,CYTZ,2018-10-28T07:00:00Z,43.63,-79.4,2.0,1.0,360,3,,9.0,29.778543,1008.9,,TRUE,,,,,,,-RA,BKN,1200,BKN,1800,OVC,2600,,,MVFR,,,,,,,,,,,,SPECI,77.0
CYTS 280700Z 04004KT 15SM OVC130 M03/M05 A2991 RMK AC8 SLP147,CYTS,2018-10-28T07:00:00Z,48.57,-81.37,-3.0,-5.0,40,4,,15.0,29.911417,1014.7,,,,,,,,,,OVC,13000,,,,,,,VFR,,,,,,,,,,,,SPECI,295.0
DAOF 280700Z 27016KT CAVOK 15/11 Q1011,DAOF,2018-10-28T07:00:00Z,27.7,-8.17,15.0,11.0,270,16,,6.21,29.852362,,,,,,,,,,,CAVOK,,,,,,,,VFR,,,,,,,,,,,,SPECI,431.0
DAFH 280700Z 20018KT 9999 FEW030 SCT233 14/11 Q1008,DAFH,2018-10-28T07:00:00Z,32.93,3.32,14.0,11.0,200,18,,6.21,29.763779,,,,,,,,,,,FEW,3000,SCT,23300,,,,,VFR,,,,,,,,,,,,SPECI,774.0
DAAY 280700Z 24012KT 6000 RA SCT026 SCT100 11/09 Q1007,DAAY,2018-10-28T07:00:00Z,33.53,-0.25,11.0,9.0,240,12,,3.73,29.734253,,,,,,,,,,RA,SCT,2600,SCT,10000,,,,,MVFR,,,,,,,,,,,,SPECI,1149.0
DAAP 280700Z 00000KT CAVOK 18/07 Q1014,DAAP,2018-10-28T07:00:00Z,26.72,8.62,18.0,7.0,0,0,,6.21,29.940945,,,,,,,,,,,CAVOK,,,,,,,,VFR,,,,,,,,,,,,SPECI,558.0
CYXS 280700Z AUTO 05006KT 010V080 9SM FEW140 SCT170 BKN190 04/M03 A2967 RMK PRESFR SLP070,CYXS,2018-10-28T07:00:00Z,53.9,-122.68,4.0,-3.0,50,6,,9.0,29.66929,1007.0,,TRUE,,,,,,,,FEW,14000,SCT,17000,BKN,19000,,,VFR,,,,,,,,,,,,SPECI,691.0
CYXE 280700Z 26008KT 15SM BKN070 M00/M05 A2994 RMK AC7 SLP160,CYXE,2018-10-28T07:00:00Z,52.17,-106.7,0.0,-5.0,260,8,,15.0,29.940945,1016.0,,,,,,,,,,BKN,7000,,,,,,,VFR,,,,,,,,,,,,SPECI,504.0
CYXC 280700Z VRB02KT 25SM FEW080 OVC120 04/01 A3003 RMK AC2AC6 SLP188,CYXC,2018-10-28T07:00:00Z,49.6,-115.77,4.0,1.0,0,2,,25.0,30.029528,1018.8,,,,,,,,,,FEW,8000,OVC,12000,,,,,VFR,,,,,,,,,,,,SPECI,939.0
CYQD 280700Z AUTO 29010KT 9SM OVC007 01/00 A2977 RMK SLP095,CYQD,2018-10-28T07:00:00Z,53.97,-101.08,1.0,0.0,290,10,,9.0,29.769686,1009.5,,TRUE,,,,,,,,OVC,700,,,,,,,IFR,,,,,,,,,,,,SPECI,271.0
CYPR 280700Z AUTO 12010KT 9SM -RA OVC060 12/02 A2934 RMK SLP937 DENSITY ALT 400FT,CYPR,2018-10-28T07:00:00Z,54.28,-130.42,12.0,2.0,120,10,,9.0,29.338583,993.7,,TRUE,,,,,,,-RA,OVC,6000,,,,,,,VFR,,,,,,,,,,,,SPECI,34.0
CYKY 280700Z 28015G20KT 15SM SKC M00/M06 A2998 RMK SLP175,CYKY,2018-10-28T07:00:00Z,51.52,-109.17,0.0,-6.0,280,15,20,15.0,29.97933,1017.5,,,,,,,,,,SKC,,,,,,,,VFR,,,,,,,,,,,,SPECI,694.0
CYIV 280700Z 18003KT 15SM FEW007 BKN020 03/02 A2969 RMK SC2SC5 SLP067,CYIV,2018-10-28T07:00:00Z,53.85,-94.65,3.0,2.0,180,3,,15.0,29.68996,1006.7,,,,,,,,,,FEW,700,BKN,2000,,,,,MVFR,,,,,,,,,,,,SPECI,237.0
CYHE 280700Z AUTO 11012G18KT 9SM -RA SCT038 OVC075 09/08 A2980 RMK SLP094,CYHE,2018-10-28T07:00:00Z,49.37,-121.5,9.0,8.0,110,12,18,9.0,29.799213,1009.4,,TRUE,,,,,,,-RA,SCT,3800,OVC,7500,,,,,VFR,,,,,,,,,,,,SPECI,39.0
CYEV 280700Z 04002KT 15SM -SN BKN013 OVC060 M06/M07 A2976 RMK SC5SC3 SLP087,CYEV,2018-10-28T07:00:00Z,68.32,-133.5,-6.0,-7.0,40,2,,15.0,29.760826,1008.7,,,,,,,,,-SN,BKN,1300,OVC,6000,,,,,MVFR,,,,,,,,,,,,SPECI,68.0
CYDQ 280700Z AUTO 00000KT 9SM CLR M05/M07 A2986 RMK SLP141,CYDQ,2018-10-28T07:00:00Z,55.75,-120.17,-5.0,-7.0,0,0,,9.0,29.861221,1014.1,,TRUE,,,,,,,,CLR,,,,,,,,VFR,,,,,,,,,,,,SPECI,655.0
CWVI 280700Z AUTO 24007KT M01/M03 RMK AO1 SLP160 T10131032 50001,CWVI,2018-10-28T07:00:00Z,53.52,-112.1,-1.3,-3.2,240,7,,,,1016.0,,TRUE,TRUE,,,,,,,,,,,,,,,,0.1,,,,,,,,,,,METAR,639.0
CWVN 280700Z AUTO 06003KT M08/M09 RMK AO1 SLP195 T10771094 51006,CWVN,2018-10-28T07:00:00Z,49.07,-107.57,-7.7,-9.4,60,3,,,,1019.5,,TRUE,TRUE,,,,,,,,,,,,,,,,0.6,,,,,,,,,,,METAR,785.0
FYLZ 280700Z AUTO 34016KT //// // ////// 20/15 Q1013,FYLZ,2018-10-28T07:00:00Z,-26.67,15.25,20.0,15.0,340,16,,,29.911417,,,TRUE,,,,,,,,,,,,,,,,,,,,,,,,,,,,METAR,130.0
FYOW 280700Z AUTO 11004KT //// // ////// 27/05 Q1022,FYOW,2018-10-28T07:00:00Z,-20.43,16.67,27.0,5.0,110,4,,,30.177166,,,TRUE,,,,,,,,,,,,,,,,,,,,,,,,,,,,METAR,1481.0
FYOA 280700Z 15011KT CAVOK 28/11 Q1019,FYOA,2018-10-28T07:00:00Z,-17.88,15.97,28.0,11.0,150,11,,6.21,30.088583,,,,,,,,,,,CAVOK,,,,,,,,VFR,,,,,,,,,,,,METAR,1095.0
FYML 280700Z AUTO 04004KT //// // ////// 30/04 Q1023,FYML,2018-10-28T07:00:00Z,-24.6,17.93,30.0,4.0,40,4,,,30.206694,,,TRUE,,,,,,,,,,,,,,,,,,,,,,,,,,,,METAR,1113.0
VTSK 280700Z 02010KT 9999 VCSH FEW018CB SCT025 BKN100 BKN300 32/24 Q1009 RMK CB N-NE MOV SW VCSH N-NE,VTSK,2018-10-28T07:00:00Z,6.77,101.15,32.0,24.0,20,10,,6.21,29.793306,,,,,,,,,,VCSH,FEW,1800,SCT,2500,BKN,10000,BKN,30000,VFR,,,,,,,,,,,,METAR,9.0
VTSH 280700Z 03006KT 9999 FEW018CB SCT100 31/24 Q1008 NOSIG,VTSH,2018-10-28T07:00:00Z,7.2,100.58,31.0,24.0,30,6,,6.21,29.763779,,,,,,TRUE,,,,,FEW,1800,SCT,10000,,,,,VFR,,,,,,,,,,,,METAR,5.0
FQCH 280700Z VRB02KT 9999 FEW015 22/14 Q1025,FQCH,2018-10-28T07:00:00Z,-19.15,33.43,22.0,14.0,0,2,,6.21,30.265747,,,,,,,,,,,FEW,1500,,,,,,,VFR,,,,,,,,,,,,METAR,732.0
FYWW 280700Z AUTO 07003KT //// // ////// 28/03 Q1026,FYWW,2018-10-28T07:00:00Z,-22.57,17.1,28.0,3.0,70,3,,,30.295275,,,TRUE,,,,,,,,,,,,,,,,,,,,,,,,,,,,METAR,1725.0
FYWH 280700Z 07003KT CAVOK 24/03 Q1028 NOSIG,FYWH,2018-10-28T07:00:00Z,-22.47,17.47,24.0,3.0,70,3,,6.21,30.35433,,,,,,TRUE,,,,,CAVOK,,,,,,,,VFR,,,,,,,,,,,,METAR,1700.0
FYRN 280700Z 09015KT CAVOK 27/01 Q1022,FYRN,2018-10-28T07:00:00Z,-20.02,13.85,27.0,1.0,90,15,,6.21,30.177166,,,,,,,,,,,CAVOK,,,,,,,,VFR,,,,,,,,,,,,METAR,756.0
GCGM 280700Z VRB04KT 9999 FEW030 20/15 Q1017 RMK R09/30003KT 270V350 ARP/29003KT 240V350,GCGM,2018-10-28T07:00:00Z,28.03,-17.22,20.0,15.0,0,4,,6.21,30.029528,,,,,,,,,,,FEW,3000,,,,,,,VFR,,,,,,,,,,,,METAR,219.0
GCHI 280700Z 32011KT 9999 -RA FEW016 BKN030 20/19 Q1017 RERA,GCHI,2018-10-28T07:00:00Z,27.82,-17.87,20.0,19.0,320,11,,6.21,30.029528,,,,,,,,,,-RA,FEW,1600,BKN,3000,,,,,MVFR,,,,,,,,,,,,METAR,30.0
LEAG 280700Z AUTO 33011KT 300V060 CAVOK 11/04 Q1004,LEAG,2018-10-28T07:00:00Z,,,11.0,4.0,330,11,,6.21,29.64567,,,TRUE,,,,,,,,CAVOK,,,,,,,,VFR,,,,,,,,,,,,METAR,
LEBG 280700Z 01006KT 340V050 9999 SCT010 SCT030 01/00 Q1003,LEBG,2018-10-28T07:00:00Z,42.37,-3.62,1.0,0.0,10,6,,6.21,29.616142,,,,,,,,,,,SCT,1000,SCT,3000,,,,,VFR,,,,,,,,,,,,METAR,891.0
LECH 280700Z AUTO 28004KT 240V320 CAVOK 08/M01 Q0998,LECH,2018-10-28T07:00:00Z,40.2,0.07,8.0,-1.0,280,4,,6.21,29.468504,,,TRUE,,,,,,,,CAVOK,,,,,,,,VFR,,,,,,,,,,,,METAR,337.0
LETL 280700Z AUTO 35011KT 9999 OVC031/// 01/M01 Q0999,LETL,2018-10-28T07:00:00Z,40.42,-1.22,1.0,-1.0,350,11,,6.21,29.498032,,,TRUE,,,,,,,,OVC,3100,,,,,,,VFR,,,,,,,,,,,,METAR,1013.0
LEAL 280700Z 28012KT 9999 FEW025 10/03 Q0999 NOSIG,LEAL,2018-10-28T07:00:00Z,38.27,-0.55,10.0,3.0,280,12,,6.21,29.498032,,,,,,TRUE,,,,,FEW,2500,,,,,,,VFR,,,,,,,,,,,,METAR,31.0
UMKK 280700Z 06004MPS 9999 SCT028 06/03 Q1015 R06/29//60 NOSIG RMK QFE760/1014,UMKK,2018-10-28T07:00:00Z,54.88,20.6,6.0,3.0,60,8,,6.21,29.970472,,,,,,TRUE,,,,,SCT,2800,,,,,,,VFR,,,,,,,,,,,,METAR,21.0
ULOO 280700Z 01005MPS P5000 OVC022 02/00 Q1009 R19/290050 NOSIG RMK QFE753,ULOO,2018-10-28T07:00:00Z,57.78,28.4,2.0,0.0,10,10,,3.11,29.793306,,,,,,TRUE,,,,,OVC,2200,,,,,,,MVFR,,,,,,,,,,,,METAR,47.0
CMFM 280700Z AUTO 06007G17KT M02/M04 RMK AO1 7PAST HR SOG 05 8032 PK WND 10020/0633 SLP149 P0007 T10201037 50017,CMFM,2018-10-28T07:00:00Z,47.32,-71.15,-2.0,-3.7,60,7,17,,,1014.9,,TRUE,TRUE,,,,,,,,,,,,,,,,1.7,,,,,0.07,,,,,,METAR,672.0
CWST 280700Z AUTO 04015G21KT M02/M02 RMK AO1 2PAST HR 8028 PK WND 05022/0649 SLP188 P0012 T10201020 50032,CWST,2018-10-28T07:00:00Z,47.35,-70.02,-2.0,-2.0,40,15,21,,,1018.8,,TRUE,TRUE,,,,,,,,,,,,,,,,3.2,,,,,0.12,,,,,,METAR,31.0
CWSR 280700Z AUTO 30007KT 05/M01 RMK AO1 SOG 02 3010 SLP131 T00501009,CWSR,2018-10-28T07:00:00Z,53.37,-107.53,5.0,-0.9,300,7,,,,1013.1,,TRUE,TRUE,,,,,,,,,,,,,,,,,,,,,,,,,,,METAR,584.0
CWSK 280700Z AUTO 34003KT 08/07 RMK AO1 6PAST HR 6030 SLP064 P0002 T00770072 50006,CWSK,2018-10-28T07:00:00Z,49.78,-123.17,7.7,7.2,340,3,,,,1006.4,,TRUE,TRUE,,,,,,,,,,,,,,,,0.6,,,,,0.02,,,,,,METAR,60.0
CWSG 280700Z AUTO 11001KT M04/M06 RMK AO1 SLP268 T10351055 57025,CWSG,2018-10-28T07:00:00Z,49.12,-66.65,-3.5,-5.5,110,1,,,,1026.8,,TRUE,TRUE,,,,,,,,,,,,,,,,-2.5,,,,,,,,,,,METAR,5.0
CWSL 280700Z AUTO 19003KT 07/05 RMK AO1 SLP156 T00740053 56005,CWSL,2018-10-28T07:00:00Z,50.7,-119.27,7.4,5.3,190,3,,,,1015.6,,TRUE,TRUE,,,,,,,,,,,,,,,,-0.5,,,,,,,,,,,METAR,351.0
ZHHH 280700Z 27003MPS 210V300 CAVOK 26/08 Q1017 NOSIG,ZHHH,2018-10-28T07:00:00Z,30.78,114.22,26.0,8.0,270,6,,6.21,30.029528,,,,,,TRUE,,,,,CAVOK,,,,,,,,VFR,,,,,,,,,,,,METAR,33.0
LEBL 280700Z 30009KT 8000 RA FEW012 SCT027 BKN038 09/07 Q0999 NOSIG,LEBL,2018-10-28T07:00:00Z,41.27,2.07,9.0,7.0,300,9,,4.97,29.498032,,,,,,TRUE,,,,RA,FEW,1200,SCT,2700,BKN,3800,,,MVFR,,,,,,,,,,,,METAR,6.0
FBFT 280700Z 08012KT CAVOK 26/07 Q1024,FBFT,2018-10-28T07:00:00Z,-21.17,27.48,26.0,7.0,80,12,,6.21,30.236221,,,,,,,,,,,CAVOK,,,,,,,,VFR,,,,,,,,,,,,METAR,1000.0
LIPU 280700Z 15006KT 120V180 9999 RA BKN030 18/16 Q0999,LIPU,2018-10-28T07:00:00Z,45.38,11.83,18.0,16.0,150,6,,6.21,29.498032,,,,,,,,,,RA,BKN,3000,,,,,,,MVFR,,,,,,,,,,,,SPECI,14.0
EINN 280700Z 32005KT CAVOK M01/M02 Q1028 NOSIG,EINN,2018-10-28T07:00:00Z,52.7,-8.92,-1.0,-2.0,320,5,,6.21,30.35433,,,,,,TRUE,,,,,CAVOK,,,,,,,,VFR,,,,,,,,,,,,METAR,20.0
VVDN 280700Z 06009KT 020V100 8000 SCT013 FEW017TCU 29/23 Q1014 NOSIG,VVDN,2018-10-28T07:00:00Z,16.02,108.2,29.0,23.0,60,9,,4.97,29.940945,,,,,,TRUE,,,,,SCT,1300,FEW,1700,,,,,MVFR,,,,,,,,,,,,METAR,7.0
VVTS 280700Z 06007KT 020V090 9999 SCT017 35/21 Q1008 NOSIG,VVTS,2018-10-28T07:00:00Z,10.82,106.67,35.0,21.0,60,7,,6.21,29.763779,,,,,,TRUE,,,,,SCT,1700,,,,,,,VFR,,,,,,,,,,,,METAR,19.0
VVPB 280700Z 05011KT 9999 SCT020 SCT035 32/24 Q1014 NOSIG,VVPB,2018-10-28T07:00:00Z,16.38,107.7,32.0,24.0,50,11,,6.21,29.940945,,,,,,TRUE,,,,,SCT,2000,SCT,3500,,,,,VFR,,,,,,,,,,,,METAR,17.0
VVNB 280700Z 36006KT CAVOK 27/20 Q1016 NOSIG,VVNB,2018-10-28T07:00:00Z,21.22,105.8,27.0,20.0,360,6,,6.21,30.0,,,,,,TRUE,,,,,CAVOK,,,,,,,,VFR,,,,,,,,,,,,METAR,12.0
VVCT 280700Z 05002KT 9999 SCT017 33/25 Q1009 NOSIG,VVCT,2018-10-28T07:00:00Z,10.08,105.72,33.0,25.0,50,2,,6.21,29.793306,,,,,,TRUE,,,,,SCT,1700,,,,,,,VFR,,,,,,,,,,,,METAR,3.0
VVCR 280700Z 07018KT 9999 FEW013 31/25 Q1011 NOSIG,VVCR,2018-10-28T07:00:00Z,12.0,109.22,31.0,25.0,70,18,,6.21,29.852362,,,,,,TRUE,,,,,FEW,1300,,,,,,,VFR,,,,,,,,,,,,METAR,12.0
VVCI 280700Z 14004KT 9999 SCT038 BKN045 28/21 Q1015 NOSIG,VVCI,2018-10-28T07:00:00Z,20.82,106.73,28.0,21.0,140,4,,6.21,29.970472,,,,,,TRUE,,,,,SCT,3800,BKN,4500,,,,,VFR,,,,,,,,,,,,METAR,3.0
VYNT 280700Z 24007KT 7000 SCT020 FEW025TCU SCT120 33/24 Q1012,VYNT,2018-10-28T07:00:00Z,19.62,96.2,33.0,24.0,240,7,,4.35,29.88189,,,,,,,,,,,SCT,2000,FEW,2500,SCT,12000,,,MVFR,,,,,,,,,,,,METAR,610.0
VYYY 280700Z 09008KT 9000 BKN015 FEW025CB 34/24 Q1010,VYYY,2018-10-28T07:00:00Z,16.9,96.13,34.0,24.0,90,8,,5.59,29.822834,,,,,,,,,,,BKN,1500,FEW,2500,,,,,MVFR,,,,,,,,,,,,METAR,33.0
VLVT 280700Z 16002KT 7000 SCT020 SCT200 32/21 Q1013 NOSIG,VLVT,2018-10-28T07:00:00Z,17.98,102.57,32.0,21.0,160,2,,4.35,29.911417,,,,,,TRUE,,,,,SCT,2000,SCT,20000,,,,,MVFR,,,,,,,,,,,,METAR,171.0
VDSV 280700Z 26006KT 9999 SCT015 31/25 Q1010,VDSV,2018-10-28T07:00:00Z,10.58,103.63,31.0,25.0,260,6,,6.21,29.822834,,,,,,,,,,,SCT,1500,,,,,,,VFR,,,,,,,,,,,,METAR,10.0
VDSR 280700Z VRB02KT 9999 SCT015 33/21 Q1009,VDSR,2018-10-28T07:00:00Z,13.42,103.83,33.0,21.0,0,2,,6.21,29.793306,,,,,,,,,,,SCT,1500,,,,,,,VFR,,,,,,,,,,,,METAR,15.0
VDPP 280700Z 06013KT 350V090 9999 FEW015 33/23 Q1009,VDPP,2018-10-28T07:00:00Z,11.55,104.83,33.0,23.0,60,13,,6.21,29.793306,,,,,,,,,,,FEW,1500,,,,,,,VFR,,,,,,,,,,,,METAR,10.0
CZCP 280700Z AUTO 20012KT ////SM //// OVC010 M04/M05 A2972,CZCP,2018-10-28T07:00:00Z,70.17,-124.72,-4.0,-5.0,200,12,,,29.719488,,,TRUE,,,,,,,,OVC,1000,,,,,,,,,,,,,,,,,,,SPECI,93.0
CYCA 280700Z AUTO 22008KT 9SM OVC038 M04/M10 A3038 RMK SLP290,CYCA,2018-10-28T07:00:00Z,53.68,-57.03,-4.0,-10.0,220,8,,9.0,30.380905,1029.0,,TRUE,,,,,,,,OVC,3800,,,,,,,VFR,,,,,,,,,,,,METAR,12.0
CWUW 280700Z AUTO 30007KT ////SM //// NCD M15/M19 A2975,CWUW,2018-10-28T07:00:00Z,68.65,-71.17,-15.0,-19.0,300,7,,,29.749016,,,TRUE,,,,,,,,CLR,,,,,,,,,,,,,,,,,,,,SPECI,527.0
CWRX 280700Z AUTO 36007KT ////SM //// NCD M14/M15 A2999,CWRX,2018-10-28T07:00:00Z,69.07,-79.02,-14.0,-15.0,360,7,,,29.991142,,,TRUE,,,,,,,,CLR,,,,,,,,,,,,,,,,,,,,SPECI,41.0
CWPX 280700Z AUTO 06012KT ////SM //// OVC003 M10/M11 A2985,CWPX,2018-10-28T07:00:00Z,69.02,-107.82,-10.0,-11.0,60,12,,,29.84941,,,TRUE,,,,,,,,OVC,300,,,,,,,,,,,,,,,,,,,METAR,165.0
CWLI 280700Z AUTO 25014KT ////SM //// OVC006 M05/M05 A2968,CWLI,2018-10-28T07:00:00Z,69.58,-130.9,-5.0,-5.0,250,14,,,29.681103,,,TRUE,,,,,,,,OVC,600,,,,,,,,,,,,,,,,,,,SPECI,102.0
CWIL 280700Z AUTO 07016KT ////SM BKN007 OVC015 M07/M08 A2981,CWIL,2018-10-28T07:00:00Z,68.32,-100.07,-7.0,-8.0,70,16,,,29.811024,,,TRUE,,,,,,,,BKN,700,OVC,1500,,,,,,,,,,,,,,,,,SPECI,36.0
CYYG 280700Z 07018G26KT 10SM RA OVC006 03/02 A3015 RMK SF8 PRESFR SLP212,CYYG,2018-10-28T07:00:00Z,46.27,-63.12,3.0,2.0,70,18,26,10.0,30.15059,1021.2,,,,,,,,,RA,OVC,600,,,,,,,IFR,,,,,,,,,,,,SPECI,54.0
CYSJ 280700Z 06014G23KT 3SM RA BR OVC008 05/04 A2992 RMK SF8 PRESFR SLP139,CYSJ,2018-10-28T07:00:00Z,45.32,-65.87,5.0,4.0,60,14,23,3.0,29.920275,1013.9,,,,,,,,,RA BR,OVC,800,,,,,,,IFR,,,,,,,,,,,,SPECI,109.0
CYGW 280700Z AUTO 12010G16KT 9SM CLR M04/M08 A3022 RMK SLP237,CYGW,2018-10-28T07:00:00Z,55.27,-77.77,-4.0,-8.0,120,10,16,9.0,30.221457,1023.7,,TRUE,,,,,,,,CLR,,,,,,,,VFR,,,,,,,,,,,,SPECI,12.0
CYCX 280700Z 06012G22KT 2SM -RA BR OVC006 01/01 A3000 RMK ST8 DA-1458FT CIG VRB 4-8 SLP160,CYCX,2018-10-28T07:00:00Z,45.82,-66.42,1.0,1.0,60,12,22,2.0,30.0,1016.0,,,,,,,,,-RA BR,OVC,600,,,,,,,IFR,,,,,,,,,,,,SPECI,51.0
CYAY 280700Z AUTO 25006KT 9SM CLR M04/M08 A3053 RMK ICG SLP341,CYAY,2018-10-28T07:00:00Z,51.38,-56.07,-4.0,-8.0,250,6,,9.0,30.528543,1034.1,,TRUE,,,,,,,,CLR,,,,,,,,VFR,,,,,,,,,,,,SPECI,28.0
CZUM 280700Z AUTO 28005KT 9SM OVC031 M08/M13 A3036 RMK SLP317,CZUM,2018-10-28T07:00:00Z,53.53,-64.08,-8.0,-13.0,280,5,,9.0,30.360237,1031.7,,TRUE,,,,,,,,OVC,3100,,,,,,,VFR,,,,,,,,,,,,SPECI,440.0
CZPC 280700Z AUTO 27011KT 9SM OVC140 05/M04 A2999 RMK SLP170,CZPC,2018-10-28T07:00:00Z,49.52,-114.0,5.0,-4.0,270,11,,9.0,29.991142,1017.0,,TRUE,,,,,,,,OVC,14000,,,,,,,VFR,,,,,,,,,,,,SPECI,1190.0
CWWU 280700Z 16005KT 15SM FEW027 BKN130 01/M01 A3059 RMK SC2AC4 SLP359,CWWU,2018-10-28T07:00:00Z,47.52,-52.98,1.0,-1.0,160,5,,15.0,30.590551,1035.9,,,,,,,,,,FEW,2700,BKN,13000,,,,,VFR,,,,,,,,,,,,SPECI,13.0
CWSA 280700Z AUTO 11024G32KT 2 1/2SM BR SCT012 BKN019 BKN040 OVC075 12/11 A3017 RMK SLP217,CWSA,2018-10-28T07:00:00Z,43.93,-60.0,12.0,11.0,110,24,32,2.5,30.171259,1021.7,,TRUE,,,,,,,BR,SCT,1200,BKN,1900,BKN,4000,OVC,7500,IFR,,,,,,,,,,,,SPECI,4.0
CWFD 280700Z AUTO 35027G35KT ////SM //// BKN005 BKN012 OVC039 ///// A////,CWFD,2018-10-28T07:00:00Z,66.57,-61.58,,,350,27,35,,,,,TRUE,,,,,,,,BKN,500,BKN,1200,OVC,3900,,,,,,,,,,,,,,,SPECI,393.0
ROMY 280700Z 02014G27KT 350V050 9999 SCT040 SCT/// 23/13 Q1013,ROMY,2018-10-28T07:00:00Z,24.77,125.27,23.0,13.0,20,14,27,6.21,29.911417,,,,,,,,,,,SCT,4000,,,,,,,VFR,,,,,,,,,,,,METAR,41.0
RJCN 280700Z 22007KT 9999 FEW030 13/05 Q1006,RJCN,2018-10-28T07:00:00Z,43.57,144.97,13.0,5.0,220,7,,6.21,29.704725,,,,,,,,,,,FEW,3000,,,,,,,VFR,,,,,,,,,,,,METAR,70.0
DAAD 280700Z 16004KT 9999 FEW030 SCT100 15/13 Q1005,DAAD,2018-10-28T07:00:00Z,35.32,4.2,15.0,13.0,160,4,,6.21,29.675198,,,,,,,,,,,FEW,3000,SCT,10000,,,,,VFR,,,,,,,,,,,,SPECI,461.0
CWWA 280700Z AUTO 07004KT 11/09 RMK AO1 7PAST HR 8008 SLP056 P0003 T01070092 50007,CWWA,2018-10-28T07:00:00Z,49.35,-123.17,10.7,9.2,70,4,,,,1005.6,,TRUE,TRUE,,,,,,,,,,,,,,,,0.7,,,,,0.03,,,,,,METAR,178.0
CWVQ 280700Z AUTO 04015G23KT 01/M00 RMK AO1 PK WND 02023/0656 SLP080 T00101002 57026,CWVQ,2018-10-28T07:00:00Z,45.42,-73.92,1.0,-0.2,40,15,23,,,1008.0,,TRUE,TRUE,,,,,,,,,,,,,,,,-2.6,,,,,,,,,,,METAR,39.0
CWVP 280700Z AUTO 23002KT 00/M08 RMK AO1 SLP179 T00001077 51001,CWVP,2018-10-28T07:00:00Z,49.63,-109.52,0.0,-7.7,230,2,,,,1017.9,,TRUE,TRUE,,,,,,,,,,,,,,,,0.1,,,,,,,,,,,METAR,1271.0
CWWF 280700Z AUTO 30009KT 02/M02 RMK AO1 SOG 01 1010 SLP156 T00221020,CWWF,2018-10-28T07:00:00Z,49.7,-103.8,2.2,-2.0,300,9,,,,1015.6,,TRUE,TRUE,,,,,,,,,,,,,,,,,,,,,,,,,,,METAR,589.0
CWXA 280700Z AUTO 24005KT 03/M08 RMK AO1 SLP158 T00331082 58010,CWXA,2018-10-28T07:00:00Z,51.07,-115.07,3.3,-8.2,240,5,,,,1015.8,,TRUE,TRUE,,,,,,,,,,,,,,,,-1.0,,,,,,,,,,,METAR,1298.0
CERM 280700Z AUTO 11001KT M01/M02 RMK AO1 7PAST HR 8033 SLP206 P0022 T10071023 50057,CERM,2018-10-28T07:00:00Z,47.42,-68.32,-0.7,-2.3,110,1,,,,1020.6,,TRUE,TRUE,,,,,,,,,,,,,,,,5.7,,,,,0.22,,,,,,METAR,154.0
CWBK 280700Z AUTO 10029KT 05/04 RMK AO1 2PAST HR 8047 PK WND 09039/0609 SLP205 P0009 T00510040 50022,CWBK,2018-10-28T07:00:00Z,45.77,-62.67,5.1,4.0,100,29,,,,1020.5,,TRUE,TRUE,,,,,,,,,,,,,,,,2.2,,,,,0.09,,,,,,METAR,2.0
CWXI 280700Z AUTO 29011KT M00/M10 RMK AO1 PK WND 30017/0635 SLP339 T10031096 53011,CWXI,2018-10-28T07:00:00Z,51.02,-57.1,-0.3,-9.6,290,11,,,,1033.9,,TRUE,TRUE,,,,,,,,,,,,,,,,1.1,,,,,,,,,,,METAR,6.0
CXNP 280700Z AUTO 06011G18KT 04/03 RMK AO1 5PAST HR 6044 PK WND 07023/0639 SLP179 P0018 T00400030 50045,CXNP,2018-10-28T07:00:00Z,45.75,-64.23,4.0,3.0,60,11,18,,,1017.9,,TRUE,TRUE,,,,,,,,,,,,,,,,4.5,,,,,0.18,,,,,,METAR,20.0
KFDK 280700Z AUTO 00000KT 10SM OVC075 08/08 A2976 RMK AO2,KFDK,2018-10-28T07:00:00Z,39.42,-77.37,8.0,8.0,0,0,,10.0,29.760826,,,TRUE,TRUE,,,,,,,OVC,7500,,,,,,,VFR,,,,,,,,,,,,SPECI,92.0
KEHO 280700Z AUTO 00000KT 10SM CLR 07/04 A2995 RMK AO2 T00690043,KEHO,2018-10-28T07:00:00Z,35.25,-81.6,6.9,4.3,0,0,,10.0,29.949802,,,TRUE,TRUE,,,,,,,CLR,,,,,,,,VFR,,,,,,,,,,,,SPECI,258.0
KEDE 280700Z AUTO 27007KT 10SM CLR 13/12 A2984 RMK AO2 T01320119,KEDE,2018-10-28T07:00:00Z,36.02,-76.57,13.2,11.9,270,7,,10.0,29.840551,,,TRUE,TRUE,,,,,,,CLR,,,,,,,,VFR,,,,,,,,,,,,SPECI,6.0
KDMW 280700Z AUTO 00000KT 10SM -DZ SCT033 BKN038 OVC070 08/06 A2972 RMK AO2,KDMW,2018-10-28T07:00:00Z,39.6,-77.0,8.0,6.0,0,0,,10.0,29.719488,,,TRUE,TRUE,,,,,,-DZ,SCT,3300,BKN,3800,OVC,7000,,,VFR,,,,,,,,,,,,SPECI,241.0
KCTZ 280700Z AUTO 27003KT 10SM SCT090 12/10 A2990 RMK AO2 T01170104,KCTZ,2018-10-28T07:00:00Z,34.98,-78.37,11.7,10.4,270,3,,10.0,29.899607,,,TRUE,TRUE,,,,,,,SCT,9000,,,,,,,VFR,,,,,,,,,,,,SPECI,45.0
KCGE 280700Z AUTO 22004KT 7SM BKN004 BKN017 OVC037 10/10 A2976 RMK A01,KCGE,2018-10-28T07:00:00Z,38.53,-76.03,10.0,10.0,220,4,,7.0,29.760826,,,TRUE,TRUE,,,,,,,BKN,400,BKN,1700,OVC,3700,,,LIFR,,,,,,,,,,,,SPECI,6.0
KCBE 280700Z AUTO 26005KT 10SM BKN029 OVC034 09/06 A2978 RMK AO2 T00930059,KCBE,2018-10-28T07:00:00Z,39.62,-78.77,9.3,5.9,260,5,,10.0,29.778543,,,TRUE,TRUE,,,,,,,BKN,2900,OVC,3400,,,,,MVFR,,,,,,,,,,,,SPECI,236.0
KAFP 280700Z AUTO 00000KT 10SM CLR 08/06 A2994 RMK AO2 T00790060,KAFP,2018-10-28T07:00:00Z,35.02,-80.08,7.9,6.0,0,0,,10.0,29.940945,,,TRUE,TRUE,,,,,,,CLR,,,,,,,,VFR,,,,,,,,,,,,SPECI,92.0
KW29 280700Z AUTO 23004KT 10SM OVC060 10/08 A2974 RMK AO2,KW29,2018-10-28T07:00:00Z,38.98,-76.33,10.0,8.0,230,4,,10.0,29.740158,,,TRUE,TRUE,,,,,,,OVC,6000,,,,,,,VFR,,,,,,,,,,,,SPECI,15.0
KSIF 280700Z AUTO 10SM CLR 05/04 A2988 RMK AO2 T00540044,KSIF,2018-10-28T07:00:00Z,36.43,-79.85,5.4,4.4,,,,10.0,29.878937,,,TRUE,TRUE,,,,,,,CLR,,,,,,,,VFR,,,,,,,,,,,,SPECI,211.0
KSCR 280700Z AUTO 00000KT 10SM CLR 05/05 A2990 RMK AO2 T00530045,KSCR,2018-10-28T07:00:00Z,35.7,-79.5,5.3,4.5,0,0,,10.0,29.899607,,,TRUE,TRUE,,,,,,,CLR,,,,,,,,VFR,,,,,,,,,,,,SPECI,188.0
KRUQ 280700Z AUTO 23003KT 10SM CLR 08/04 A2991 RMK AO2 T00770042,KRUQ,2018-10-28T07:00:00Z,35.65,-80.52,7.7,4.2,230,3,,10.0,29.911417,,,TRUE,TRUE,,,,,,,CLR,,,,,,,,VFR,,,,,,,,,,,,SPECI,236.0
KRCZ 280700Z AUTO 27005KT 10SM CLR 09/08 A2994 RMK AO2 T00870081,KRCZ,2018-10-28T07:00:00Z,34.88,-79.77,8.7,8.1,270,5,,10.0,29.940945,,,TRUE,TRUE,,,,,,,CLR,,,,,,,,VFR,,,,,,,,,,,,SPECI,109.0
RJAH 280700Z 05007KT 9999 FEW030 SCT050 18/10 Q1008,RJAH,2018-10-28T07:00:00Z,36.17,140.42,18.0,10.0,50,7,,6.21,29.763779,,,,,,,,,,,FEW,3000,SCT,5000,,,,,VFR,,,,,,,,,,,,METAR,35.0
RJFR 280700Z 26014KT 9999 FEW025 18/04 Q1011,RJFR,2018-10-28T07:00:00Z,33.82,131.03,18.0,4.0,260,14,,6.21,29.852362,,,,,,,,,,,FEW,2500,,,,,,,VFR,,,,,,,,,,,,METAR,6.0
RJEC 280700Z 28004KT 250V320 9999 -SHRA FEW005 SCT020 BKN035 08/06 Q1007,RJEC,2018-10-28T07:00:00Z,43.67,142.43,8.0,6.0,280,4,,6.21,29.734253,,,,,,,,,,-SHRA,FEW,500,SCT,2000,BKN,3500,,,VFR,,,,,,,,,,,,METAR,211.0
RJFM 280700Z 27013KT 9999 FEW030 21/05 Q1012,RJFM,2018-10-28T07:00:00Z,31.87,131.43,21.0,5.0,270,13,,6.21,29.88189,,,,,,,,,,,FEW,3000,,,,,,,VFR,,,,,,,,,,,,METAR,9.0
RJOK 280700Z 23008KT 9999 FEW030 20/04 Q1010,RJOK,2018-10-28T07:00:00Z,33.52,133.67,20.0,4.0,230,8,,6.21,29.822834,,,,,,,,,,,FEW,3000,,,,,,,VFR,,,,,,,,,,,,METAR,10.0
RJOM 280700Z 24012KT 9999 FEW025 SCT040 17/07 Q1012,RJOM,2018-10-28T07:00:00Z,33.82,132.68,17.0,7.0,240,12,,6.21,29.88189,,,,,,,,,,,FEW,2500,SCT,4000,,,,,VFR,,,,,,,,,,,,METAR,7.0
RJSF 280700Z 35005KT 9999 FEW040 SCT050 BKN060 15/08 Q1009,RJSF,2018-10-28T07:00:00Z,37.22,140.42,15.0,8.0,350,5,,6.21,29.793306,,,,,,,,,,,FEW,4000,SCT,5000,BKN,6000,,,VFR,,,,,,,,,,,,METAR,375.0
RJSA 280700Z 22004KT 9999 -SHRA FEW005 SCT030 BKN040 11/08 Q1008,RJSA,2018-10-28T07:00:00Z,40.72,140.68,11.0,8.0,220,4,,6.21,29.763779,,,,,,,,,,-SHRA,FEW,500,SCT,3000,BKN,4000,,,VFR,,,,,,,,,,,,METAR,201.0
RJNS 280700Z 24013KT 9999 FEW025 19/07 Q1008,RJNS,2018-10-28T07:00:00Z,34.8,138.18,19.0,7.0,240,13,,6.21,29.763779,,,,,,,,,,,FEW,2500,,,,,,,VFR,,,,,,,,,,,,METAR,135.0
RJFS 280700Z 24009KT 190V270 9999 FEW050 19/08 Q1012,RJFS,2018-10-28T07:00:00Z,33.15,130.3,19.0,8.0,240,9,,6.21,29.88189,,,,,,,,,,,FEW,5000,,,,,,,VFR,,,,,,,,,,,,METAR,5.0
ROIG 280700Z 03021KT 9999 BKN040 BKN/// 23/13 Q1013,ROIG,2018-10-28T07:00:00Z,24.32,124.17,23.0,13.0,30,21,,6.21,29.911417,,,,,,,,,,,BKN,4000,,,,,,,VFR,,,,,,,,,,,,METAR,7.0
RJOH 280700Z 24013G23KT 9999 FEW040 SCT060 17/01 Q1011,RJOH,2018-10-28T07:00:00Z,35.47,133.25,17.0,1.0,240,13,23,6.21,29.852362,,,,,,,,,,,FEW,4000,SCT,6000,,,,,VFR,,,,,,,,,,,,METAR,9.0
RJOC 280700Z 22013KT 9999 FEW035 SCT050 17/04 Q1010,RJOC,2018-10-28T07:00:00Z,35.42,132.87,17.0,4.0,220,13,,6.21,29.822834,,,,,,,,,,,FEW,3500,SCT,5000,,,,,VFR,,,,,,,,,,,,METAR,5.0
RJCB 280700Z 17009KT 9999 FEW040 SCT070 13/04 Q1006,RJCB,2018-10-28T07:00:00Z,42.72,143.22,13.0,4.0,170,9,,6.21,29.704725,,,,,,,,,,,FEW,4000,SCT,7000,,,,,VFR,,,,,,,,,,,,METAR,152.0
RJCM 280700Z 21006KT 9999 FEW040 SCT050 14/02 Q1005,RJCM,2018-10-28T07:00:00Z,43.88,144.17,14.0,2.0,210,6,,6.21,29.675198,,,,,,,,,,,FEW,4000,SCT,5000,,,,,VFR,,,,,,,,,,,,METAR,36.0
RJCK 280700Z 20011KT 9999 FEW030 12/09 Q1006,RJCK,2018-10-28T07:00:00Z,43.02,144.18,12.0,9.0,200,11,,6.21,29.704725,,,,,,,,,,,FEW,3000,,,,,,,VFR,,,,,,,,,,,,METAR,98.0
RJSS 280700Z 16007KT 9999 FEW030 17/10 Q1008,RJSS,2018-10-28T07:00:00Z,38.12,140.92,17.0,10.0,160,7,,6.21,29.763779,,,,,,,,,,,FEW,3000,,,,,,,VFR,,,,,,,,,,,,METAR,5.0
RJCH 280700Z 24012KT 9999 FEW020 SCT040 BKN/// 14/06 Q1006,RJCH,2018-10-28T07:00:00Z,41.77,140.82,14.0,6.0,240,12,,6.21,29.704725,,,,,,,,,,,FEW,2000,SCT,4000,,,,,VFR,,,,,,,,,,,,METAR,36.0
RJGG 280700Z 17003KT 110V220 9999 FEW030 20/06 Q1009 BECMG 28005KT,RJGG,2018-10-28T07:00:00Z,34.87,136.8,20.0,6.0,170,3,,6.21,29.793306,,,,,,,,,,,FEW,3000,,,,,,,VFR,,,,,,,,,,,,METAR,5.0
ROAH 280700Z 02016KT 9999 FEW043 BKN/// 23/12 Q1013,ROAH,2018-10-28T07:00:00Z,26.17,127.65,23.0,12.0,20,16,,6.21,29.911417,,,,,,,,,,,FEW,4300,,,,,,,VFR,,,,,,,,,,,,METAR,8.0
RJOO 280700Z 30005KT 250V350 9999 FEW030 19/03 Q1010 RMK 1CU030 A2984,RJOO,2018-10-28T07:00:00Z,34.77,135.43,19.0,3.0,300,5,,6.21,29.822834,,,,,,,,,,,FEW,3000,,,,,,,VFR,,,,,,,,,,,,METAR,15.0
RJTT 280700Z 09004KT 9999 FEW010 SCT035 20/14 Q1008 NOSIG RMK 1CU010 4CU035 A2978,RJTT,2018-10-28T07:00:00Z,35.53,139.77,20.0,14.0,90,4,,6.21,29.763779,,,,,,TRUE,,,,,FEW,1000,SCT,3500,,,,,VFR,,,,,,,,,,,,METAR,8.0
RJBB 280700Z 28008KT 240V330 9999 FEW025 18/08 Q1011 NOSIG,RJBB,2018-10-28T07:00:00Z,34.42,135.25,18.0,8.0,280,8,,6.21,29.852362,,,,,,TRUE,,,,,FEW,2500,,,,,,,VFR,,,,,,,,,,,,METAR,8.0
RJAA 280700Z 04009KT 010V070 9999 FEW030 SCT050 19/12 Q1008 NOSIG RMK 1CU030 4SC050 A2979,RJAA,2018-10-28T07:00:00Z,35.77,140.37,19.0,12.0,40,9,,6.21,29.763779,,,,,,TRUE,,,,,FEW,3000,SCT,5000,,,,,VFR,,,,,,,,,,,,SPECI,44.0
RJNT 280700Z 25005KT 220V280 9999 FEW030 SCT080 16/09 Q1010,RJNT,2018-10-28T07:00:00Z,36.63,137.17,16.0,9.0,250,5,,6.21,29.822834,,,,,,,,,,,FEW,3000,SCT,8000,,,,,VFR,,,,,,,,,,,,METAR,27.0
RJFO 280700Z 27006KT 210V310 9999 FEW030 SCT050 18/06 Q1012,RJFO,2018-10-28T07:00:00Z,33.47,131.72,18.0,6.0,270,6,,6.21,29.88189,,,,,,,,,,,FEW,3000,SCT,5000,,,,,VFR,,,,,,,,,,,,METAR,8.0
RJOT 280700Z 26015KT 9999 FEW030 16/06 Q1011,RJOT,2018-10-28T07:00:00Z,34.22,134.02,16.0,6.0,260,15,,6.21,29.852362,,,,,,,,,,,FEW,3000,,,,,,,VFR,,,,,,,,,,,,METAR,188.0
RJOB 280700Z 21009KT 170V250 9999 FEW030 SCT050 15/06 Q1011,RJOB,2018-10-28T07:00:00Z,34.75,133.83,15.0,6.0,210,9,,6.21,29.852362,,,,,,,,,,,FEW,3000,SCT,5000,,,,,VFR,,,,,,,,,,,,METAR,242.0
RJOA 280700Z 21007KT 140V250 9999 SCT035 14/04 Q1011,RJOA,2018-10-28T07:00:00Z,34.42,132.92,14.0,4.0,210,7,,6.21,29.852362,,,,,,,,,,,SCT,3500,,,,,,,VFR,,,,,,,,,,,,METAR,6.0
RJNK 280700Z 19009KT 9999 FEW010 BKN030 16/09 Q1011,RJNK,2018-10-28T07:00:00Z,36.37,136.42,16.0,9.0,190,9,,6.21,29.852362,,,,,,,,,,,FEW,1000,BKN,3000,,,,,MVFR,,,,,,,,,,,,METAR,9.0
RJFU 280700Z 25006KT 220V280 9999 FEW050 19/08 Q1013,RJFU,2018-10-28T07:00:00Z,32.92,129.92,19.0,8.0,250,6,,6.21,29.911417,,,,,,,,,,,FEW,5000,,,,,,,VFR,,,,,,,,,,,,METAR,5.0
RJFT 280700Z 24008KT 210V290 9999 FEW050 17/05 Q1013,RJFT,2018-10-28T07:00:00Z,32.82,130.83,17.0,5.0,240,8,,6.21,29.911417,,,,,,,,,,,FEW,5000,,,,,,,VFR,,,,,,,,,,,,METAR,196.0
RJSN 280700Z 28011KT 9999 -SHRA FEW020 SCT030 BKN040 16/12 Q1009,RJSN,2018-10-28T07:00:00Z,37.95,139.12,16.0,12.0,280,11,,6.21,29.793306,,,,,,,,,,-SHRA,FEW,2000,SCT,3000,BKN,4000,,,VFR,,,,,,,,,,,,METAR,4.0
RJFK 280700Z 34009KT 310V010 9999 FEW040 16/07 Q1013 RMK 1CU040 A2993 VOLCANIC ASH CLOUD S,RJFK,2018-10-28T07:00:00Z,31.8,130.72,16.0,7.0,340,9,,6.21,29.911417,,,,,,,,,,,FEW,4000,,,,,,,VFR,,,,,,,,,,,,SPECI,275.0
RJCC 280700Z 18011KT 9999 FEW030 BKN080 BKN/// 13/05 Q1006,RJCC,2018-10-28T07:00:00Z,42.77,141.67,13.0,5.0,180,11,,6.21,29.704725,,,,,,,,,,,FEW,3000,BKN,8000,,,,,VFR,,,,,,,,,,,,METAR,30.0
RJFF 280700Z 24006KT 190V330 9999 FEW040 19/04 Q1012 BECMG 19006KT,RJFF,2018-10-28T07:00:00Z,33.57,130.43,19.0,4.0,240,6,,6.21,29.88189,,,,,,,,,,,FEW,4000,,,,,,,VFR,,,,,,,,,,,,METAR,12.0
VTST 280700Z 07006KT 9999 FEW020 33/23 Q1008 NOSIG,VTST,2018-10-28T07:00:00Z,7.52,99.62,33.0,23.0,70,6,,6.21,29.763779,,,,,,TRUE,,,,,FEW,2000,,,,,,,VFR,,,,,,,,,,,,METAR,16.0
VTSR 280700Z 12007KT 060V190 9999 SCT030 33/24 Q1009 NOSIG,VTSR,2018-10-28T07:00:00Z,9.78,98.58,33.0,24.0,120,7,,6.21,29.793306,,,,,,TRUE,,,,,SCT,3000,,,,,,,VFR,,,,,,,,,,,,METAR,8.0
VTSM 280700Z 07006KT 9999 FEW020TCU 32/25 Q1011 NOSIG,VTSM,2018-10-28T07:00:00Z,9.55,100.07,32.0,25.0,70,6,,6.21,29.852362,,,,,,TRUE,,,,,FEW,2000,,,,,,,VFR,,,,,,,,,,,,METAR,17.0
VTSF 280700Z 03008KT 350V070 9999 FEW016TCU SCT020 31/25 Q1010 NOSIG,VTSF,2018-10-28T07:00:00Z,8.53,99.95,31.0,25.0,30,8,,6.21,29.822834,,,,,,TRUE,,,,,FEW,1600,SCT,2000,,,,,VFR,,,,,,,,,,,,METAR,4.0
VTSE 280700Z 05006KT 010V100 8000 BKN020 30/25 Q1010 NOSIG,VTSE,2018-10-28T07:00:00Z,10.72,99.37,30.0,25.0,50,6,,4.97,29.822834,,,,,,TRUE,,,,,BKN,2000,,,,,,,MVFR,,,,,,,,,,,,METAR,5.0
VTSC 280700Z 06007KT 020V100 9999 FEW018TCU 31/25 Q1010 NOSIG,VTSC,2018-10-28T07:00:00Z,6.52,101.75,31.0,25.0,60,7,,6.21,29.822834,,,,,,TRUE,,,,,FEW,1800,,,,,,,VFR,,,,,,,,,,,,METAR,6.0
VTSB 280700Z 05014KT 9999 SCT018 31/25 Q1010,VTSB,2018-10-28T07:00:00Z,9.12,99.13,31.0,25.0,50,14,,6.21,29.822834,,,,,,,,,,,SCT,1800,,,,,,,VFR,,,,,,,,,,,,METAR,11.0
VTUW 280700Z 04007KT 010V080 8000 SCT025 BKN060 29/22 Q1013 NOSIG,VTUW,2018-10-28T07:00:00Z,17.38,104.63,29.0,22.0,40,7,,4.97,29.911417,,,,,,TRUE,,,,,SCT,2500,BKN,6000,,,,,MVFR,,,,,,,,,,,,METAR,184.0
VTUV 280700Z 05008KT 9000 BKN030 32/22 Q1012 NOSIG,VTUV,2018-10-28T07:00:00Z,16.12,103.78,32.0,22.0,50,8,,5.59,29.88189,,,,,,TRUE,,,,,BKN,3000,,,,,,,MVFR,,,,,,,,,,,,METAR,138.0
VTUU 280700Z 03009KT 9000 SCT040 33/23 Q1011 NOSIG,VTUU,2018-10-28T07:00:00Z,15.25,104.87,33.0,23.0,30,9,,5.59,29.852362,,,,,,TRUE,,,,,SCT,4000,,,,,,,VFR,,,,,,,,,,,,METAR,127.0
VTUQ 280700Z 03004KT 310V080 9999 SCT025 33/26 Q1013 NOSIG,VTUQ,2018-10-28T07:00:00Z,14.95,102.32,33.0,26.0,30,4,,6.21,29.911417,,,,,,TRUE,,,,,SCT,2500,,,,,,,VFR,,,,,,,,,,,,METAR,234.0
VTUO 280700Z 07011KT 040V120 9999 SCT025 32/23 Q1013 NOSIG INFO H RWY 04,VTUO,2018-10-28T07:00:00Z,15.23,103.25,32.0,23.0,70,11,,6.21,29.911417,,,,,,TRUE,,,,,SCT,2500,,,,,,,VFR,,,,,,,,,,,,METAR,183.0
VTUK 280700Z 06009KT 9999 BKN035 33/21 Q1013 NOSIG,VTUK,2018-10-28T07:00:00Z,16.47,102.78,33.0,21.0,60,9,,6.21,29.911417,,,,,,TRUE,,,,,BKN,3500,,,,,,,VFR,,,,,,,,,,,,METAR,204.0
VTUI 280700Z VRB06KT 9999 SCT030 SCT060 32/21 Q1013 NOSIG,VTUI,2018-10-28T07:00:00Z,17.2,104.12,32.0,21.0,0,6,,6.21,29.911417,,,,,,TRUE,,,,,SCT,3000,SCT,6000,,,,,VFR,,,,,,,,,,,,METAR,172.0
VTUD 280700Z VRB06KT 9999 BKN035 32/20 Q1013 NOSIG,VTUD,2018-10-28T07:00:00Z,17.37,102.78,32.0,20.0,0,6,,6.21,29.911417,,,,,,TRUE,,,,,BKN,3500,,,,,,,VFR,,,,,,,,,,,,METAR,182.0
VTPO 280700Z VRB01KT 9999 FEW020 SCT025 33/23 Q1012 NOSIG,VTPO,2018-10-28T07:00:00Z,17.23,99.82,33.0,23.0,0,1,,6.21,29.88189,,,,,,TRUE,,,,,FEW,2000,SCT,2500,,,,,VFR,,,,,,,,,,,,METAR,54.0
VTPM 280700Z 09008KT 030V130 9999 FEW030 33/21 Q1013 NOSIG,VTPM,2018-10-28T07:00:00Z,16.67,98.53,33.0,21.0,90,8,,6.21,29.911417,,,,,,TRUE,,,,,FEW,3000,,,,,,,VFR,,,,,,,,,,,,METAR,197.0
VTPH 280700Z 02009KT 350V050 9000 FEW028 SCT100 31/24 Q1011 NOSIG,VTPH,2018-10-28T07:00:00Z,12.63,99.95,31.0,24.0,20,9,,5.59,29.852362,,,,,,TRUE,,,,,FEW,2800,SCT,10000,,,,,VFR,,,,,,,,,,,,METAR,6.0
VTPB 280700Z 34004KT 250V060 9999 SCT030 33/22 Q1012 NOSIG,VTPB,2018-10-28T07:00:00Z,16.67,101.2,33.0,22.0,340,4,,6.21,29.88189,,,,,,TRUE,,,,,SCT,3000,,,,,,,VFR,,,,,,,,,,,,METAR,137.0
VTCP 280700Z VRB02KT 9999 SCT025 37/24 Q1012 NOSIG,VTCP,2018-10-28T07:00:00Z,18.13,100.17,37.0,24.0,0,2,,6.21,29.88189,,,,,,TRUE,,,,,SCT,2500,,,,,,,VFR,,,,,,,,,,,,METAR,162.0
VTCN 280700Z VRB01G12KT 9999 FEW025 34/19 Q1012 NOSIG,VTCN,2018-10-28T07:00:00Z,18.82,100.77,34.0,19.0,0,1,12,6.21,29.88189,,,,,,TRUE,,,,,FEW,2500,,,,,,,VFR,,,,,,,,,,,,METAR,201.0
VTCL 280700Z VRB01KT 9999 SCT025 32/23 Q1014 NOSIG,VTCL,2018-10-28T07:00:00Z,18.27,99.52,32.0,23.0,0,1,,6.21,29.940945,,,,,,TRUE,,,,,SCT,2500,,,,,,,VFR,,,,,,,,,,,,METAR,242.0
VTCH 280700Z VRB02KT 9999 FEW025 32/22 Q1013 NOSIG,VTCH,2018-10-28T07:00:00Z,19.3,97.98,32.0,22.0,0,2,,6.21,29.911417,,,,,,TRUE,,,,,FEW,2500,,,,,,,VFR,,,,,,,,,,,,METAR,269.0
VTBO 280700Z 05007KT 9999 FEW022 35/25 Q1010,VTBO,2018-10-28T07:00:00Z,12.28,102.32,35.0,25.0,50,7,,6.21,29.822834,,,,,,,,,,,FEW,2200,,,,,,,VFR,,,,,,,,,,,,METAR,32.0
FMEP 280700Z AUTO 14012KT CAVOK 26/16 Q1016 NOSIG,FMEP,2018-10-28T07:00:00Z,-21.32,55.42,26.0,16.0,140,12,,6.21,30.0,,,TRUE,,,TRUE,,,,,CAVOK,,,,,,,,VFR,,,,,,,,,,,,METAR,18.0
FMEE 280700Z AUTO 07010KT 9999 FEW058 SCT068 27/18 Q1017 NOSIG,FMEE,2018-10-28T07:00:00Z,-20.87,55.52,27.0,18.0,70,10,,6.21,30.029528,,,TRUE,,,TRUE,,,,,FEW,5800,SCT,6800,,,,,VFR,,,,,,,,,,,,METAR,25.0
VTSS 280700Z 08009KT 9999 FEW020 32/23 Q1009 NOSIG,VTSS,2018-10-28T07:00:00Z,6.92,100.38,32.0,23.0,80,9,,6.21,29.793306,,,,,,TRUE,,,,,FEW,2000,,,,,,,VFR,,,,,,,,,,,,METAR,35.0
VTSP 280700Z 10006KT 030V150 9999 FEW020 32/22 Q1010 NOSIG,VTSP,2018-10-28T07:00:00Z,8.12,98.32,32.0,22.0,100,6,,6.21,29.822834,,,,,,TRUE,,,,,FEW,2000,,,,,,,VFR,,,,,,,,,,,,METAR,10.0
VTSG 280700Z VRB02KT 9999 BKN020 34/25 Q1010 NOSIG,VTSG,2018-10-28T07:00:00Z,8.1,98.98,34.0,25.0,0,2,,6.21,29.822834,,,,,,TRUE,,,,,BKN,2000,,,,,,,MVFR,,,,,,,,,,,,METAR,25.0
VTCT 280700Z VRB02KT 9999 FEW025 31/23 Q1014 NOSIG,VTCT,2018-10-28T07:00:00Z,19.95,99.88,31.0,23.0,0,2,,6.21,29.940945,,,,,,TRUE,,,,,FEW,2500,,,,,,,VFR,,,,,,,,,,,,METAR,390.0
VTBU 280700Z 19006KT 6000 FEW020 33/22 Q1010 NOSIG,VTBU,2018-10-28T07:00:00Z,12.68,101.0,33.0,22.0,190,6,,3.73,29.822834,,,,,,TRUE,,,,,FEW,2000,,,,,,,MVFR,,,,,,,,,,,,METAR,5.0
VTBS 280700Z 07009KT 030V110 9999 FEW020 32/23 Q1011 NOSIG,VTBS,2018-10-28T07:00:00Z,13.68,100.75,32.0,23.0,70,9,,6.21,29.852362,,,,,,TRUE,,,,,FEW,2000,,,,,,,VFR,,,,,,,,,,,,METAR,2.0
VTBD 280700Z 08006KT 010V110 9999 FEW020 32/24 Q1011 NOSIG,VTBD,2018-10-28T07:00:00Z,13.92,100.6,32.0,24.0,80,6,,6.21,29.852362,,,,,,TRUE,,,,,FEW,2000,,,,,,,VFR,,,,,,,,,,,,METAR,3.0
FVRG 280700Z 12012KT 080V180 CAVOK 23/M02 Q1027 NOSIG,FVRG,2018-10-28T07:00:00Z,,,23.0,-2.0,120,12,,6.21,30.324802,,,,,,TRUE,,,,,CAVOK,,,,,,,,VFR,,,,,,,,,,,,METAR,
FVFA 280700Z 10017KT CAVOK 26/07 Q1022 NOSIG,FVFA,2018-10-28T07:00:00Z,-18.1,25.85,26.0,7.0,100,17,,6.21,30.177166,,,,,,TRUE,,,,,CAVOK,,,,,,,,VFR,,,,,,,,,,,,METAR,1062.0
HAMK 280700Z 13008KT 9999 FEW020 19/11 Q1030,HAMK,2018-10-28T07:00:00Z,13.47,39.53,19.0,11.0,130,8,,6.21,30.413385,,,,,,,,,,,FEW,2000,,,,,,,VFR,,,,,,,,,,,,METAR,2255.0
HADR 280700Z 04004KT CAVOK 30/07 Q1023,HADR,2018-10-28T07:00:00Z,9.58,41.87,30.0,7.0,40,4,,6.21,30.206694,,,,,,,,,,,CAVOK,,,,,,,,VFR,,,,,,,,,,,,METAR,1146.0
EIME 280700Z 34001KT 9999 FEW017 01/M00 Q1027 RESHRA,EIME,2018-10-28T07:00:00Z,53.3,-6.45,1.0,0.0,340,1,,6.21,30.324802,,,,,,,,,,,FEW,1700,,,,,,,VFR,,,,,,,,,,,,METAR,93.0
ZYHB 280700Z 26007MPS 230V300 9999 -RASN OVC030 01/M05 Q1002 NOSIG,ZYHB,2018-10-28T07:00:00Z,45.62,126.25,1.0,-5.0,260,14,,6.21,29.586615,,,,,,TRUE,,,,-RA -SN,OVC,3000,,,,,,,MVFR,,,,,,,,,,,,METAR,140.0
ZYCC 280700Z 29003MPS 270V340 9999 BKN030 02/M05 Q1004 NOSIG,ZYCC,2018-10-28T07:00:00Z,43.98,125.68,2.0,-5.0,290,6,,6.21,29.64567,,,,,,TRUE,,,,,BKN,3000,,,,,,,MVFR,,,,,,,,,,,,METAR,238.0
ZUCK 280700Z 18003MPS 3000 BR FEW014 SCT026 18/16 Q1022 NOSIG,ZUCK,2018-10-28T07:00:00Z,29.72,106.63,18.0,16.0,180,6,,1.86,30.177166,,,,,,TRUE,,,,BR,FEW,1400,SCT,2600,,,,,IFR,,,,,,,,,,,,METAR,416.0
ZSOF 280700Z 27010MPS CAVOK 26/M03 Q1014 NOSIG,ZSOF,2018-10-28T07:00:00Z,31.98,116.97,26.0,-3.0,270,19,,6.21,29.940945,,,,,,TRUE,,,,,CAVOK,,,,,,,,VFR,,,,,,,,,,,,METAR,63.0
ZSNJ 280700Z 28005MPS 250V320 CAVOK 26/01 Q1014 NOSIG,ZSNJ,2018-10-28T07:00:00Z,31.75,118.87,26.0,1.0,280,10,,6.21,29.940945,,,,,,TRUE,,,,,CAVOK,,,,,,,,VFR,,,,,,,,,,,,METAR,33.0
ZLLL 280700Z VRB01MPS CAVOK 14/M04 Q1026 NOSIG,ZLLL,2018-10-28T07:00:00Z,36.52,103.62,14.0,-4.0,0,2,,6.21,30.295275,,,,,,TRUE,,,,,CAVOK,,,,,,,,VFR,,,,,,,,,,,,METAR,1947.0
ZJSY 280700Z 15003MPS 100V200 9999 BKN046 30/22 Q1014 NOSIG,ZJSY,2018-10-28T07:00:00Z,18.3,109.42,30.0,22.0,150,6,,6.21,29.940945,,,,,,TRUE,,,,,BKN,4600,,,,,,,VFR,,,,,,,,,,,,METAR,27.0
ZJHK 280700Z 09005MPS 040V120 CAVOK 29/17 Q1015 NOSIG,ZJHK,2018-10-28T07:00:00Z,19.93,110.47,29.0,17.0,90,10,,6.21,29.970472,,,,,,TRUE,,,,,CAVOK,,,,,,,,VFR,,,,,,,,,,,,METAR,23.0
ZHCC 280700Z 29008MPS CAVOK 25/M07 Q1014 NOSIG,ZHCC,2018-10-28T07:00:00Z,34.52,113.83,25.0,-7.0,290,16,,6.21,29.940945,,,,,,TRUE,,,,,CAVOK,,,,,,,,VFR,,,,,,,,,,,,METAR,151.0
ZGHA 280700Z 30002MPS 260V340 CAVOK 27/03 Q1018 NOSIG,ZGHA,2018-10-28T07:00:00Z,28.18,113.22,27.0,3.0,300,4,,6.21,30.059055,,,,,,TRUE,,,,,CAVOK,,,,,,,,VFR,,,,,,,,,,,,METAR,66.0
ZBHH 280700Z 32010G16MPS 290V350 9999 FEW040 13/M10 Q1016 NOSIG,ZBHH,2018-10-28T07:00:00Z,40.85,111.82,13.0,-10.0,320,19,31,6.21,30.0,,,,,,TRUE,,,,,FEW,4000,,,,,,,VFR,,,,,,,,,,,,METAR,1065.0
VELP 280700Z 14003KT 0800 RAFG SCT008 SCT015 FEW025CB OVC080 19/19 Q1018 NOSIG,VELP,2018-10-28T07:00:00Z,23.83,92.62,19.0,19.0,140,3,,0.5,30.059055,,,,,,TRUE,,,,RA FG,SCT,800,SCT,1500,FEW,2500,OVC,8000,LIFR,,,,,,,,,,,,METAR,291.0
VLSK 280700Z 04002KT 8000 SCT020 SCT100 33/20 Q1014 NOSIG,VLSK,2018-10-28T07:00:00Z,16.55,104.75,33.0,20.0,40,2,,4.97,29.940945,,,,,,TRUE,,,,,SCT,2000,SCT,10000,,,,,MVFR,,,,,,,,,,,,METAR,155.0
VLPS 280700Z 27002KT 9999 SCT024 34/23 Q1011 NOSIG,VLPS,2018-10-28T07:00:00Z,15.13,105.78,34.0,23.0,270,2,,6.21,29.852362,,,,,,TRUE,,,,,SCT,2400,,,,,,,VFR,,,,,,,,,,,,METAR,107.0
VLLN 280700Z 27002KT 9999 SCT020 30/22 Q1017 NOSIG,VLLN,2018-10-28T07:00:00Z,20.97,101.4,30.0,22.0,270,2,,6.21,30.029528,,,,,,TRUE,,,,,SCT,2000,,,,,,,VFR,,,,,,,,,,,,METAR,600.0
VLLB 280700Z 09002KT 9999 FEW020 32/23 Q1014 NOSIG,VLLB,2018-10-28T07:00:00Z,19.9,102.17,32.0,23.0,90,2,,6.21,29.940945,,,,,,TRUE,,,,,FEW,2000,,,,,,,VFR,,,,,,,,,,,,METAR,291.0
TTCP 280700Z 00000KT 9999 FEW016 25/21 Q1011 NOSIG,TTCP,2018-10-28T07:00:00Z,11.15,-60.85,25.0,21.0,0,0,,6.21,29.852362,,,,,,TRUE,,,,,FEW,1600,,,,,,,VFR,,,,,,,,,,,,METAR,8.0
TTPP 280700Z 00000KT 9999 FEW016 23/21 Q1011 NOSIG,TTPP,2018-10-28T07:00:00Z,10.58,-61.35,23.0,21.0,0,0,,6.21,29.852362,,,,,,TRUE,,,,,FEW,1600,,,,,,,VFR,,,,,,,,,,,,METAR,15.0
DAUZ 280700Z 05007KT 7000 NSC 16/15 Q1014,DAUZ,2018-10-28T07:00:00Z,28.05,9.62,16.0,15.0,50,7,,4.35,29.940945,,,,,,,,,,,CLR,,,,,,,,MVFR,,,,,,,,,,,,METAR,562.0
DABT 280700Z 23012KT 6000 FEW010 SCT020 15/11 Q1005,DABT,2018-10-28T07:00:00Z,35.75,6.32,15.0,11.0,230,12,,3.73,29.675198,,,,,,,,,,,FEW,1000,SCT,2000,,,,,MVFR,,,,,,,,,,,,METAR,823.0
DAAV 280700Z 16007KT 9999 FEW023TCU SCT033 21/11 Q1001,DAAV,2018-10-28T07:00:00Z,36.8,5.88,21.0,11.0,160,7,,6.21,29.557087,,,,,,,,,,,FEW,2300,SCT,3300,,,,,VFR,,,,,,,,,,,,METAR,11.0
DAAJ 280700Z 10003KT CAVOK 18/06 Q1018,DAAJ,2018-10-28T07:00:00Z,24.28,9.47,18.0,6.0,100,3,,6.21,30.059055,,,,,,,,,,,CAVOK,,,,,,,,VFR,,,,,,,,,,,,METAR,968.0
DAAE 280700Z 21005KT 9999 FEW020 SCT233 17/13 Q1001,DAAE,2018-10-28T07:00:00Z,36.72,5.07,17.0,13.0,210,5,,6.21,29.557087,,,,,,,,,,,FEW,2000,SCT,23300,,,,,VFR,,,,,,,,,,,,METAR,2.0
VOHB 280700Z 05015KT CAVOK 31/06 Q1017,VOHB,2018-10-28T07:00:00Z,15.37,75.08,31.0,6.0,50,15,,6.21,30.029528,,,,,,,,,,,CAVOK,,,,,,,,VFR,,,,,,,,,,,,METAR,661.0
UAKD 280700Z 28013MPS 9999 BKN020CB BKN100 07/M03 Q1024 R22/0///65 TEMPO 28016MPS RMK QFE734/0979,UAKD,2018-10-28T07:00:00Z,47.7,67.73,7.0,-3.0,280,25,,6.21,30.236221,,,,,,,,,,,BKN,2000,BKN,10000,,,,,MVFR,,,,,,,,,,,,METAR,381.0
UAUU 280700Z 28010MPS CAVOK 06/M06 Q1018 R33/CLRD70 NOSIG RMK QFE748/0997,UAUU,2018-10-28T07:00:00Z,53.2,63.55,6.0,-6.0,280,19,,6.21,30.059055,,,,,,TRUE,,,,,CAVOK,,,,,,,,VFR,,,,,,,,,,,,METAR,182.0
VAID 280700Z 34004KT 5000 HZ FEW025 32/09 Q1018 NOSIG,VAID,2018-10-28T07:00:00Z,22.72,75.78,32.0,9.0,340,4,,3.11,30.059055,,,,,,TRUE,,,,HZ,FEW,2500,,,,,,,MVFR,,,,,,,,,,,,METAR,567.0
VOSM 280700Z 02010KT 7000 NSC 33/17 Q1012 NOSIG,VOSM,2018-10-28T07:00:00Z,11.78,78.07,33.0,17.0,20,10,,4.35,29.88189,,,,,,TRUE,,,,,CLR,,,,,,,,MVFR,,,,,,,,,,,,METAR,307.0
KFFA 280700Z AUTO 25006KT 10SM SCT024 12/11 A2981 RMK AO2 T01230110,KFFA,2018-10-28T07:00:00Z,36.02,-75.67,12.3,11.0,250,6,,10.0,29.811024,,,TRUE,TRUE,,,,,,,SCT,2400,,,,,,,VFR,,,,,,,,,,,,SPECI,4.0
CYZE 280700Z AUTO 06007KT 9SM OVC080 03/M02 A2984 RMK SLP113,CYZE,2018-10-28T07:00:00Z,45.87,-82.57,3.0,-2.0,60,7,,9.0,29.840551,1011.3,,TRUE,,,,,,,,OVC,8000,,,,,,,VFR,,,,,,,,,,,,SPECI,193.0
RCKH 280700Z 21009KT 170V230 9999 FEW018 SCT040 26/15 Q1012 NOSIG RMK A2991,RCKH,2018-10-28T07:00:00Z,22.57,120.33,26.0,15.0,210,9,,6.21,29.88189,,,,,,TRUE,,,,,FEW,1800,SCT,4000,,,,,VFR,,,,,,,,,,,,SPECI,9.0
RCTP 280700Z 05017KT 9999 FEW020 24/13 Q1015 NOSIG RMK A2999,RCTP,2018-10-28T07:00:00Z,25.07,121.22,24.0,13.0,50,17,,6.21,29.970472,,,,,,TRUE,,,,,FEW,2000,,,,,,,VFR,,,,,,,,,,,,SPECI,33.0
VOTR 280700Z 05012KT 5000 HZ FEW018 33/19 Q1010 NOSIG,VOTR,2018-10-28T07:00:00Z,10.77,78.72,33.0,19.0,50,12,,3.11,29.822834,,,,,,TRUE,,,,HZ,FEW,1800,,,,,,,MVFR,,,,,,,,,,,,METAR,88.0
LEMD 280700Z 34009KT 310V010 9999 FEW080 04/M01 Q1002 NOSIG,LEMD,2018-10-28T07:00:00Z,40.48,-3.57,4.0,-1.0,340,9,,6.21,29.586615,,,,,,TRUE,,,,,FEW,8000,,,,,,,VFR,,,,,,,,,,,,METAR,582.0
LEIB 280700Z 33008KT 290V360 9999 SCT020 BKN045 14/10 Q0997 NOSIG,LEIB,2018-10-28T07:00:00Z,38.87,1.37,14.0,10.0,330,8,,6.21,29.438976,,,,,,TRUE,,,,,SCT,2000,BKN,4500,,,,,VFR,,,,,,,,,,,,METAR,12.0
LEMG 280700Z 30008KT 9999 FEW050 11/04 Q1003 NOSIG,LEMG,2018-10-28T07:00:00Z,36.67,-4.5,11.0,4.0,300,8,,6.21,29.616142,,,,,,TRUE,,,,,FEW,5000,,,,,,,VFR,,,,,,,,,,,,METAR,7.0
LEPA 280700Z 05004KT 360V110 9999 VCTS FEW016 FEW025CB SCT060 13/12 Q0995 TEMPO 3000 TSRA,LEPA,2018-10-28T07:00:00Z,39.53,2.72,13.0,12.0,50,4,,6.21,29.379921,,,,,,,,,,VCTS,FEW,1600,FEW,2500,SCT,6000,,,VFR,,,,,,,,,,,,METAR,8.0
LEAM 280700Z 32010KT 9999 FEW012 15/M01 Q1000,LEAM,2018-10-28T07:00:00Z,36.85,-2.37,15.0,-1.0,320,10,,6.21,29.52756,,,,,,,,,,,FEW,1200,,,,,,,VFR,,,,,,,,,,,,METAR,21.0
LEZL 280700Z 33006KT 290V350 CAVOK 09/06 Q1004 NOSIG,LEZL,2018-10-28T07:00:00Z,37.42,-5.9,9.0,6.0,330,6,,6.21,29.64567,,,,,,TRUE,,,,,CAVOK,,,,,,,,VFR,,,,,,,,,,,,METAR,31.0
LEVX 280700Z VRB02KT 9999 SCT020 03/02 Q1011 NOSIG,LEVX,2018-10-28T07:00:00Z,42.22,-8.62,3.0,2.0,0,2,,6.21,29.852362,,,,,,TRUE,,,,,SCT,2000,,,,,,,VFR,,,,,,,,,,,,METAR,256.0
LEVC 280700Z 23003KT CAVOK 08/06 Q0999 NOSIG,LEVC,2018-10-28T07:00:00Z,39.5,-0.47,8.0,6.0,230,3,,6.21,29.498032,,,,,,TRUE,,,,,CAVOK,,,,,,,,VFR,,,,,,,,,,,,METAR,62.0
VOMM 280700Z 05008G18KT 6000 FEW020 SCT025 SCT100 32/23 Q1011 NOSIG,VOMM,2018-10-28T07:00:00Z,13.0,80.17,32.0,23.0,50,8,18,3.73,29.852362,,,,,,TRUE,,,,,FEW,2000,SCT,2500,SCT,10000,,,MVFR,,,,,,,,,,,,METAR,16.0
VAJJ 280700Z 08010G21KT 5000 FU NSC 37/13 Q1013 NOSIG,VAJJ,2018-10-28T07:00:00Z,19.12,72.82,37.0,13.0,80,10,21,3.11,29.911417,,,,,,TRUE,,,,FU,CLR,,,,,,,,MVFR,,,,,,,,,,,,METAR,4.0
SECU 280700Z AUTO 00000KT ////NDV NCD 14/09 Q1025,SECU,2018-10-28T07:00:00Z,-2.87,-78.97,14.0,9.0,0,0,,,30.265747,,,TRUE,,,,,,,,CLR,,,,,,,,,,,,,,,,,,,,METAR,2531.0
SEGU 280700Z 23008KT 9999 FEW010 22/19 Q1012 NOSIG RMK A2989,SEGU,2018-10-28T07:00:00Z,-2.13,-79.87,22.0,19.0,230,8,,6.21,29.88189,,,,,,TRUE,,,,,FEW,1000,,,,,,,VFR,,,,,,,,,,,,METAR,9.0
SELT 280700Z 35003KT 9999 BKN030 09/08 Q1029,SELT,2018-10-28T07:00:00Z,-0.92,-78.62,9.0,8.0,350,3,,6.21,30.383858,,,,,,,,,,,BKN,3000,,,,,,,MVFR,,,,,,,,,,,,METAR,2785.0
SEQM 280700Z VRB02KT 9999 BKN015 13/12 Q1026 NOSIG RMK A3030,SEQM,2018-10-28T07:00:00Z,-0.12,-78.35,13.0,12.0,0,2,,6.21,30.295275,,,,,,TRUE,,,,,BKN,1500,,,,,,,MVFR,,,,,,,,,,,,METAR,2400.0
LEBB 280700Z VRB01KT 9999 FEW005 SCT025 BKN060 05/04 Q1006 NOSIG,LEBB,2018-10-28T07:00:00Z,43.28,-2.92,5.0,4.0,0,1,,6.21,29.704725,,,,,,TRUE,,,,,FEW,500,SCT,2500,BKN,6000,,,VFR,,,,,,,,,,,,METAR,34.0
LECO 280700Z VRB03KT 9999 FEW035TCU BKN049 06/04 Q1012 NOSIG,LECO,2018-10-28T07:00:00Z,43.28,-8.37,6.0,4.0,0,3,,6.21,29.88189,,,,,,TRUE,,,,,FEW,3500,BKN,4900,,,,,VFR,,,,,,,,,,,,METAR,103.0
LEGE 280700Z 32003KT 290V350 9999 FEW020 BKN070 07/06 Q0997,LEGE,2018-10-28T07:00:00Z,41.88,2.77,7.0,6.0,320,3,,6.21,29.438976,,,,,,,,,,,FEW,2000,BKN,7000,,,,,VFR,,,,,,,,,,,,METAR,129.0
LEGR 280700Z 25002KT 9999 FEW030 SCT050 06/04 Q1002,LEGR,2018-10-28T07:00:00Z,37.17,-3.77,6.0,4.0,250,2,,6.21,29.586615,,,,,,,,,,,FEW,3000,SCT,5000,,,,,VFR,,,,,,,,,,,,METAR,559.0
LEMH 280700Z 08009KT 9999 FEW023 BKN042 15/12 Q0996,LEMH,2018-10-28T07:00:00Z,39.87,4.22,15.0,12.0,80,9,,6.21,29.409449,,,,,,,,,,,FEW,2300,BKN,4200,,,,,VFR,,,,,,,,,,,,METAR,82.0
LERS 280700Z 31003KT 260V340 9999 FEW020 SCT048 08/07 Q0998,LERS,2018-10-28T07:00:00Z,41.13,1.17,8.0,7.0,310,3,,6.21,29.468504,,,,,,,,,,,FEW,2000,SCT,4800,,,,,VFR,,,,,,,,,,,,METAR,76.0
SBPL 280700Z 02001KT CAVOK 25/14 Q1010,SBPL,2018-10-28T07:00:00Z,-9.37,-40.57,25.0,14.0,20,1,,6.21,29.822834,,,,,,,,,,,CAVOK,,,,,,,,VFR,,,,,,,,,,,,METAR,375.0
VOML 280700Z 14006KT 6000 NSC 33/17 Q1010 NOSIG,VOML,2018-10-28T07:00:00Z,12.97,74.88,33.0,17.0,140,6,,3.73,29.822834,,,,,,TRUE,,,,,CLR,,,,,,,,MVFR,,,,,,,,,,,,METAR,103.0
UBBN 280700Z 24004KT 9999 NSC 10/04 Q1033 R14R/CLRD// NOSIG RMK MT OP QFE698,UBBN,2018-10-28T07:00:00Z,39.18,45.45,10.0,4.0,240,4,,6.21,30.501968,,,,,,TRUE,,,,,CLR,,,,,,,,VFR,,,,,,,,,,,,METAR,873.0
LBPL 280700Z 21002KT 9999 SCT200 13/08 Q1017,LBPL,2018-10-28T07:00:00Z,43.45,24.5,13.0,8.0,210,2,,6.21,30.029528,,,,,,,,,,,SCT,20000,,,,,,,VFR,,,,,,,,,,,,METAR,101.0
LBPG 280700Z 09002KT 9999 FEW200 10/06 Q1021,LBPG,2018-10-28T07:00:00Z,42.28,24.72,10.0,6.0,90,2,,6.21,30.147638,,,,,,,,,,,FEW,20000,,,,,,,VFR,,,,,,,,,,,,METAR,58.0
LHBP 280700Z 08007KT CAVOK 12/12 Q1008 NOSIG,LHBP,2018-10-28T07:00:00Z,47.42,19.27,12.0,12.0,80,7,,6.21,29.763779,,,,,,TRUE,,,,,CAVOK,,,,,,,,VFR,,,,,,,,,,,,METAR,185.0
LEMO 280700Z 23005KT 200V270 9999 FEW035 07/05 Q1004 NOSIG,LEMO,2018-10-28T07:00:00Z,37.17,-5.62,7.0,5.0,230,5,,6.21,29.64567,,,,,,TRUE,,,,,FEW,3500,,,,,,,VFR,,,,,,,,,,,,METAR,88.0
SBRP 280700Z 00000KT 6000 NSC 20/19 Q1010,SBRP,2018-10-28T07:00:00Z,-21.12,-47.77,20.0,19.0,0,0,,3.73,29.822834,,,,,,,,,,,CLR,,,,,,,,MVFR,,,,,,,,,,,,METAR,549.0
LUKK 280700Z 21006KT CAVOK 15/07 Q1016 R08/D NOSIG,LUKK,2018-10-28T07:00:00Z,46.93,28.93,15.0,7.0,210,6,,6.21,30.0,,,,,,TRUE,,,,,CAVOK,,,,,,,,VFR,,,,,,,,,,,,METAR,122.0
TNCM 280700Z 06007KT 9999 FEW020 26/22 Q1013 A2992 ,TNCM,2018-10-28T07:00:00Z,18.05,-63.12,26.0,22.0,60,7,,6.21,29.911417,,,,,,,,,,,FEW,2000,,,,,,,VFR,,,,,,,,,,,,METAR,4.0
SCAT 280700Z AUTO 32004KT 270V010 9999 // ///007 13/11 Q1015,SCAT,2018-10-28T07:00:00Z,-27.27,-70.77,13.0,11.0,320,4,,6.21,29.970472,,,TRUE,,,,,,,,,,,,,,,,,,,,,,,,,,,,METAR,204.0
FIMP 280700Z 20009KT 9999 FEW019 26/18 Q1017,FIMP,2018-10-28T07:00:00Z,-20.42,57.67,26.0,18.0,200,9,,6.21,30.029528,,,,,,,,,,,FEW,1900,,,,,,,VFR,,,,,,,,,,,,METAR,57.0
GQPP 280700Z 01009KT 6000 NSC 20/18 Q1015 NOSIG,GQPP,2018-10-28T07:00:00Z,20.92,-17.02,20.0,18.0,10,9,,3.73,29.970472,,,,,,TRUE,,,,,CLR,,,,,,,,MVFR,,,,,,,,,,,,METAR,3.0
FIMR 280700Z 04011KT 9999 BKN017 28/21 Q1017,FIMR,2018-10-28T07:00:00Z,-19.75,63.37,28.0,21.0,40,11,,6.21,30.029528,,,,,,,,,,,BKN,1700,,,,,,,MVFR,,,,,,,,,,,,METAR,31.0
KNEL 280700Z AUTO 25007KT 10SM OVC020 09/ A2970 RMK AO2 SLP054 T0089 PNO $,KNEL,2018-10-28T07:00:00Z,40.02,-74.33,8.9,,250,7,,10.0,29.698818,1005.4,,TRUE,TRUE,TRUE,,,,,,OVC,2000,,,,,,,MVFR,,,,,,,,,,,,SPECI,31.0
WMKP 280700Z 24007KT 210V280 9999 FEW020 SCT140 BKN270 31/24 Q1009 NOSIG,WMKP,2018-10-28T07:00:00Z,5.28,100.27,31.0,24.0,240,7,,6.21,29.793306,,,,,,TRUE,,,,,FEW,2000,SCT,14000,BKN,27000,,,VFR,,,,,,,,,,,,METAR,4.0
WMKJ 280700Z VRB04KT 9999 TS FEW017CB SCT018 BKN280 29/26 Q1008,WMKJ,2018-10-28T07:00:00Z,1.62,103.67,29.0,26.0,0,4,,6.21,29.763779,,,,,,,,,,TS,FEW,1700,SCT,1800,BKN,28000,,,VFR,,,,,,,,,,,,METAR,40.0
WBKK 280700Z 30005KT 240V350 9999 FEW014 FEW017CB SCT140 BKN280 32/27 Q1007 NOSIG,WBKK,2018-10-28T07:00:00Z,5.92,116.03,32.0,27.0,300,5,,6.21,29.734253,,,,,,TRUE,,,,,FEW,1400,FEW,1700,SCT,14000,BKN,28000,VFR,,,,,,,,,,,,METAR,3.0
WBGG 280700Z 35007G18KT 300V040 9999 FEW015CB SCT020 BKN150 32/25 Q1007 NOSIG,WBGG,2018-10-28T07:00:00Z,1.47,110.35,32.0,25.0,350,7,18,6.21,29.734253,,,,,,TRUE,,,,,FEW,1500,SCT,2000,BKN,15000,,,VFR,,,,,,,,,,,,METAR,27.0
VAAH 280700Z 00000KT 5000 FU NSC 38/15 Q1015 NOSIG,VAAH,2018-10-28T07:00:00Z,23.07,72.62,38.0,15.0,0,0,,3.11,29.970472,,,,,,TRUE,,,,FU,CLR,,,,,,,,MVFR,,,,,,,,,,,,METAR,55.0
FBKE 280700Z 11015KT CAVOK 27/06 Q1022,FBKE,2018-10-28T07:00:00Z,-17.82,25.17,27.0,6.0,110,15,,6.21,30.177166,,,,,,,,,,,CAVOK,,,,,,,,VFR,,,,,,,,,,,,METAR,1000.0
FBMN 280700Z 08018KT CAVOK 27/06 Q1023,FBMN,2018-10-28T07:00:00Z,-19.97,23.42,27.0,6.0,80,18,,6.21,30.206694,,,,,,,,,,,CAVOK,,,,,,,,VFR,,,,,,,,,,,,METAR,900.0
CZCR 280700Z AUTO 08020G26KT M00/M00 RMK AO1 9PAST HR 8029 PK WND 08028/0627 SLP257 P0015 T10011002 50039,CZCR,2018-10-28T07:00:00Z,47.97,-66.32,-0.1,-0.2,80,20,26,,,1025.7,,TRUE,TRUE,,,,,,,,,,,,,,,,3.9,,,,,0.15,,,,,,METAR,38.0
CZSP 280700Z AUTO 07011G21KT 04/03 RMK AO1 7PAST HR 6056 PK WND 06024/0639 SLP232 P0014 T00370029 50037,CZSP,2018-10-28T07:00:00Z,46.45,-62.58,3.7,2.9,70,11,21,,,1023.2,,TRUE,TRUE,,,,,,,,,,,,,,,,3.7,,,,,0.14,,,,,,METAR,30.0
PLCH 280700Z 11004KT 9999 FEW020 27/23 Q1009,PLCH,2018-10-28T07:00:00Z,1.98,-157.35,27.0,23.0,110,4,,6.21,29.793306,,,,,,,,,,,FEW,2000,,,,,,,VFR,,,,,,,,,,,,METAR,3.0
CWMT 280700Z AUTO 00000KT M02/M03 RMK AO1 SLP121 T10241030 53007,CWMT,2018-10-28T07:00:00Z,63.13,-117.25,-2.4,-3.0,0,0,,,,1012.1,,TRUE,TRUE,,,,,,,,,,,,,,,,0.7,,,,,,,,,,,METAR,271.0
SBCY 280700Z 30005KT CAVOK 23/22 Q1010,SBCY,2018-10-28T07:00:00Z,-15.65,-56.12,23.0,22.0,300,5,,6.21,29.822834,,,,,,,,,,,CAVOK,,,,,,,,VFR,,,,,,,,,,,,METAR,182.0
OJAI 280700Z 08012KT 8000 NSC 13/01 Q1027 NOSIG,OJAI,2018-10-28T07:00:00Z,31.72,36.0,13.0,1.0,80,12,,4.97,30.324802,,,,,,TRUE,,,,,CLR,,,,,,,,MVFR,,,,,,,,,,,,METAR,730.0
SBBV 280700Z 08004KT CAVOK 26/22 Q1009,SBBV,2018-10-28T07:00:00Z,2.85,-60.7,26.0,22.0,80,4,,6.21,29.793306,,,,,,,,,,,CAVOK,,,,,,,,VFR,,,,,,,,,,,,METAR,140.0
SBMQ 280700Z 02003KT CAVOK 25/25 Q1009,SBMQ,2018-10-28T07:00:00Z,0.05,-51.07,25.0,25.0,20,3,,6.21,29.793306,,,,,,,,,,,CAVOK,,,,,,,,VFR,,,,,,,,,,,,METAR,15.0
SBNT 280700Z 19002KT 9999 FEW023 24/21 Q1012,SBNT,2018-10-28T07:00:00Z,-5.92,-35.25,24.0,21.0,190,2,,6.21,29.88189,,,,,,,,,,,FEW,2300,,,,,,,VFR,,,,,,,,,,,,METAR,49.0
MHCA 280700Z 00000KT 9999 SCT030 SCT080 22/21 Q1016,MHCA,2018-10-28T07:00:00Z,14.9,-85.78,22.0,21.0,0,0,,6.21,30.0,,,,,,,,,,,SCT,3000,SCT,8000,,,,,VFR,,,,,,,,,,,,METAR,442.0
MGPB 280700Z 00000KT 9999 SCT017 BKN080 24/24 Q1015 A2997,MGPB,2018-10-28T07:00:00Z,15.72,-88.58,24.0,24.0,0,0,,6.21,29.970472,,,,,,,,,,,SCT,1700,BKN,8000,,,,,VFR,,,,,,,,,,,,METAR,10.0
MGHT 280700Z 00000KT 9999 OVC022 16/14,MGHT,2018-10-28T07:00:00Z,15.32,-91.5,16.0,14.0,0,0,,6.21,,,,,,,,,,,,OVC,2200,,,,,,,MVFR,,,,,,,,,,,,METAR,1901.0
MGMM 280700Z 00000KT 9999 SCT018 23/22 Q1017 A3003,MGMM,2018-10-28T07:00:00Z,16.97,-89.87,23.0,22.0,0,0,,6.21,30.029528,,,,,,,,,,,SCT,1800,,,,,,,VFR,,,,,,,,,,,,METAR,123.0
OSKL 280700Z 07004KT CAVOK 16/06 Q1026,OSKL,2018-10-28T07:00:00Z,37.03,41.2,16.0,6.0,70,4,,6.21,30.295275,,,,,,,,,,,CAVOK,,,,,,,,VFR,,,,,,,,,,,,METAR,455.0
OSLK 280700Z 36003KT CAVOK 22/06 Q1025,OSLK,2018-10-28T07:00:00Z,35.4,35.95,22.0,6.0,360,3,,6.21,30.265747,,,,,,,,,,,CAVOK,,,,,,,,VFR,,,,,,,,,,,,METAR,48.0
OSDI 280700Z 06004KT CAVOK 13/02 Q1028,OSDI,2018-10-28T07:00:00Z,33.42,36.52,13.0,2.0,60,4,,6.21,30.35433,,,,,,,,,,,CAVOK,,,,,,,,VFR,,,,,,,,,,,,METAR,605.0
SBFZ 280700Z 15004KT 9999 SCT021 25/22 Q1011,SBFZ,2018-10-28T07:00:00Z,-3.77,-38.52,25.0,22.0,150,4,,6.21,29.852362,,,,,,,,,,,SCT,2100,,,,,,,VFR,,,,,,,,,,,,METAR,25.0
OPMT 280700Z 18004KT 3000 HZ NSC 31/11 Q1017 NOSIG,OPMT,2018-10-28T07:00:00Z,30.18,71.42,31.0,11.0,180,4,,1.86,30.029528,,,,,,TRUE,,,,HZ,CLR,,,,,,,,IFR,,,,,,,,,,,,METAR,123.0
SBPV 280700Z 31001KT 9999 FEW027 25/24 Q1008,SBPV,2018-10-28T07:00:00Z,-8.72,-63.9,25.0,24.0,310,1,,6.21,29.763779,,,,,,,,,,,FEW,2700,,,,,,,VFR,,,,,,,,,,,,METAR,88.0
MGGT 280700Z 36012KT 9999 BKN012 17/16 Q1027 A3033,MGGT,2018-10-28T07:00:00Z,14.57,-90.53,17.0,16.0,360,12,,6.21,30.324802,,,,,,,,,,,BKN,1200,,,,,,,MVFR,,,,,,,,,,,,METAR,1509.0
SCVM 280700Z 21003KT CAVOK 10/09 Q1016,SCVM,2018-10-28T07:00:00Z,-32.95,-71.48,10.0,9.0,210,3,,6.21,30.0,,,,,,,,,,,CAVOK,,,,,,,,VFR,,,,,,,,,,,,METAR,141.0
SBRB 280700Z 31004KT CAVOK 25/25 Q1010,SBRB,2018-10-28T07:00:00Z,-10.0,-67.78,25.0,25.0,310,4,,6.21,29.822834,,,,,,,,,,,CAVOK,,,,,,,,VFR,,,,,,,,,,,,METAR,143.0
OBBI 280700Z 26010KT 220V290 9999 FEW025 26/22 Q1019 NOSIG,OBBI,2018-10-28T07:00:00Z,26.27,50.63,26.0,22.0,260,10,,6.21,30.088583,,,,,,TRUE,,,,,FEW,2500,,,,,,,VFR,,,,,,,,,,,,METAR,2.0
SBSL 280700Z 00000KT 9999 SCT017 25/23 Q1010,SBSL,2018-10-28T07:00:00Z,-2.6,-44.22,25.0,23.0,0,0,,6.21,29.822834,,,,,,,,,,,SCT,1700,,,,,,,VFR,,,,,,,,,,,,METAR,53.0
GVAC 280700Z 04005KT 9999 FEW014 SCT200 24/20 Q1015 NOSIG,GVAC,2018-10-28T07:00:00Z,16.72,-22.93,24.0,20.0,40,5,,6.21,29.970472,,,,,,TRUE,,,,,FEW,1400,SCT,20000,,,,,VFR,,,,,,,,,,,,METAR,55.0
SBEG 280700Z 00000KT CAVOK 25/23 Q1008,SBEG,2018-10-28T07:00:00Z,-3.02,-60.03,25.0,23.0,0,0,,6.21,29.763779,,,,,,,,,,,CAVOK,,,,,,,,VFR,,,,,,,,,,,,METAR,2.0
SBSV 280700Z 01007KT 350V050 9999 SCT020 26/23 Q1009,SBSV,2018-10-28T07:00:00Z,-12.9,-38.32,26.0,23.0,10,7,,6.21,29.793306,,,,,,,,,,,SCT,2000,,,,,,,VFR,,,,,,,,,,,,METAR,6.0
SBMO 280700Z 04009KT CAVOK 22/20 Q1012,SBMO,2018-10-28T07:00:00Z,-9.52,-35.77,22.0,20.0,40,9,,6.21,29.88189,,,,,,,,,,,CAVOK,,,,,,,,VFR,,,,,,,,,,,,METAR,115.0
SBRF 280700Z 05006KT 9999 SCT022 26/20 Q1011,SBRF,2018-10-28T07:00:00Z,-8.13,-34.92,26.0,20.0,50,6,,6.21,29.852362,,,,,,,,,,,SCT,2200,,,,,,,VFR,,,,,,,,,,,,METAR,19.0
LWOH 280700Z 20004KT 9999 SCT035 BKN080 14/10 Q1020,LWOH,2018-10-28T07:00:00Z,41.18,20.75,14.0,10.0,200,4,,6.21,30.11811,,,,,,,,,,,SCT,3500,BKN,8000,,,,,VFR,,,,,,,,,,,,METAR,761.0
AGGH 280700Z 32004KT 9999 TS FEW018CB BKN300 29/25 Q1008,AGGH,2018-10-28T07:00:00Z,-9.42,160.05,29.0,25.0,320,4,,6.21,29.763779,,,,,,,,,,TS,FEW,1800,BKN,30000,,,,,VFR,,,,,,,,,,,,SPECI,9.0
ORBI 280700Z 30008KT 7000 NSC 18/11 Q1023 NOSIG,ORBI,2018-10-28T07:00:00Z,33.27,44.23,18.0,11.0,300,8,,4.35,30.206694,,,,,,TRUE,,,,,CLR,,,,,,,,MVFR,,,,,,,,,,,,METAR,35.0
SBSJ 280700Z 22005KT 9999 BKN023 18/14 Q1013,SBSJ,2018-10-28T07:00:00Z,-23.22,-45.87,18.0,14.0,220,5,,6.21,29.911417,,,,,,,,,,,BKN,2300,,,,,,,MVFR,,,,,,,,,,,,METAR,646.0
BKPR 280700Z 19007KT 9999 FEW020 SCT090 13/09 Q1018 NOSIG,BKPR,2018-10-28T07:00:00Z,42.58,21.03,13.0,9.0,190,7,,6.21,30.059055,,,,,,TRUE,,,,,FEW,2000,SCT,9000,,,,,VFR,,,,,,,,,,,,METAR,576.0
SBBR 280700Z 19005KT 9999 FEW030 BKN100 20/18 Q1015,SBBR,2018-10-28T07:00:00Z,-15.87,-47.92,20.0,18.0,190,5,,6.21,29.970472,,,,,,,,,,,FEW,3000,BKN,10000,,,,,VFR,,,,,,,,,,,,METAR,1061.0
SBPS 280700Z 04003KT 9999 SCT015 BKN020 BKN100 25/23 Q1010,SBPS,2018-10-28T07:00:00Z,-16.43,-39.07,25.0,23.0,40,3,,6.21,29.822834,,,,,,,,,,,SCT,1500,BKN,2000,BKN,10000,,,MVFR,,,,,,,,,,,,METAR,51.0
VGHS 280700Z 10006KT 3500 HZ BKN010 FEW025CB OVC100 26/21 Q1016 TEMPO TSRA,VGHS,2018-10-28T07:00:00Z,23.85,90.4,26.0,21.0,100,6,,2.17,30.0,,,,,,,,,,HZ,BKN,1000,FEW,2500,OVC,10000,,,IFR,,,,,,,,,,,,METAR,10.0
YBUD 280700Z AUTO 01013KT 9999 // NCD 26/20 Q1009,YBUD,2018-10-28T07:00:00Z,-24.9,152.32,26.0,20.0,10,13,,6.21,29.793306,,,TRUE,,,,,,,,CLR,,,,,,,,VFR,,,,,,,,,,,,METAR,82.0
YBTL 280700Z AUTO 01013KT 9999 // NCD 27/22 Q1008,YBTL,2018-10-28T07:00:00Z,-19.25,146.75,27.0,22.0,10,13,,6.21,29.763779,,,TRUE,,,,,,,,CLR,,,,,,,,VFR,,,,,,,,,,,,METAR,6.0
YBWP 280700Z AUTO 28008KT 9999 // BKN087 BKN115 31/20 Q1006,YBWP,2018-10-28T07:00:00Z,-12.68,141.92,31.0,20.0,280,8,,6.21,29.704725,,,TRUE,,,,,,,,BKN,8700,BKN,11500,,,,,VFR,,,,,,,,,,,,METAR,12.0
YBWX 280700Z AUTO 26014KT //// // ////// 29/19 Q1008,YBWX,2018-10-28T07:00:00Z,-20.88,115.4,29.0,19.0,260,14,,,29.763779,,,TRUE,,,,,,,,,,,,,,,,,,,,,,,,,,,,METAR,6.0
YCAS 280700Z AUTO 14007KT //// // ////// 21/15 Q1014,YCAS,2018-10-28T07:00:00Z,-28.88,153.07,21.0,15.0,140,7,,,29.940945,,,TRUE,,,,,,,,,,,,,,,,,,,,,,,,,,,,METAR,26.0
YCAR 280700Z AUTO 22016KT 9999 // NCD 26/20 Q1010,YCAR,2018-10-28T07:00:00Z,-24.88,113.67,26.0,20.0,220,16,,6.21,29.822834,,,TRUE,,,,,,,,CLR,,,,,,,,VFR,,,,,,,,,,,,METAR,8.0
YCBB 280700Z AUTO 14012KT 9999 // NCD 22/08 Q1014,YCBB,2018-10-28T07:00:00Z,-31.33,149.27,22.0,8.0,140,12,,6.21,29.940945,,,TRUE,,,,,,,,CLR,,,,,,,,VFR,,,,,,,,,,,,METAR,645.0
YCBA 280700Z AUTO 18010KT 9999 // BKN120 25/M01 Q1013,YCBA,2018-10-28T07:00:00Z,-31.53,145.8,25.0,-1.0,180,10,,6.21,29.911417,,,TRUE,,,,,,,,BKN,12000,,,,,,,VFR,,,,,,,,,,,,METAR,221.0
WMSA 280700Z 31008KT 260V010 9999 -SHRA FEW017CB SCT140 BKN270 29/27 Q1009,WMSA,2018-10-28T07:00:00Z,3.13,101.55,29.0,27.0,310,8,,6.21,29.793306,,,,,,,,,,-SHRA,FEW,1700,SCT,14000,BKN,27000,,,VFR,,,,,,,,,,,,METAR,27.0
WBGS 280700Z 30004KT 260V350 9999 SCT018 SCT150 BKN300 33/25 Q1007,WBGS,2018-10-28T07:00:00Z,2.27,111.98,33.0,25.0,300,4,,6.21,29.734253,,,,,,,,,,,SCT,1800,SCT,15000,BKN,30000,,,VFR,,,,,,,,,,,,METAR,8.0
WBGR 280700Z VRB06KT 9999 TS SCT014 FEW015CB SCT150 BKN300 32/26 Q1007,WBGR,2018-10-28T07:00:00Z,4.32,113.97,32.0,26.0,0,6,,6.21,29.734253,,,,,,,,,,TS,SCT,1400,FEW,1500,SCT,15000,BKN,30000,VFR,,,,,,,,,,,,METAR,18.0
WBGY 280700Z 31008KT 260V010 9999 FEW015CB BKN024 31/25 Q1006,WBGY,2018-10-28T07:00:00Z,1.22,111.43,31.0,25.0,310,8,,6.21,29.704725,,,,,,,,,,,FEW,1500,BKN,2400,,,,,MVFR,,,,,,,,,,,,METAR,34.0
WBKL 280700Z VRB03KT 9999 FEW013 SCT140 BKN280 30/26 Q1008,WBKL,2018-10-28T07:00:00Z,5.28,115.25,30.0,26.0,0,3,,6.21,29.763779,,,,,,,,,,,FEW,1300,SCT,14000,BKN,28000,,,VFR,,,,,,,,,,,,METAR,30.0
FMCZ 280700Z AUTO 18009KT CAVOK 29/22 Q1016 TEMPO 4500 SHRA,FMCZ,2018-10-28T07:00:00Z,-12.8,45.27,29.0,22.0,180,9,,6.21,30.0,,,TRUE,,,,,,,,CAVOK,,,,,,,,VFR,,,,,,,,,,,,SPECI,7.0
YCCY 280700Z AUTO 23012KT //// // ////// 40/03 Q1006,YCCY,2018-10-28T07:00:00Z,-20.67,140.5,40.0,3.0,230,12,,,29.704725,,,TRUE,,,,,,,,,,,,,,,,,,,,,,,,,,,,METAR,570.0
YCBP 280700Z AUTO 10007KT 9999 // SCT078 BKN089 27/11 Q1012,YCBP,2018-10-28T07:00:00Z,-29.03,134.72,27.0,11.0,100,7,,6.21,29.88189,,,TRUE,,,,,,,,SCT,7800,BKN,8900,,,,,VFR,,,,,,,,,,,,METAR,226.0
VOBL 280700Z VRB13KT CAVOK 27/07 Q1017 NOSIG,VOBL,2018-10-28T07:00:00Z,13.2,77.7,27.0,7.0,0,13,,6.21,30.029528,,,,,,TRUE,,,,,CAVOK,,,,,,,,VFR,,,,,,,,,,,,METAR,915.0
TLPL 280700Z 06006KT 9999 FEW020 25/23 Q1012 NOSIG,TLPL,2018-10-28T07:00:00Z,13.75,-60.95,25.0,23.0,60,6,,6.21,29.88189,,,,,,TRUE,,,,,FEW,2000,,,,,,,VFR,,,,,,,,,,,,METAR,3.0
SPCL 280700Z 32002KT 9999 BKN017 25/23 Q1011 RMK PP000,SPCL,2018-10-28T07:00:00Z,-8.38,-74.58,25.0,23.0,320,2,,6.21,29.852362,,,,,,,,,,,BKN,1700,,,,,,,MVFR,,,,,,,,,,,,METAR,149.0
MKJP 280700Z 02008KT 9999 FEW022 27/23 Q1013,MKJP,2018-10-28T07:00:00Z,17.92,-76.78,27.0,23.0,20,8,,6.21,29.911417,,,,,,,,,,,FEW,2200,,,,,,,VFR,,,,,,,,,,,,METAR,3.0
OKBK 280700Z 35017KT 9999 FEW025 SCT100 22/06 Q1022 NOSIG,OKBK,2018-10-28T07:00:00Z,29.22,47.97,22.0,6.0,350,17,,6.21,30.177166,,,,,,TRUE,,,,,FEW,2500,SCT,10000,,,,,VFR,,,,,,,,,,,,METAR,55.0
OJAM 280700Z 11008KT 6000 NSC 14/M01 Q1027 NOSIG,OJAM,2018-10-28T07:00:00Z,31.97,35.97,14.0,-1.0,110,8,,3.73,30.324802,,,,,,TRUE,,,,,CLR,,,,,,,,MVFR,,,,,,,,,,,,METAR,773.0
ZMUB 280700Z 34008MPS CAVOK 08/M08 Q1021 NOSIG RMK QFE658.1 32,ZMUB,2018-10-28T07:00:00Z,47.83,106.78,8.0,-8.0,340,16,,6.21,30.147638,,,,,,TRUE,,,,,CAVOK,,,,,,,,VFR,,,,,,,,,,,,SPECI,1330.0
FQVL 280700Z 13011KT 9999 SCT020 26/20 Q1022,FQVL,2018-10-28T07:00:00Z,-22.0,35.32,26.0,20.0,130,11,,6.21,30.177166,,,,,,,,,,,SCT,2000,,,,,,,VFR,,,,,,,,,,,,METAR,21.0
OERK 280700Z 04011KT 1000 DZ FEW020 BKN040 OVC080 17/14 Q1023 NOSIG,OERK,2018-10-28T07:00:00Z,24.95,46.72,17.0,14.0,40,11,,0.62,30.206694,,,,,,TRUE,,,,DZ,FEW,2000,BKN,4000,OVC,8000,,,LIFR,,,,,,,,,,,,METAR,612.0
OEMA 280700Z 11011KT 1300 BLDU NSC 24/08 Q1023 NOSIG,OEMA,2018-10-28T07:00:00Z,24.55,39.7,24.0,8.0,110,11,,0.81,30.206694,,,,,,TRUE,,,,BLDU,CLR,,,,,,,,LIFR,,,,,,,,,,,,METAR,631.0
OEJN 280700Z 06012KT 6000 SKC 33/17 Q1013 TEMPO 5000,OEJN,2018-10-28T07:00:00Z,21.68,39.15,33.0,17.0,60,12,,3.73,29.911417,,,,,,,,,,,SKC,,,,,,,,MVFR,,,,,,,,,,,,METAR,15.0
OEDR 280700Z 28009KT 4000 HZ FEW040 BKN080 24/19 Q1018 NOSIG,OEDR,2018-10-28T07:00:00Z,26.27,50.17,24.0,19.0,280,9,,2.49,30.059055,,,,,,TRUE,,,,HZ,FEW,4000,BKN,8000,,,,,IFR,,,,,,,,,,,,METAR,17.0
OEDF 280700Z 36014KT 8000 SCT030 BKN100 26/20 Q1019 NOSIG,OEDF,2018-10-28T07:00:00Z,26.47,49.8,26.0,20.0,360,14,,4.97,30.088583,,,,,,TRUE,,,,,SCT,3000,BKN,10000,,,,,MVFR,,,,,,,,,,,,METAR,22.0
SVMI 280700Z 18002KT 9999 SCT016 25/23 Q1010,SVMI,2018-10-28T07:00:00Z,10.58,-67.0,25.0,23.0,180,2,,6.21,29.822834,,,,,,,,,,,SCT,1600,,,,,,,VFR,,,,,,,,,,,,METAR,48.0
HECA 280700Z 04011KT CAVOK 22/13 Q1021 NOSIG,HECA,2018-10-28T07:00:00Z,30.12,31.38,22.0,13.0,40,11,,6.21,30.147638,,,,,,TRUE,,,,,CAVOK,,,,,,,,VFR,,,,,,,,,,,,METAR,74.0
YESP 280700Z AUTO 13006KT 9999 // OVC012 16/14 Q1019,YESP,2018-10-28T07:00:00Z,-33.68,121.82,16.0,14.0,130,6,,6.21,30.088583,,,TRUE,,,,,,,,OVC,1200,,,,,,,MVFR,,,,,,,,,,,,METAR,143.0
SBGR 280700Z 16002KT 9999 SCT013 BKN020 15/15 Q1014,SBGR,2018-10-28T07:00:00Z,-23.42,-46.47,15.0,15.0,160,2,,6.21,29.940945,,,,,,,,,,,SCT,1300,BKN,2000,,,,,MVFR,,,,,,,,,,,,METAR,750.0
UGSB 280700Z 13011KT CAVOK 17/07 Q1027 NOSIG,UGSB,2018-10-28T07:00:00Z,41.62,41.6,17.0,7.0,130,11,,6.21,30.324802,,,,,,TRUE,,,,,CAVOK,,,,,,,,VFR,,,,,,,,,,,,METAR,32.0
UGKO 280700Z 07024G41KT CAVOK 18/07 Q1028 NOSIG,UGKO,2018-10-28T07:00:00Z,42.18,42.48,18.0,7.0,70,24,41,6.21,30.35433,,,,,,TRUE,,,,,CAVOK,,,,,,,,VFR,,,,,,,,,,,,METAR,68.0
UGTB 280700Z 23003KT 190V260 9999 OVC020 11/07 Q1037 NOSIG,UGTB,2018-10-28T07:00:00Z,41.67,44.95,11.0,7.0,230,3,,6.21,30.620079,,,,,,TRUE,,,,,OVC,2000,,,,,,,MVFR,,,,,,,,,,,,METAR,495.0
TFFF 280700Z AUTO 12003KT CAVOK 23/21 Q1012 NOSIG,TFFF,2018-10-28T07:00:00Z,14.6,-61.0,23.0,21.0,120,3,,6.21,29.88189,,,TRUE,,,TRUE,,,,,CAVOK,,,,,,,,VFR,,,,,,,,,,,,METAR,5.0
SAWH 280700Z 32018G30KT 9999 SCT040 BKN100 11/M02 Q0995,SAWH,2018-10-28T07:00:00Z,-54.85,-68.3,11.0,-2.0,320,18,30,6.21,29.379921,,,,,,,,,,,SCT,4000,BKN,10000,,,,,VFR,,,,,,,,,,,,METAR,14.0
LEPP 280700Z 35010KT 9999 FEW040 04/M02 Q1002,LEPP,2018-10-28T07:00:00Z,42.77,-1.65,4.0,-2.0,350,10,,6.21,29.586615,,,,,,,,,,,FEW,4000,,,,,,,VFR,,,,,,,,,,,,METAR,459.0
FMMI 280700Z 10005KT 050V160 8000 SCT020 SCT023 24/14 Q1020 NOSIG,FMMI,2018-10-28T07:00:00Z,-18.8,47.47,24.0,14.0,100,5,,4.97,30.11811,,,,,,TRUE,,,,,SCT,2000,SCT,2300,,,,,MVFR,,,,,,,,,,,,METAR,1276.0
UBBG 280700Z 30010KT 9999 FEW100 13/07 Q1034 R30/CLRD// NOSIG,UBBG,2018-10-28T07:00:00Z,40.73,46.32,13.0,7.0,300,10,,6.21,30.531496,,,,,,TRUE,,,,,FEW,10000,,,,,,,VFR,,,,,,,,,,,,METAR,330.0
UBBY 280700Z VRB02KT 9999 SCT020 15/08 Q1037 R33/CLRD70 NOSIG RMK MT PT OBSC,UBBY,2018-10-28T07:00:00Z,41.57,46.67,15.0,8.0,0,2,,6.21,30.620079,,,,,,TRUE,,,,,SCT,2000,,,,,,,VFR,,,,,,,,,,,,METAR,390.0
LEXJ 280700Z 22006KT 190V260 4900 -DZ FEW034TCU SCT055 BKN083 06/06 Q1007,LEXJ,2018-10-28T07:00:00Z,43.42,-3.82,6.0,6.0,220,6,,3.04,29.734253,,,,,,,,,,-DZ,FEW,3400,SCT,5500,BKN,8300,,,MVFR,,,,,,,,,,,,METAR,6.0
LELC 280700Z 30010KT 260V330 CAVOK 12/02 Q1000 NOSIG,LELC,2018-10-28T07:00:00Z,37.77,-0.8,12.0,2.0,300,10,,6.21,29.52756,,,,,,TRUE,,,,,CAVOK,,,,,,,,VFR,,,,,,,,,,,,METAR,3.0
LELN 280700Z 30009KT 270V340 9999 SCT045 01/M00 Q1004,LELN,2018-10-28T07:00:00Z,42.57,-5.65,1.0,0.0,300,9,,6.21,29.64567,,,,,,,,,,,SCT,4500,,,,,,,VFR,,,,,,,,,,,,METAR,914.0
GEML 280700Z 27012KT 240V320 9999 RA SCT035 14/07 Q1003,GEML,2018-10-28T07:00:00Z,35.27,-2.95,14.0,7.0,270,12,,6.21,29.616142,,,,,,,,,,RA,SCT,3500,,,,,,,VFR,,,,,,,,,,,,METAR,55.0
LESA 280700Z 00000KT 9999 FEW040 M03/M04 Q1004,LESA,2018-10-28T07:00:00Z,40.95,-5.5,-3.0,-4.0,0,0,,6.21,29.64567,,,,,,,,,,,FEW,4000,,,,,,,VFR,,,,,,,,,,,,METAR,795.0
LEST 280700Z 03007KT 010V070 9999 VCFG FEW030 FEW050CB 04/02 Q1011 NOSIG,LEST,2018-10-28T07:00:00Z,42.88,-8.42,4.0,2.0,30,7,,6.21,29.852362,,,,,,TRUE,,,,VCFG,FEW,3000,FEW,5000,,,,,VFR,,,,,,,,,,,,METAR,367.0
LEVD 280700Z VRB02KT 9000 SCT040 M02/M03 Q1004,LEVD,2018-10-28T07:00:00Z,41.72,-4.83,-2.0,-3.0,0,2,,5.59,29.64567,,,,,,,,,,,SCT,4000,,,,,,,VFR,,,,,,,,,,,,METAR,854.0
LEJR 280700Z 30006KT 270V330 CAVOK 08/05 Q1004,LEJR,2018-10-28T07:00:00Z,36.75,-6.07,8.0,5.0,300,6,,6.21,29.64567,,,,,,,,,,,CAVOK,,,,,,,,VFR,,,,,,,,,,,,METAR,30.0
LEZG 280700Z 30020KT 9999 FEW050 06/00 Q1000,LEZG,2018-10-28T07:00:00Z,41.67,-1.02,6.0,0.0,300,20,,6.21,29.52756,,,,,,,,,,,FEW,5000,,,,,,,VFR,,,,,,,,,,,,METAR,258.0
LEVT 280700Z 00000KT 9999 FEW015 SCT028 BKN060 03/02 Q1004,LEVT,2018-10-28T07:00:00Z,42.87,-2.72,3.0,2.0,0,0,,6.21,29.64567,,,,,,,,,,,FEW,1500,SCT,2800,BKN,6000,,,VFR,,,,,,,,,,,,METAR,509.0
LPFR 280700Z 33009KT 9999 FEW015 10/03 Q1006,LPFR,2018-10-28T07:00:00Z,37.02,-7.97,10.0,3.0,330,9,,6.21,29.704725,,,,,,,,,,,FEW,1500,,,,,,,VFR,,,,,,,,,,,,METAR,4.0
LPMA 280700Z 01017G33KT 320V050 9999 SCT016 19/10 Q1020,LPMA,2018-10-28T07:00:00Z,32.7,-16.77,19.0,10.0,10,17,33,6.21,30.11811,,,,,,,,,,,SCT,1600,,,,,,,VFR,,,,,,,,,,,,METAR,55.0
LPPS 280700Z 36020KT 9999 SCT014 BKN030 18/12 Q1020,LPPS,2018-10-28T07:00:00Z,33.07,-16.35,18.0,12.0,360,20,,6.21,30.11811,,,,,,,,,,,SCT,1400,BKN,3000,,,,,MVFR,,,,,,,,,,,,METAR,82.0
LPPR 280700Z 34013KT CAVOK 06/03 Q1010,LPPR,2018-10-28T07:00:00Z,41.22,-8.67,6.0,3.0,340,13,,6.21,29.822834,,,,,,,,,,,CAVOK,,,,,,,,VFR,,,,,,,,,,,,METAR,73.0
LPPT 280700Z 35012KT 9999 FEW025TCU 08/05 Q1008,LPPT,2018-10-28T07:00:00Z,38.77,-9.12,8.0,5.0,350,12,,6.21,29.763779,,,,,,,,,,,FEW,2500,,,,,,,VFR,,,,,,,,,,,,METAR,123.0
LPBJ 280700Z 32010KT CAVOK 06/02 Q1006,LPBJ,2018-10-28T07:00:00Z,38.08,-7.93,6.0,2.0,320,10,,6.21,29.704725,,,,,,,,,,,CAVOK,,,,,,,,VFR,,,,,,,,,,,,METAR,194.0
LPCS 280700Z 35017KT 9999 FEW022 09/05 Q1008,LPCS,2018-10-28T07:00:00Z,38.73,-9.35,9.0,5.0,350,17,,6.21,29.763779,,,,,,,,,,,FEW,2200,,,,,,,VFR,,,,,,,,,,,,METAR,99.0
LPHR 280700Z 06009KT 010V080 9999 FEW025 BKN040 17/10 Q1035,LPHR,2018-10-28T07:00:00Z,38.52,-28.72,17.0,10.0,60,9,,6.21,30.561024,,,,,,,,,,,FEW,2500,BKN,4000,,,,,VFR,,,,,,,,,,,,METAR,41.0
LPLA 280700Z /////KT 9999 FEW024 BKN030 17/12 Q1035,LPLA,2018-10-28T07:00:00Z,38.77,-27.1,17.0,12.0,,,,6.21,30.561024,,,,,,,,,,,FEW,2400,BKN,3000,,,,,MVFR,,,,,,,,,,,,METAR,55.0
LRBM 280700Z AUTO 06004KT 010V090 9999 FEW014/// SCT200/// 16/10 Q1013,LRBM,2018-10-28T07:00:00Z,47.67,23.47,16.0,10.0,60,4,,6.21,29.911417,,,TRUE,,,,,,,,FEW,1400,SCT,20000,,,,,VFR,,,,,,,,,,,,METAR,185.0
LRAR 280700Z 17016KT CAVOK 20/08 Q1011,LRAR,2018-10-28T07:00:00Z,46.18,21.27,20.0,8.0,170,16,,6.21,29.852362,,,,,,,,,,,CAVOK,,,,,,,,VFR,,,,,,,,,,,,METAR,118.0
LRCL 280700Z 08004KT 020V120 CAVOK 14/09 Q1014,LRCL,2018-10-28T07:00:00Z,46.78,23.68,14.0,9.0,80,4,,6.21,29.940945,,,,,,,,,,,CAVOK,,,,,,,,VFR,,,,,,,,,,,,METAR,413.0
LROD 280700Z 18017KT CAVOK 22/08 Q1011,LROD,2018-10-28T07:00:00Z,47.03,21.92,22.0,8.0,180,17,,6.21,29.852362,,,,,,,,,,,CAVOK,,,,,,,,VFR,,,,,,,,,,,,METAR,140.0
LRSM 280700Z AUTO 13002KT 060V220 9999 +RA BKN080/// 17/11 Q1011,LRSM,2018-10-28T07:00:00Z,47.7,22.88,17.0,11.0,130,2,,6.21,29.852362,,,TRUE,,,,,,,+RA,BKN,8000,,,,,,,VFR,,,,,,,,,,,,METAR,124.0
LRTM 280700Z 09004KT 8000 FEW008 10/08 Q1015,LRTM,2018-10-28T07:00:00Z,46.47,24.42,10.0,8.0,90,4,,4.97,29.970472,,,,,,,,,,,FEW,800,,,,,,,MVFR,,,,,,,,,,,,METAR,309.0
LRBC 280700Z VRB01KT CAVOK 14/08 Q1015,LRBC,2018-10-28T07:00:00Z,46.52,26.92,14.0,8.0,0,1,,6.21,29.970472,,,,,,,,,,,CAVOK,,,,,,,,VFR,,,,,,,,,,,,METAR,185.0
LRCV 280700Z 06005KT CAVOK 11/07 Q1017,LRCV,2018-10-28T07:00:00Z,44.32,23.88,11.0,7.0,60,5,,6.21,30.029528,,,,,,,,,,,CAVOK,,,,,,,,VFR,,,,,,,,,,,,METAR,191.0
LRIA 280700Z 10008KT CAVOK 14/06 Q1015,LRIA,2018-10-28T07:00:00Z,47.17,27.62,14.0,6.0,100,8,,6.21,29.970472,,,,,,,,,,,CAVOK,,,,,,,,VFR,,,,,,,,,,,,METAR,104.0
LRTC 280700Z 20005KT CAVOK 14/10 Q1017,LRTC,2018-10-28T07:00:00Z,45.07,28.72,14.0,10.0,200,5,,6.21,30.029528,,,,,,,,,,,CAVOK,,,,,,,,VFR,,,,,,,,,,,,METAR,6.0
LRSV 280700Z 21009KT CAVOK 16/08 Q1014,LRSV,2018-10-28T07:00:00Z,47.68,26.35,16.0,8.0,210,9,,6.21,29.940945,,,,,,,,,,,CAVOK,,,,,,,,VFR,,,,,,,,,,,,METAR,351.0
LRBS 280700Z VRB02KT CAVOK 14/08 Q1018 NOSIG,LRBS,2018-10-28T07:00:00Z,44.5,26.08,14.0,8.0,0,2,,6.21,30.059055,,,,,,TRUE,,,,,CAVOK,,,,,,,,VFR,,,,,,,,,,,,METAR,91.0
LRCK 280700Z 24007KT CAVOK 17/10 Q1018 NOSIG,LRCK,2018-10-28T07:00:00Z,44.37,28.48,17.0,10.0,240,7,,6.21,30.059055,,,,,,TRUE,,,,,CAVOK,,,,,,,,VFR,,,,,,,,,,,,METAR,108.0
LROP 280700Z VRB02KT CAVOK 13/10 Q1017 NOSIG,LROP,2018-10-28T07:00:00Z,44.57,26.1,13.0,10.0,0,2,,6.21,30.029528,,,,,,TRUE,,,,,CAVOK,,,,,,,,VFR,,,,,,,,,,,,METAR,95.0
LRTR 280700Z 14007KT CAVOK 16/11 Q1012 NOSIG,LRTR,2018-10-28T07:00:00Z,45.82,21.33,16.0,11.0,140,7,,6.21,29.88189,,,,,,TRUE,,,,,CAVOK,,,,,,,,VFR,,,,,,,,,,,,METAR,88.0
LRSB 280700Z 11006KT CAVOK 18/09 Q1015,LRSB,2018-10-28T07:00:00Z,45.78,24.08,18.0,9.0,110,6,,6.21,29.970472,,,,,,,,,,,CAVOK,,,,,,,,VFR,,,,,,,,,,,,METAR,444.0
UMBB 280700Z 00000MPS 6000 NSC 06/03 Q1014 R29/CLRD// NOSIG,UMBB,2018-10-28T07:00:00Z,52.12,23.9,6.0,3.0,0,0,,3.73,29.940945,,,,,,TRUE,,,,,CLR,,,,,,,,MVFR,,,,,,,,,,,,METAR,143.0
UMGG 280700Z 25003MPS 9999 SCT060CB BKN090 08/06 Q1013 R10/D NOSIG,UMGG,2018-10-28T07:00:00Z,52.53,31.02,8.0,6.0,250,6,,6.21,29.911417,,,,,,TRUE,,,,,SCT,6000,BKN,9000,,,,,VFR,,,,,,,,,,,,METAR,144.0
UMII 280700Z 25005G08MPS 9999 BKN016CB 04/02 Q1008 TEMPO 2000 SHRA SCT005,UMII,2018-10-28T07:00:00Z,55.13,30.35,4.0,2.0,250,10,16,6.21,29.763779,,,,,,,,,,,BKN,1600,,,,,,,MVFR,,,,,,,,,,,,METAR,208.0
UMMG 280700Z 31004G07MPS 9999 BKN017 BKN066 05/02 Q1013 NOSIG,UMMG,2018-10-28T07:00:00Z,53.6,24.05,5.0,2.0,310,8,14,6.21,29.911417,,,,,,TRUE,,,,,BKN,1700,BKN,6600,,,,,MVFR,,,,,,,,,,,,METAR,135.0
UMMS 280700Z 24003G06MPS 9999 BKN020 05/02 Q1011 R31/D NOSIG,UMMS,2018-10-28T07:00:00Z,53.88,28.03,5.0,2.0,240,6,12,6.21,29.852362,,,,,,TRUE,,,,,BKN,2000,,,,,,,MVFR,,,,,,,,,,,,METAR,205.0
UMOO 280700Z 28006MPS 9999 BKN021 05/02 Q1010 NOSIG,UMOO,2018-10-28T07:00:00Z,53.95,30.1,5.0,2.0,280,12,,6.21,29.822834,,,,,,TRUE,,,,,BKN,2100,,,,,,,MVFR,,,,,,,,,,,,METAR,194.0
MKJS 280700Z 14003KT 9999 FEW022 27/24 Q1014,MKJS,2018-10-28T07:00:00Z,18.5,-77.92,27.0,24.0,140,3,,6.21,29.940945,,,,,,,,,,,FEW,2200,,,,,,,VFR,,,,,,,,,,,,METAR,1.0
LPPD 280700Z 04011KT 010V080 9999 FEW025 BKN040 17/10 Q1033,LPPD,2018-10-28T07:00:00Z,37.72,-25.68,17.0,10.0,40,11,,6.21,30.501968,,,,,,,,,,,FEW,2500,BKN,4000,,,,,VFR,,,,,,,,,,,,METAR,72.0
LPAZ 280700Z 04010KT 9999 FEW024 BKN040 17/11 Q1031,LPAZ,2018-10-28T07:00:00Z,36.97,-25.17,17.0,11.0,40,10,,6.21,30.442913,,,,,,,,,,,FEW,2400,BKN,4000,,,,,VFR,,,,,,,,,,,,METAR,100.0
RKSI 280700Z 32020KT 9999 FEW020CB SCT040 BKN090 11/06 Q1006 WS R16 R34 NOSIG,RKSI,2018-10-28T07:00:00Z,37.47,126.45,11.0,6.0,320,20,,6.21,29.704725,,,,,,TRUE,,,,,FEW,2000,SCT,4000,BKN,9000,,,VFR,,,,,,,,,,,,METAR,7.0
OLBA 280700Z VRB02KT CAVOK 24/07 Q1026 NOSIG,OLBA,2018-10-28T07:00:00Z,33.82,35.47,24.0,7.0,0,2,,6.21,30.295275,,,,,,TRUE,,,,,CAVOK,,,,,,,,VFR,,,,,,,,,,,,METAR,19.0
RKTU 280700Z 23015KT CAVOK 12/09 Q1006 NOSIG,RKTU,2018-10-28T07:00:00Z,36.7,127.5,12.0,9.0,230,15,,6.21,29.704725,,,,,,TRUE,,,,,CAVOK,,,,,,,,VFR,,,,,,,,,,,,METAR,66.0
RKTN 280700Z 21007KT CAVOK 18/05 Q1006 NOSIG,RKTN,2018-10-28T07:00:00Z,35.88,128.65,18.0,5.0,210,7,,6.21,29.704725,,,,,,TRUE,,,,,CAVOK,,,,,,,,VFR,,,,,,,,,,,,METAR,35.0
RKJB 280700Z 22016KT 9999 FEW030 18/09 Q1010 NOSIG,RKJB,2018-10-28T07:00:00Z,34.98,126.38,18.0,9.0,220,16,,6.21,29.822834,,,,,,TRUE,,,,,FEW,3000,,,,,,,VFR,,,,,,,,,,,,METAR,2.0
RKNY 280700Z 21004KT 9999 -RA SCT030 BKN080 09/06 Q1003 NOSIG,RKNY,2018-10-28T07:00:00Z,38.07,128.67,9.0,6.0,210,4,,6.21,29.616142,,,,,,TRUE,,,,-RA,SCT,3000,BKN,8000,,,,,VFR,,,,,,,,,,,,METAR,74.0
LEAB 280700Z 27009KT 9999 FEW012 04/02 Q1000 NOSIG,LEAB,2018-10-28T07:00:00Z,38.95,-1.85,4.0,2.0,270,9,,6.21,29.52756,,,,,,TRUE,,,,,FEW,1200,,,,,,,VFR,,,,,,,,,,,,METAR,704.0
LEBZ 280700Z 31006KT CAVOK 05/02 Q1005,LEBZ,2018-10-28T07:00:00Z,38.87,-6.82,5.0,2.0,310,6,,6.21,29.675198,,,,,,,,,,,CAVOK,,,,,,,,VFR,,,,,,,,,,,,METAR,192.0
LEBA 280700Z VRB01KT CAVOK 06/04 Q1003,LEBA,2018-10-28T07:00:00Z,37.85,-4.82,6.0,4.0,0,1,,6.21,29.616142,,,,,,,,,,,CAVOK,,,,,,,,VFR,,,,,,,,,,,,METAR,92.0
LEHC 280700Z AUTO 27005KT 9999 OVC046 04/03 Q0998,LEHC,2018-10-28T07:00:00Z,42.08,-0.32,4.0,3.0,270,5,,6.21,29.468504,,,TRUE,,,,,,,,OVC,4600,,,,,,,VFR,,,,,,,,,,,,METAR,539.0
LEBT 280700Z AUTO 27004KT 240V320 CAVOK 07/06 Q0999,LEBT,2018-10-28T07:00:00Z,39.58,-0.45,7.0,6.0,270,4,,6.21,29.498032,,,TRUE,,,,,,,,CAVOK,,,,,,,,VFR,,,,,,,,,,,,METAR,50.0
LEBR 280700Z AUTO 31018KT 9999 NSC 06/M01 Q1001,LEBR,2018-10-28T07:00:00Z,42.2,-1.43,6.0,-1.0,310,18,,6.21,29.557087,,,TRUE,,,,,,,,CLR,,,,,,,,VFR,,,,,,,,,,,,METAR,295.0
LELO 280700Z 28008KT 250V320 9999 SCT050 05/00 Q1004,LELO,2018-10-28T07:00:00Z,42.45,-2.32,5.0,0.0,280,8,,6.21,29.64567,,,,,,,,,,,SCT,5000,,,,,,,VFR,,,,,,,,,,,,METAR,363.0
LETU 280700Z AUTO 31015KT 280V340 9999 NSC 06/M02 Q1002,LETU,2018-10-28T07:00:00Z,,,6.0,-2.0,310,15,,6.21,29.586615,,,TRUE,,,,,,,,CLR,,,,,,,,VFR,,,,,,,,,,,,METAR,
LEVS 280700Z 32003KT 280V010 9999 FEW050 03/M01 Q1002,LEVS,2018-10-28T07:00:00Z,40.37,-3.77,3.0,-1.0,320,3,,6.21,29.586615,,,,,,,,,,,FEW,5000,,,,,,,VFR,,,,,,,,,,,,METAR,687.0
LELL 280700Z 24006KT 210V280 7000 RA BKN035 OVC043 09/07 Q0998,LELL,2018-10-28T07:00:00Z,41.52,2.1,9.0,7.0,240,6,,4.35,29.468504,,,,,,,,,,RA,BKN,3500,OVC,4300,,,,,MVFR,,,,,,,,,,,,METAR,250.0
LEGA 280700Z 24002KT 9999 BKN025 BKN031 05/03 Q1002,LEGA,2018-10-28T07:00:00Z,37.12,-3.62,5.0,3.0,240,2,,6.21,29.586615,,,,,,,,,,,BKN,2500,BKN,3100,,,,,MVFR,,,,,,,,,,,,METAR,686.0
LEGT 280700Z 00000KT CAVOK 03/01 Q1002,LEGT,2018-10-28T07:00:00Z,40.28,-3.72,3.0,1.0,0,0,,6.21,29.586615,,,,,,,,,,,CAVOK,,,,,,,,VFR,,,,,,,,,,,,METAR,612.0
LERI 280700Z 28008KT 250V320 CAVOK 11/03 Q1001 NOSIG,LERI,2018-10-28T07:00:00Z,37.95,-1.22,11.0,3.0,280,8,,6.21,29.557087,,,,,,TRUE,,,,,CAVOK,,,,,,,,VFR,,,,,,,,,,,,METAR,75.0
LERT 280700Z 35008KT 320V020 9999 FEW029 10/05 Q1004 NOSIG,LERT,2018-10-28T07:00:00Z,36.63,-6.33,10.0,5.0,350,8,,6.21,29.64567,,,,,,TRUE,,,,,FEW,2900,,,,,,,VFR,,,,,,,,,,,,METAR,26.0
LETO 280700Z 35012KT 9999 FEW060 SCT068 04/00 Q1001 NOSIG,LETO,2018-10-28T07:00:00Z,40.47,-3.47,4.0,0.0,350,12,,6.21,29.557087,,,,,,TRUE,,,,,FEW,6000,SCT,6800,,,,,VFR,,,,,,,,,,,,METAR,608.0
WSSS 280700Z VRB06KT 3500 R02L/1300N R02C/1600N TSRA FEW012 FEW014CB SCT015TCU 25/24 Q1010 RESHRA BECMG FM0740 TL0755 6000 NSW,WSSS,2018-10-28T07:00:00Z,1.37,103.97,25.0,24.0,0,6,,2.17,29.822834,,,,,,,,,,TSRA,FEW,1200,FEW,1400,SCT,1500,,,IFR,,,,,,,,,,,,METAR,16.0
FACT 280700Z 19004KT CAVOK 23/16 Q1014 NOSIG,FACT,2018-10-28T07:00:00Z,-33.97,18.6,23.0,16.0,190,4,,6.21,29.940945,,,,,,TRUE,,,,,CAVOK,,,,,,,,VFR,,,,,,,,,,,,METAR,42.0
FAEL 280700Z 06016G26KT 9999 FEW023 23/17 Q1020,FAEL,2018-10-28T07:00:00Z,-33.02,27.82,23.0,17.0,60,16,26,6.21,30.11811,,,,,,,,,,,FEW,2300,,,,,,,VFR,,,,,,,,,,,,METAR,125.0
FAHS 280700Z AUTO 12005KT //// // ////// 25/14 Q1024,FAHS,2018-10-28T07:00:00Z,-24.37,31.02,25.0,14.0,120,5,,,30.236221,,,TRUE,,,,,,,,,,,,,,,,,,,,,,,,,,,,METAR,500.0
FAKM 280700Z 36009KT CAVOK 30/02 Q1024,FAKM,2018-10-28T07:00:00Z,-28.8,24.77,30.0,2.0,360,9,,6.21,30.236221,,,,,,,,,,,CAVOK,,,,,,,,VFR,,,,,,,,,,,,METAR,1192.0
FAKN 280700Z 08006KT CAVOK 21/12 Q1027 NOSIG,FAKN,2018-10-28T07:00:00Z,-25.38,31.1,21.0,12.0,80,6,,6.21,30.324802,,,,,,TRUE,,,,,CAVOK,,,,,,,,VFR,,,,,,,,,,,,METAR,862.0
FALE 280700Z 04010KT 010V080 9999 BKN025 SCT030 25/18 Q1022 NOSIG,FALE,2018-10-28T07:00:00Z,-29.62,31.12,25.0,18.0,40,10,,6.21,30.177166,,,,,,TRUE,,,,,BKN,2500,SCT,3000,,,,,MVFR,,,,,,,,,,,,METAR,109.0
FAOR 280700Z 35007KT 320V030 CAVOK 21/04 Q1030 NOSIG,FAOR,2018-10-28T07:00:00Z,-26.12,28.22,21.0,4.0,350,7,,6.21,30.413385,,,,,,TRUE,,,,,CAVOK,,,,,,,,VFR,,,,,,,,,,,,METAR,1700.0
GMMB 280700Z AUTO 22011KT 180V250 //// R32/P2000N ////// 13/13 Q1008 NOSIG,GMMB,2018-10-28T07:00:00Z,33.65,-7.22,13.0,13.0,220,11,,1.24,29.763779,,,TRUE,,,TRUE,,,,,,,,,,,,,,,,,,,,,,,,,METAR,191.0
LKCV 280700Z 03007KT 350V050 7000 -RA SCT009 OVC017 05/04 Q1009 NOSIG RMK WHT WHT,LKCV,2018-10-28T07:00:00Z,49.93,15.38,5.0,4.0,30,7,,4.35,29.793306,,,,,,TRUE,,,,-RA,SCT,900,OVC,1700,,,,,MVFR,,,,,,,,,,,,METAR,242.0
GMAG 280700Z 36008KT 9999 SCT016 16/14 Q1013 NOSIG,GMAG,2018-10-28T07:00:00Z,29.03,-10.05,16.0,14.0,360,8,,6.21,29.911417,,,,,,TRUE,,,,,SCT,1600,,,,,,,VFR,,,,,,,,,,,,METAR,333.0
LKKB 280700Z 35007KT 320V020 4500 -RA BR FEW003 BKN015 OVC030 Q1010,LKKB,2018-10-28T07:00:00Z,50.12,14.53,,,350,7,,2.8,29.822834,,,,,,,,,,-RA BR,FEW,300,BKN,1500,OVC,3000,,,IFR,,,,,,,,,,,,METAR,286.0
LKLN 280700Z AUTO VRB04KT 8000 -RA OVC006 02/02 Q1009,LKLN,2018-10-28T07:00:00Z,49.68,13.27,2.0,2.0,0,4,,4.97,29.793306,,,TRUE,,,,,,,-RA,OVC,600,,,,,,,IFR,,,,,,,,,,,,METAR,362.0
LKNA 280700Z 04011KT 6000 -RA BKN004 OVC010 04/03 Q1006 NOSIG RMK YLO YLO,LKNA,2018-10-28T07:00:00Z,49.17,16.12,4.0,3.0,40,11,,3.73,29.704725,,,,,,TRUE,,,,-RA,BKN,400,OVC,1000,,,,,LIFR,,,,,,,,,,,,METAR,472.0
LKPD 280700Z 02006KT 6000 OVC015 05/03 Q1009 RMK BLACK,LKPD,2018-10-28T07:00:00Z,50.02,15.73,5.0,3.0,20,6,,3.73,29.793306,,,,,,,,,,,OVC,1500,,,,,,,MVFR,,,,,,,,,,,,METAR,226.0
YBAS 280700Z AUTO 22005KT 9999 // SCT120 32/10 Q1011 RF00.0/000.2 PRESENT WEATHER SENSOR US,YBAS,2018-10-28T07:00:00Z,-23.8,133.9,32.0,10.0,220,5,,6.21,29.852362,,,TRUE,,,,,,,,SCT,12000,,,,,,,VFR,,,,,,,,,,,,SPECI,541.0
YBCS 280700Z 01007KT CAVOK 28/22 Q1009 NOSIG,YBCS,2018-10-28T07:00:00Z,-16.87,145.75,28.0,22.0,10,7,,6.21,29.793306,,,,,,TRUE,,,,,CAVOK,,,,,,,,VFR,,,,,,,,,,,,METAR,7.0
YPAD 280700Z 24009KT CAVOK 20/11 Q1016 FM0900 16008KT CAVOK,YPAD,2018-10-28T07:00:00Z,-34.95,138.52,20.0,11.0,240,9,,6.21,30.0,,,,,,,,,,,CAVOK,,,,,,,,VFR,,,,,,,,,,,,METAR,4.0
YPCC 280700Z AUTO 14013KT //// // SCT024 28/20 Q1012,YPCC,2018-10-28T07:00:00Z,-12.17,96.82,28.0,20.0,140,13,,,29.88189,,,TRUE,,,,,,,,SCT,2400,,,,,,,,,,,,,,,,,,,METAR,3.0
YPDN 280700Z 34011KT 9999 FEW034 BKN300 31/23 Q1005,YPDN,2018-10-28T07:00:00Z,-12.42,130.9,31.0,23.0,340,11,,6.21,29.675198,,,,,,,,,,,FEW,3400,BKN,30000,,,,,VFR,,,,,,,,,,,,METAR,30.0
YPKU 280700Z AUTO 07008KT 040V120 9999 // NCD 42/04 Q1003,YPKU,2018-10-28T07:00:00Z,-15.77,128.68,42.0,4.0,70,8,,6.21,29.616142,,,TRUE,,,,,,,,CLR,,,,,,,,VFR,,,,,,,,,,,,METAR,45.0
YPLM 280700Z AUTO 18008KT 170V250 9999 // NCD 39/10 Q1007,YPLM,2018-10-28T07:00:00Z,-22.22,114.07,39.0,10.0,180,8,,6.21,29.734253,,,TRUE,,,,,,,,CLR,,,,,,,,VFR,,,,,,,,,,,,METAR,6.0
YPPH 280700Z 23012KT CAVOK 27/10 Q1015 NOSIG,YPPH,2018-10-28T07:00:00Z,-31.93,115.98,27.0,10.0,230,12,,6.21,29.970472,,,,,,TRUE,,,,,CAVOK,,,,,,,,VFR,,,,,,,,,,,,METAR,13.0
YPXM 280700Z AUTO 14010KT 9999 // NCD ///// Q1013,YPXM,2018-10-28T07:00:00Z,-10.45,105.67,,,140,10,,6.21,29.911417,,,TRUE,,,,,,,,CLR,,,,,,,,VFR,,,,,,,,,,,,METAR,259.0
YSSY 280700Z 13009KT 9999 FEW030 SCT040 BKN270 17/09 Q1017 NOSIG,YSSY,2018-10-28T07:00:00Z,-33.95,151.17,17.0,9.0,130,9,,6.21,30.029528,,,,,,TRUE,,,,,FEW,3000,SCT,4000,BKN,27000,,,VFR,,,,,,,,,,,,METAR,3.0
YABA 280700Z AUTO 14011KT 9999 // NCD 20/14 Q1017,YABA,2018-10-28T07:00:00Z,-34.93,117.8,20.0,14.0,140,11,,6.21,30.029528,,,TRUE,,,,,,,,CLR,,,,,,,,VFR,,,,,,,,,,,,METAR,69.0
RKPK 280700Z 23015KT 9999 SCT050 18/06 Q1008 NOSIG,RKPK,2018-10-28T07:00:00Z,35.17,128.92,18.0,6.0,230,15,,6.21,29.763779,,,,,,TRUE,,,,,SCT,5000,,,,,,,VFR,,,,,,,,,,,,METAR,15.0
RKPC 280700Z 25020KT CAVOK 19/06 Q1011 NOSIG,RKPC,2018-10-28T07:00:00Z,33.5,126.48,19.0,6.0,250,20,,6.21,29.852362,,,,,,TRUE,,,,,CAVOK,,,,,,,,VFR,,,,,,,,,,,,METAR,27.0
YAMB 280700Z AUTO 13015KT 9999 // SCT067 BKN125 26/15 Q1010,YAMB,2018-10-28T07:00:00Z,-27.63,152.72,26.0,15.0,130,15,,6.21,29.822834,,,TRUE,,,,,,,,SCT,6700,BKN,12500,,,,,VFR,,,,,,,,,,,,METAR,28.0
YARG 280700Z AUTO 07011KT 060V140 9999 // SCT063 42/05 Q1004,YARG,2018-10-28T07:00:00Z,-16.63,128.45,42.0,5.0,70,11,,6.21,29.64567,,,TRUE,,,,,,,,SCT,6300,,,,,,,VFR,,,,,,,,,,,,METAR,165.0
YAYE 280700Z AUTO 02003KT 9999 // SCT092 30/12 Q1011,YAYE,2018-10-28T07:00:00Z,-25.18,130.98,30.0,12.0,20,3,,6.21,29.852362,,,TRUE,,,,,,,,SCT,9200,,,,,,,VFR,,,,,,,,,,,,METAR,496.0
YBCV 280700Z AUTO 15015KT 9999 // NCD 33/M03 Q1010,YBCV,2018-10-28T07:00:00Z,-26.38,146.27,33.0,-3.0,150,15,,6.21,29.822834,,,TRUE,,,,,,,,CLR,,,,,,,,VFR,,,,,,,,,,,,METAR,304.0
YBDV 280700Z AUTO 21015KT //// // ////// 34/06 Q1009,YBDV,2018-10-28T07:00:00Z,-25.9,139.35,34.0,6.0,210,15,,,29.793306,,,TRUE,,,,,,,,,,,,,,,,,,,,,,,,,,,,METAR,47.0
LIBG 280700Z 16016G27KT 9999 -RA BKN010 SCT020 20/19 Q1012,LIBG,2018-10-28T07:00:00Z,40.52,17.38,20.0,19.0,160,16,27,6.21,29.88189,,,,,,,,,,-RA,BKN,1000,SCT,2000,,,,,MVFR,,,,,,,,,,,,SPECI,69.0
FAPE 280700Z 03012KT CAVOK 21/17 Q1018 NOSIG,FAPE,2018-10-28T07:00:00Z,-33.97,25.6,21.0,17.0,30,12,,6.21,30.059055,,,,,,TRUE,,,,,CAVOK,,,,,,,,VFR,,,,,,,,,,,,METAR,60.0
FAUP 280700Z 36002KT CAVOK 32/M03 Q1019 NOSIG,FAUP,2018-10-28T07:00:00Z,-28.38,21.27,32.0,-3.0,360,2,,6.21,30.088583,,,,,,TRUE,,,,,CAVOK,,,,,,,,VFR,,,,,,,,,,,,METAR,836.0
FLKK 280700Z 09013KT CAVOK 24/09 Q1024,FLKK,2018-10-28T07:00:00Z,-15.32,28.45,24.0,9.0,90,13,,6.21,30.236221,,,,,,,,,,,CAVOK,,,,,,,,VFR,,,,,,,,,,,,METAR,1154.0
ZBAA 280700Z 30011G17MPS 270V340 CAVOK 16/M03 Q1011 NOSIG,ZBAA,2018-10-28T07:00:00Z,40.07,116.58,16.0,-3.0,300,21,33,6.21,29.852362,,,,,,TRUE,,,,,CAVOK,,,,,,,,VFR,,,,,,,,,,,,METAR,30.0
YSTW 280700Z AUTO 14012KT 090V190 9999 // NCD 24/08 Q1012 RF00.0/000.0,YSTW,2018-10-28T07:00:00Z,-31.07,150.85,24.0,8.0,140,12,,6.21,29.88189,,,TRUE,,,,,,,,CLR,,,,,,,,VFR,,,,,,,,,,,,METAR,410.0
ZBSJ 280700Z 36003MPS 330V040 CAVOK 23/M04 Q1010 NOSIG,ZBSJ,2018-10-28T07:00:00Z,38.28,114.7,23.0,-4.0,360,6,,6.21,29.822834,,,,,,TRUE,,,,,CAVOK,,,,,,,,VFR,,,,,,,,,,,,METAR,71.0
ZBTJ 280700Z 32006MPS CAVOK 17/M02 Q1010 NOSIG,ZBTJ,2018-10-28T07:00:00Z,39.12,117.35,17.0,-2.0,320,12,,6.21,29.822834,,,,,,TRUE,,,,,CAVOK,,,,,,,,VFR,,,,,,,,,,,,METAR,3.0
ZBYN 280700Z 29009MPS CAVOK 18/M06 Q1015 NOSIG,ZBYN,2018-10-28T07:00:00Z,37.77,112.63,18.0,-6.0,290,17,,6.21,29.970472,,,,,,TRUE,,,,,CAVOK,,,,,,,,VFR,,,,,,,,,,,,METAR,779.0
ZGGG 280700Z 02003MPS 330V120 CAVOK 28/05 Q1015 NOSIG,ZGGG,2018-10-28T07:00:00Z,23.4,113.3,28.0,5.0,20,6,,6.21,29.970472,,,,,,TRUE,,,,,CAVOK,,,,,,,,VFR,,,,,,,,,,,,METAR,15.0
ZSHC 280700Z 24005MPS 210V270 CAVOK 25/02 Q1015 NOSIG,ZSHC,2018-10-28T07:00:00Z,30.22,120.43,25.0,2.0,240,10,,6.21,29.970472,,,,,,TRUE,,,,,CAVOK,,,,,,,,VFR,,,,,,,,,,,,METAR,43.0
ZSPD 280700Z 27007MPS CAVOK 24/M02 Q1014 NOSIG,ZSPD,2018-10-28T07:00:00Z,31.15,121.8,24.0,-2.0,270,14,,6.21,29.940945,,,,,,TRUE,,,,,CAVOK,,,,,,,,VFR,,,,,,,,,,,,METAR,4.0
ZSSS 280700Z 25007MPS 220V280 CAVOK 24/00 Q1014 NOSIG,ZSSS,2018-10-28T07:00:00Z,31.2,121.33,24.0,0.0,250,14,,6.21,29.940945,,,,,,TRUE,,,,,CAVOK,,,,,,,,VFR,,,,,,,,,,,,METAR,7.0
ZWSH 280700Z 09004MPS 050V130 CAVOK 18/M12 Q1027 NOSIG,ZWSH,2018-10-28T07:00:00Z,39.55,76.02,18.0,-12.0,90,8,,6.21,30.324802,,,,,,TRUE,,,,,CAVOK,,,,,,,,VFR,,,,,,,,,,,,METAR,1380.0
ZWWW 280700Z 32003MPS 280V010 7000 NSC 14/M04 Q1023 NOSIG,ZWWW,2018-10-28T07:00:00Z,43.88,87.47,14.0,-4.0,320,6,,4.35,30.206694,,,,,,TRUE,,,,,CLR,,,,,,,,MVFR,,,,,,,,,,,,METAR,654.0
YSWG 280700Z AUTO 25006KT 210V290 9999 // NCD 25/M00 Q1012,YSWG,2018-10-28T07:00:00Z,-35.13,147.47,25.0,0.0,250,6,,6.21,29.88189,,,TRUE,,,,,,,,CLR,,,,,,,,VFR,,,,,,,,,,,,METAR,213.0
YTEF 280700Z AUTO 18009KT 9999 // SCT115 36/07 Q1008,YTEF,2018-10-28T07:00:00Z,-21.72,122.23,36.0,7.0,180,9,,6.21,29.763779,,,TRUE,,,,,,,,SCT,11500,,,,,,,VFR,,,,,,,,,,,,METAR,296.0
YTRE 280700Z AUTO 19007KT //// // OVC035 17/11 Q1017,YTRE,2018-10-28T07:00:00Z,-31.88,152.52,17.0,11.0,190,7,,,30.029528,,,TRUE,,,,,,,,OVC,3500,,,,,,,,,,,,,,,,,,,METAR,12.0
YTNK 280700Z AUTO 19004KT 9999 // NCD 37/06 Q1008,YTNK,2018-10-28T07:00:00Z,-19.63,134.18,37.0,6.0,190,4,,6.21,29.763779,,,TRUE,,,,,,,,CLR,,,,,,,,VFR,,,,,,,,,,,,METAR,377.0
YWGT 280700Z AUTO 28007KT 9999 // ////// 24/M06 Q1013,YWGT,2018-10-28T07:00:00Z,-36.42,146.3,24.0,-6.0,280,7,,6.21,29.911417,,,TRUE,,,,,,,,,,,,,,,,,,,,,,,,,,,,METAR,153.0
YWLM 280700Z AUTO 15007KT 9999 // OVC037 18/10 Q1017,YWLM,2018-10-28T07:00:00Z,-32.8,151.83,18.0,10.0,150,7,,6.21,30.029528,,,TRUE,,,,,,,,OVC,3700,,,,,,,VFR,,,,,,,,,,,,METAR,9.0
YWHA 280700Z AUTO 14008KT 9999 // NCD 20/15 Q1016,YWHA,2018-10-28T07:00:00Z,-33.07,137.52,20.0,15.0,140,8,,6.21,30.0,,,TRUE,,,,,,,,CLR,,,,,,,,VFR,,,,,,,,,,,,METAR,13.0
NWWW 280700Z AUTO 23005KT CAVOK 25/19 Q1010 NOSIG,NWWW,2018-10-28T07:00:00Z,-22.02,166.22,25.0,19.0,230,5,,6.21,29.822834,,,TRUE,,,TRUE,,,,,CAVOK,,,,,,,,VFR,,,,,,,,,,,,METAR,16.0
SBRJ 280700Z 26009KT 9999 SCT020 BKN040 24/17 Q1010,SBRJ,2018-10-28T07:00:00Z,-22.88,-43.17,24.0,17.0,260,9,,6.21,29.822834,,,,,,,,,,,SCT,2000,BKN,4000,,,,,VFR,,,,,,,,,,,,METAR,3.0
LWSK 280700Z 33002KT 9999 FEW015 SCT023 12/09 Q1020 NOSIG,LWSK,2018-10-28T07:00:00Z,41.97,21.63,12.0,9.0,330,2,,6.21,30.11811,,,,,,TRUE,,,,,FEW,1500,SCT,2300,,,,,VFR,,,,,,,,,,,,METAR,239.0
SBTE 280700Z 30004KT CAVOK 26/22 Q1010,SBTE,2018-10-28T07:00:00Z,-5.03,-42.82,26.0,22.0,300,4,,6.21,29.822834,,,,,,,,,,,CAVOK,,,,,,,,VFR,,,,,,,,,,,,METAR,69.0
LZIB 280700Z 04005KT 5000 FEW003 OVC004 10/09 Q1007 NOSIG,LZIB,2018-10-28T07:00:00Z,48.17,17.22,10.0,9.0,40,5,,3.11,29.734253,,,,,,TRUE,,,,,FEW,300,OVC,400,,,,,LIFR,,,,,,,,,,,,METAR,134.0
LZKZ 280700Z 36007KT 9999 -RA FEW015 BKN065 10/09 Q1011 NOSIG,LZKZ,2018-10-28T07:00:00Z,48.67,21.23,10.0,9.0,360,7,,6.21,29.852362,,,,,,TRUE,,,,-RA,FEW,1500,BKN,6500,,,,,VFR,,,,,,,,,,,,METAR,232.0
LZTT 280700Z 04003KT 010V070 0800 R27/P2000N FG OVC002 07/07 Q1010 NOSIG,LZTT,2018-10-28T07:00:00Z,49.07,20.25,7.0,7.0,40,3,,0.5,29.822834,,,,,,TRUE,,,,FG,OVC,200,,,,,,,LIFR,,,,,,,,,,,,METAR,707.0
SOCA 280700Z AUTO 00000KT 9999 FEW015 25/24 Q1010 TEMPO 3000 SHRA FEW015TCU,SOCA,2018-10-28T07:00:00Z,4.82,-52.37,25.0,24.0,0,0,,6.21,29.822834,,,TRUE,,,,,,,,FEW,1500,,,,,,,VFR,,,,,,,,,,,,METAR,9.0
VOCB 280700Z 06008KT 6000 NSC 31/12 Q1014 NOSIG,VOCB,2018-10-28T07:00:00Z,11.02,77.03,31.0,12.0,60,8,,3.73,29.940945,,,,,,TRUE,,,,,CLR,,,,,,,,MVFR,,,,,,,,,,,,METAR,399.0
OMAA 280700Z VRB04KT 8000 NSC 32/20 Q1016 BECMG 34012KT,OMAA,2018-10-28T07:00:00Z,24.42,54.63,32.0,20.0,0,4,,4.97,30.0,,,,,,,,,,,CLR,,,,,,,,MVFR,,,,,,,,,,,,METAR,27.0
OMAD 280700Z 02006KT 330V050 CAVOK 32/21 Q1016 BECMG 32010KT,OMAD,2018-10-28T07:00:00Z,24.42,54.47,32.0,21.0,20,6,,6.21,30.0,,,,,,,,,,,CAVOK,,,,,,,,VFR,,,,,,,,,,,,METAR,3.0
OMAL 280700Z 17017KT 7000 NSC 31/17 Q1018 NOSIG,OMAL,2018-10-28T07:00:00Z,24.25,55.6,31.0,17.0,170,17,,4.35,30.059055,,,,,,TRUE,,,,,CLR,,,,,,,,MVFR,,,,,,,,,,,,METAR,262.0
OMDB 280700Z 20008KT 170V230 CAVOK 33/17 Q1016 NOSIG,OMDB,2018-10-28T07:00:00Z,25.25,55.37,33.0,17.0,200,8,,6.21,30.0,,,,,,TRUE,,,,,CAVOK,,,,,,,,VFR,,,,,,,,,,,,METAR,5.0
OMDW 280700Z 18008KT 140V230 8000 NSC 32/17 Q1017 NOSIG,OMDW,2018-10-28T07:00:00Z,24.9,55.17,32.0,17.0,180,8,,4.97,30.029528,,,,,,TRUE,,,,,CLR,,,,,,,,MVFR,,,,,,,,,,,,METAR,25.0
OMFJ 280700Z 08007KT 040V150 7000 SCT020 31/24 Q1017 RMK A3003,OMFJ,2018-10-28T07:00:00Z,25.1,56.32,31.0,24.0,80,7,,4.35,30.029528,,,,,,,,,,,SCT,2000,,,,,,,MVFR,,,,,,,,,,,,METAR,28.0
OPNH 280700Z 31506KTS 4000 FU NSC 32/16 Q1016 NOSIG,OPNH,2018-10-28T07:00:00Z,26.22,68.37,32.0,16.0,315,6,,2.49,30.0,,,,,,TRUE,,,,FU,CLR,,,,,,,,IFR,,,,,,,,,,,,METAR,38.0
SPHI 280700Z 18010KT CAVOK 18/14 Q1014 RMK PP000,SPHI,2018-10-28T07:00:00Z,-6.77,-79.82,18.0,14.0,180,10,,6.21,29.940945,,,,,,,,,,,CAVOK,,,,,,,,VFR,,,,,,,,,,,,METAR,34.0
SPQT 280700Z 26005KT 230V300 CAVOK 24/22 Q1011 NOSIG RMK PP000,SPQT,2018-10-28T07:00:00Z,-3.78,-73.32,24.0,22.0,260,5,,6.21,29.852362,,,,,,TRUE,,,,,CAVOK,,,,,,,,VFR,,,,,,,,,,,,METAR,126.0
SPQU 280700Z 36003KT CAVOK 11/M10 Q1025 RMK PP000,SPQU,2018-10-28T07:00:00Z,-16.33,-71.57,11.0,-10.0,360,3,,6.21,30.265747,,,,,,,,,,,CAVOK,,,,,,,,VFR,,,,,,,,,,,,METAR,2554.0
SPRU 280700Z 16004KT 8000 FEW025 BKN140 17/14 Q1014 RMK BR PP000,SPRU,2018-10-28T07:00:00Z,-8.08,-79.12,17.0,14.0,160,4,,4.97,29.940945,,,,,,,,,,,FEW,2500,BKN,14000,,,,,MVFR,,,,,,,,,,,,METAR,30.0
SPZO 280700Z 00000KT 9999 SCT036 BKN080 10/07 Q1031 NOSIG RMK BIRD HAZARD RWY 28 PP000,SPZO,2018-10-28T07:00:00Z,-13.55,-71.97,10.0,7.0,0,0,,6.21,30.442913,,,,,,TRUE,,,,,SCT,3600,BKN,8000,,,,,VFR,,,,,,,,,,,,METAR,3249.0
SPTN 280700Z 26004KT 220V290 9999 OVC022 15/12 Q1015 RMK PP000,SPTN,2018-10-28T07:00:00Z,-18.07,-70.28,15.0,12.0,260,4,,6.21,29.970472,,,,,,,,,,,OVC,2200,,,,,,,MVFR,,,,,,,,,,,,METAR,458.0
SPSO 280700Z 23005KT 210V270 8000 FEW012 OVC017 18/15 Q1013 RMK PP000,SPSO,2018-10-28T07:00:00Z,-13.73,-76.22,18.0,15.0,230,5,,4.97,29.911417,,,,,,,,,,,FEW,1200,OVC,1700,,,,,MVFR,,,,,,,,,,,,METAR,10.0
SBVT 280700Z 20005KT 9999 FEW020 BKN050 25/22 Q1008,SBVT,2018-10-28T07:00:00Z,-20.27,-40.27,25.0,22.0,200,5,,6.21,29.763779,,,,,,,,,,,FEW,2000,BKN,5000,,,,,VFR,,,,,,,,,,,,METAR,4.0
SCEL 280700Z VRB02KT 9999 SCT180 SCT220 15/07 Q1016 NOSIG,SCEL,2018-10-28T07:00:00Z,-33.37,-70.77,15.0,7.0,0,2,,6.21,30.0,,,,,,TRUE,,,,,SCT,18000,SCT,22000,,,,,VFR,,,,,,,,,,,,METAR,476.0
NFTF 280700Z 09004KT 9999 FEW018 SCT110 23/22 Q1012,NFTF,2018-10-28T07:00:00Z,-21.23,-175.15,23.0,22.0,90,4,,6.21,29.88189,,,,,,,,,,,FEW,1800,SCT,11000,,,,,VFR,,,,,,,,,,,,METAR,38.0
SBMN 280700Z 17002KT CAVOK 26/25 Q1009,SBMN,2018-10-28T07:00:00Z,-3.13,-59.97,26.0,25.0,170,2,,6.21,29.793306,,,,,,,,,,,CAVOK,,,,,,,,VFR,,,,,,,,,,,,METAR,84.0
ZYTL 280700Z 29006MPS CAVOK 12/M00 Q1008 NOSIG,ZYTL,2018-10-28T07:00:00Z,38.97,121.53,12.0,0.0,290,12,,6.21,29.763779,,,,,,TRUE,,,,,CAVOK,,,,,,,,VFR,,,,,,,,,,,,METAR,97.0
ZYTX 280700Z 31007MPS 280V340 CAVOK 08/M13 Q1007 NOSIG,ZYTX,2018-10-28T07:00:00Z,41.63,123.48,8.0,-13.0,310,14,,6.21,29.734253,,,,,,TRUE,,,,,CAVOK,,,,,,,,VFR,,,,,,,,,,,,METAR,35.0
OMRK 280700Z 23003KT 9999 SCT040 33/20 Q1016 A3002,OMRK,2018-10-28T07:00:00Z,25.62,55.92,33.0,20.0,230,3,,6.21,30.0,,,,,,,,,,,SCT,4000,,,,,,,VFR,,,,,,,,,,,,METAR,31.0
FYWE 280700Z 07005KT 020V080 CAVOK 27/00 Q1027,FYWE,2018-10-28T07:00:00Z,-22.62,17.08,27.0,0.0,70,5,,6.21,30.324802,,,,,,,,,,,CAVOK,,,,,,,,VFR,,,,,,,,,,,,METAR,1700.0
KLHZ 280700Z AUTO 10SM CLR 07/07 A2989 RMK AO2,KLHZ,2018-10-28T07:00:00Z,36.02,-78.33,7.0,7.0,,,,10.0,29.890747,,,TRUE,TRUE,,,,,,,CLR,,,,,,,,VFR,,,,,,,,,,,,SPECI,113.0
OMSJ 280700Z 21007KT 170V240 CAVOK 33/18 Q1017,OMSJ,2018-10-28T07:00:00Z,25.32,55.52,33.0,18.0,210,7,,6.21,30.029528,,,,,,,,,,,CAVOK,,,,,,,,VFR,,,,,,,,,,,,METAR,33.0
DTKA 280700Z 20010KT 160V250 9999 SCT020 SCT030 21/10 Q1003 NOSIG,DTKA,2018-10-28T07:00:00Z,36.98,8.88,21.0,10.0,200,10,,6.21,29.616142,,,,,,TRUE,,,,,SCT,2000,SCT,3000,,,,,VFR,,,,,,,,,,,,METAR,21.0
DTMB 280700Z 19013KT 8000 FEW020 BKN033 21/14 Q1008 NOSIG,DTMB,2018-10-28T07:00:00Z,35.77,10.75,21.0,14.0,190,13,,4.97,29.763779,,,,,,TRUE,,,,,FEW,2000,BKN,3300,,,,,MVFR,,,,,,,,,,,,METAR,2.0
UBEE 280700Z 32006KT CAVOK 15/10 Q1035 R30/CLRD// NOSIG,UBEE,2018-10-28T07:00:00Z,40.63,47.15,15.0,10.0,320,6,,6.21,30.561024,,,,,,TRUE,,,,,CAVOK,,,,,,,,VFR,,,,,,,,,,,,METAR,15.0
SBAR 280700Z 03009KT 9999 FEW017 25/20 Q1010,SBAR,2018-10-28T07:00:00Z,-10.97,-37.07,25.0,20.0,30,9,,6.21,29.822834,,,,,,,,,,,FEW,1700,,,,,,,VFR,,,,,,,,,,,,METAR,9.0
SBCF 280700Z 32004KT 0800 R16/P2000 R34/P2000 FG OVC002 19/18 Q1013,SBCF,2018-10-28T07:00:00Z,-19.63,-43.97,19.0,18.0,320,4,,0.5,29.911417,,,,,,,,,,FG,OVC,200,,,,,,,LIFR,,,,,,,,,,,,SPECI,828.0
VABO 280700Z 00000KT 6000 NSC 34/17 Q1014 NOSIG,VABO,2018-10-28T07:00:00Z,22.33,73.22,34.0,17.0,0,0,,3.73,29.940945,,,,,,TRUE,,,,,CLR,,,,,,,,MVFR,,,,,,,,,,,,METAR,39.0
GVNP 280700Z 05007KT 9999 SCT015 24/21 Q1015 NOSIG,GVNP,2018-10-28T07:00:00Z,14.95,-23.48,24.0,21.0,50,7,,6.21,29.970472,,,,,,TRUE,,,,,SCT,1500,,,,,,,VFR,,,,,,,,,,,,METAR,70.0
SBGO 280700Z 29003KT CAVOK 20/20 Q1013,SBGO,2018-10-28T07:00:00Z,-16.62,-49.22,20.0,20.0,290,3,,6.21,29.911417,,,,,,,,,,,CAVOK,,,,,,,,VFR,,,,,,,,,,,,METAR,747.0
UBBL 280700Z VRB03KT 9000 BKN070 17/12 Q1035 R33/CLRD// NOSIG RMK MT OP ,UBBL,2018-10-28T07:00:00Z,38.75,48.82,17.0,12.0,0,3,,5.59,30.561024,,,,,,TRUE,,,,,BKN,7000,,,,,,,VFR,,,,,,,,,,,,METAR,10.0
NFFN 280700Z 19005KT 9999 FEW027TCU 26/22 Q1009 NOSIG,NFFN,2018-10-28T07:00:00Z,-17.75,177.45,26.0,22.0,190,5,,6.21,29.793306,,,,,,TRUE,,,,,FEW,2700,,,,,,,VFR,,,,,,,,,,,,METAR,18.0
GVBA 280700Z 05005KT 9999 FEW014 SCT200 24/21 Q1015 NOSIG,GVBA,2018-10-28T07:00:00Z,16.13,-22.88,24.0,21.0,50,5,,6.21,29.970472,,,,,,TRUE,,,,,FEW,1400,SCT,20000,,,,,VFR,,,,,,,,,,,,METAR,22.0
SBFL 280700Z 21008KT CAVOK 17/13 Q1012,SBFL,2018-10-28T07:00:00Z,-27.67,-48.53,17.0,13.0,210,8,,6.21,29.88189,,,,,,,,,,,CAVOK,,,,,,,,VFR,,,,,,,,,,,,METAR,5.0
VGEG 280700Z 03015KT 5000 SCT016 FEW030CB OVC100 27/24 Q1014 NOSIG,VGEG,2018-10-28T07:00:00Z,22.27,91.82,27.0,24.0,30,15,,3.11,29.940945,,,,,,TRUE,,,,,SCT,1600,FEW,3000,OVC,10000,,,MVFR,,,,,,,,,,,,METAR,6.0
SBFI 280700Z 32001KT 9999 1500NW NSC 12/12 Q1013,SBFI,2018-10-28T07:00:00Z,-25.6,-54.48,12.0,12.0,320,1,,6.21,29.911417,,,,,,,,,,,CLR,,,,,,,,VFR,,,,,,,,,,,,SPECI,243.0
ORNI 280700Z 28003KT CAVOK 19/09 Q1024 NOSIG,ORNI,2018-10-28T07:00:00Z,31.98,44.4,19.0,9.0,280,3,,6.21,30.236221,,,,,,TRUE,,,,,CAVOK,,,,,,,,VFR,,,,,,,,,,,,METAR,53.0
ORMM 280700Z 30007KT CAVOK 19/11 Q1023 NOSIG,ORMM,2018-10-28T07:00:00Z,30.57,47.67,19.0,11.0,300,7,,6.21,30.206694,,,,,,TRUE,,,,,CAVOK,,,,,,,,VFR,,,,,,,,,,,,METAR,2.0
DTNH 280700Z 20013KT 9999 FEW033 20/13 Q1006 NOSIG,DTNH,2018-10-28T07:00:00Z,36.07,10.43,20.0,13.0,200,13,,6.21,29.704725,,,,,,TRUE,,,,,FEW,3300,,,,,,,VFR,,,,,,,,,,,,METAR,2.0
DTTA 280700Z 15011KT 120V180 8000 -RA SCT026 20/14 Q1004 NOSIG,DTTA,2018-10-28T07:00:00Z,36.85,10.22,20.0,14.0,150,11,,4.97,29.64567,,,,,,TRUE,,,,-RA,SCT,2600,,,,,,,MVFR,,,,,,,,,,,,METAR,4.0
DTTF 280700Z 19006KT 8000 BKN023 16/12 Q1008 NOSIG,DTTF,2018-10-28T07:00:00Z,34.42,8.82,16.0,12.0,190,6,,4.97,29.763779,,,,,,TRUE,,,,,BKN,2300,,,,,,,MVFR,,,,,,,,,,,,METAR,314.0
DTTG 280700Z 22008KT 9999 FEW020 SCT030 19/12 Q1010 NOSIG,DTTG,2018-10-28T07:00:00Z,33.73,9.92,19.0,12.0,220,8,,6.21,29.822834,,,,,,TRUE,,,,,FEW,2000,SCT,3000,,,,,VFR,,,,,,,,,,,,METAR,5.0
DTTJ 280700Z 23013KT 9999 FEW026 23/13 Q1010 NOSIG,DTTJ,2018-10-28T07:00:00Z,33.87,10.77,23.0,13.0,230,13,,6.21,29.822834,,,,,,TRUE,,,,,FEW,2600,,,,,,,VFR,,,,,,,,,,,,METAR,4.0
DTTX 280700Z 21009KT 9999 FEW020 SCT030 21/12 Q1009,DTTX,2018-10-28T07:00:00Z,34.72,10.67,21.0,12.0,210,9,,6.21,29.793306,,,,,,,,,,,FEW,2000,SCT,3000,,,,,VFR,,,,,,,,,,,,METAR,23.0
FALA 280700Z 36006KT 320V050 CAVOK 23/04 Q1029 NOSIG,FALA,2018-10-28T07:00:00Z,-25.92,27.92,23.0,4.0,360,6,,6.21,30.383858,,,,,,TRUE,,,,,CAVOK,,,,,,,,VFR,,,,,,,,,,,,METAR,1377.0
FAMM 280700Z 02014KT CAVOK 27/02 Q1027 NOSIG,FAMM,2018-10-28T07:00:00Z,-25.8,25.52,27.0,2.0,20,14,,6.21,30.324802,,,,,,TRUE,,,,,CAVOK,,,,,,,,VFR,,,,,,,,,,,,METAR,1277.0
FAPP 280700Z 06006KT CAVOK 24/06 Q1026 NOSIG,FAPP,2018-10-28T07:00:00Z,-23.83,29.45,24.0,6.0,60,6,,6.21,30.295275,,,,,,TRUE,,,,,CAVOK,,,,,,,,VFR,,,,,,,,,,,,METAR,1242.0
FAUT 280700Z 10002KT 6000 NSC 21/14 Q1023,FAUT,2018-10-28T07:00:00Z,-31.52,28.67,21.0,14.0,100,2,,3.73,30.206694,,,,,,,,,,,CLR,,,,,,,,MVFR,,,,,,,,,,,,METAR,732.0
ETIK 280700Z AUTO 05009KT 9999 -RA BKN009 OVC017 04/04 A2980 RMK AO2 CIG 009V011 SLP104 $,ETIK,2018-10-28T07:00:00Z,49.47,10.37,4.0,4.0,50,9,,6.21,29.799213,1010.4,,TRUE,TRUE,TRUE,,,,,-RA,BKN,900,OVC,1700,,,,,IFR,,,,,,,,,,,,SPECI,325.0
ZGNN 280700Z 01004MPS 330V050 CAVOK 27/17 Q1017 NOSIG,ZGNN,2018-10-28T07:00:00Z,22.62,108.17,27.0,17.0,10,8,,6.21,30.029528,,,,,,TRUE,,,,,CAVOK,,,,,,,,VFR,,,,,,,,,,,,METAR,73.0
ZGOW 280700Z VRB02MPS CAVOK 27/11 Q1015 NOSIG,ZGOW,2018-10-28T07:00:00Z,23.55,116.5,27.0,11.0,0,4,,6.21,29.970472,,,,,,TRUE,,,,,CAVOK,,,,,,,,VFR,,,,,,,,,,,,METAR,3.0
ZGSZ 280700Z 02004MPS 340V060 CAVOK 29/05 Q1015 NOSIG,ZGSZ,2018-10-28T07:00:00Z,22.63,113.8,29.0,5.0,20,8,,6.21,29.970472,,,,,,TRUE,,,,,CAVOK,,,,,,,,VFR,,,,,,,,,,,,METAR,18.0
ZLXY 280700Z 30004MPS 250V010 CAVOK 24/M09 Q1020 NOSIG,ZLXY,2018-10-28T07:00:00Z,34.43,108.75,24.0,-9.0,300,8,,6.21,30.11811,,,,,,TRUE,,,,,CAVOK,,,,,,,,VFR,,,,,,,,,,,,METAR,479.0
ZPPP 280700Z 20005MPS 170V230 9999 FEW026 20/09 Q1025 NOSIG,ZPPP,2018-10-28T07:00:00Z,25.0,102.75,20.0,9.0,200,10,,6.21,30.265747,,,,,,TRUE,,,,,FEW,2600,,,,,,,VFR,,,,,,,,,,,,METAR,1892.0
ZSAM 280700Z 07003MPS 360V130 CAVOK 27/08 Q1015 NOSIG,ZSAM,2018-10-28T07:00:00Z,24.53,118.13,27.0,8.0,70,6,,6.21,29.970472,,,,,,TRUE,,,,,CAVOK,,,,,,,,VFR,,,,,,,,,,,,METAR,18.0
ZSFZ 280700Z 07004MPS 020V100 CAVOK 23/10 Q1016 NOSIG,ZSFZ,2018-10-28T07:00:00Z,25.93,119.67,23.0,10.0,70,8,,6.21,30.0,,,,,,TRUE,,,,,CAVOK,,,,,,,,VFR,,,,,,,,,,,,METAR,85.0
ZSNB 280700Z 28003MPS 250V320 CAVOK 24/02 Q1015 NOSIG,ZSNB,2018-10-28T07:00:00Z,29.83,121.47,24.0,2.0,280,6,,6.21,29.970472,,,,,,TRUE,,,,,CAVOK,,,,,,,,VFR,,,,,,,,,,,,METAR,4.0
ZSQD 280700Z 32006MPS 280V340 CAVOK 20/M03 Q1010 NOSIG,ZSQD,2018-10-28T07:00:00Z,36.27,120.38,20.0,-3.0,320,12,,6.21,29.822834,,,,,,TRUE,,,,,CAVOK,,,,,,,,VFR,,,,,,,,,,,,METAR,77.0
ZUGY 280700Z 30002MPS 240V350 8000 OVC046 18/11 Q1023 NOSIG,ZUGY,2018-10-28T07:00:00Z,26.53,106.8,18.0,11.0,300,4,,4.97,30.206694,,,,,,TRUE,,,,,OVC,4600,,,,,,,MVFR,,,,,,,,,,,,METAR,1074.0
ZUUU 280700Z 21002MPS 140V290 4500 HZ FEW030 23/15 Q1021 NOSIG,ZUUU,2018-10-28T07:00:00Z,30.58,103.95,23.0,15.0,210,4,,2.8,30.147638,,,,,,TRUE,,,,HZ,FEW,3000,,,,,,,IFR,,,,,,,,,,,,METAR,508.0
NVVV 280700Z VRB01KT 9999 BKN020 25/21 Q1010 RMK NIL,NVVV,2018-10-28T07:00:00Z,-17.68,168.3,25.0,21.0,0,1,,6.21,29.822834,,,,,,,,,,,BKN,2000,,,,,,,MVFR,,,,,,,,,,,,METAR,21.0
CYBR 280700Z 29011KT 15SM FEW220 01/M03 A2980 RMK CI1 SLP113,CYBR,2018-10-28T07:00:00Z,49.92,-99.95,1.0,-3.0,290,11,,15.0,29.799213,1011.3,,,,,,,,,,FEW,22000,,,,,,,VFR,,,,,,,,,,,,METAR,409.0
DIAP 280700Z 06002KT 8000 SCT012 26/24 Q1012 NOSIG,DIAP,2018-10-28T07:00:00Z,5.25,-3.92,26.0,24.0,60,2,,4.97,29.88189,,,,,,TRUE,,,,,SCT,1200,,,,,,,MVFR,,,,,,,,,,,,SPECI,8.0
FMNA 280700Z 14006KT 9999 BKN020 29/16 Q1015,FMNA,2018-10-28T07:00:00Z,-12.33,49.28,29.0,16.0,140,6,,6.21,29.970472,,,,,,,,,,,BKN,2000,,,,,,,MVFR,,,,,,,,,,,,METAR,105.0
FMNM 280700Z 34006KT 9999 FEW020 30/22 Q1014 NOSIG,FMNM,2018-10-28T07:00:00Z,-15.67,46.35,30.0,22.0,340,6,,6.21,29.940945,,,,,,TRUE,,,,,FEW,2000,,,,,,,VFR,,,,,,,,,,,,METAR,18.0
FMSD 280700Z 10014KT 9999 FEW020CB 26/19 Q1016,FMSD,2018-10-28T07:00:00Z,-25.02,46.95,26.0,19.0,100,14,,6.21,30.0,,,,,,,,,,,FEW,2000,,,,,,,VFR,,,,,,,,,,,,METAR,9.0
FOOL 280700Z 19005KT 9999 TS SCT008 FEW020CB BKN032 27/25 Q1013 NOSIG,FOOL,2018-10-28T07:00:00Z,0.45,9.42,27.0,25.0,190,5,,6.21,29.911417,,,,,,TRUE,,,,TS,SCT,800,FEW,2000,BKN,3200,,,VFR,,,,,,,,,,,,SPECI,15.0
UTAV 280700Z 36010KT 9999 FEW050CB OVC100 11/06 Q1036 NOSIG,UTAV,2018-10-28T07:00:00Z,39.08,63.62,11.0,6.0,360,10,,6.21,30.590551,,,,,,TRUE,,,,,FEW,5000,OVC,10000,,,,,VFR,,,,,,,,,,,,METAR,192.0
UDYZ 280700Z VRB01KT 9999 NSC 11/02 Q1034 R09/000070 NOSIG,UDYZ,2018-10-28T07:00:00Z,40.15,44.4,11.0,2.0,0,1,,6.21,30.531496,,,,,,TRUE,,,,,CLR,,,,,,,,VFR,,,,,,,,,,,,SPECI,865.0
UDSG 280700Z VRB01KT 9000 NSC 05/M01 Q1034 R02/CLRD70 NOSIG,UDSG,2018-10-28T07:00:00Z,40.75,43.87,5.0,-1.0,0,1,,5.59,30.531496,,,,,,TRUE,,,,,CLR,,,,,,,,VFR,,,,,,,,,,,,METAR,1524.0
UAAA 280700Z 24006MPS 9999 -SHRA BKN040CB OVC100 20/03 Q1026 R23L/CLRD65 TEMPO 26017MPS,UAAA,2018-10-28T07:00:00Z,43.35,77.03,20.0,3.0,240,12,,6.21,30.295275,,,,,,,,,,-SHRA,BKN,4000,OVC,10000,,,,,VFR,,,,,,,,,,,,METAR,681.0
UAAH 280700Z 28016MPS 9999 BKN025CB 10/04 Q1019 NOSIG RMK QFE727/0969,UAAH,2018-10-28T07:00:00Z,46.9,75.0,10.0,4.0,280,31,,6.21,30.088583,,,,,,TRUE,,,,,BKN,2500,,,,,,,MVFR,,,,,,,,,,,,METAR,441.0
UAAT 280700Z 26011MPS 9999 -SHRA BKN033CB OVC100 20/01 Q1021 R20/CLRD65 NOSIG RMK QFE714/0952,UAAT,2018-10-28T07:00:00Z,45.12,78.45,20.0,1.0,260,21,,6.21,30.147638,,,,,,TRUE,,,,-SHRA,BKN,3300,OVC,10000,,,,,VFR,,,,,,,,,,,,METAR,591.0
UADD 280700Z 35005MPS 9999 BKN004 OVC033CB 07/06 Q1031 R31/290056 NOSIG RMK QBB130 MT OBSC QFE714/0952,UADD,2018-10-28T07:00:00Z,42.85,71.3,7.0,6.0,350,10,,6.21,30.442913,,,,,,TRUE,,,,,BKN,400,OVC,3300,,,,,LIFR,,,,,,,,,,,,METAR,665.0
UACK 280700Z 31008MPS 9999 OVC023CB 01/00 Q1011 R20/190355 NOSIG RMK QFE735/0980,UACK,2018-10-28T07:00:00Z,53.32,69.58,1.0,0.0,310,16,,6.21,29.852362,,,,,,TRUE,,,,,OVC,2300,,,,,,,MVFR,,,,,,,,,,,,SPECI,2547.0
SCCY 280700Z AUTO 01004KT 340V050 9999 OVC044 09/06 Q1009,SCCY,2018-10-28T07:00:00Z,-45.57,-72.1,9.0,6.0,10,4,,6.21,29.793306,,,TRUE,,,,,,,,OVC,4400,,,,,,,VFR,,,,,,,,,,,,METAR,311.0
SCIC 280700Z AUTO 13003KT 100V160 9999 NCD 14/11 Q1015,SCIC,2018-10-28T07:00:00Z,-34.97,-71.22,14.0,11.0,130,3,,6.21,29.970472,,,TRUE,,,,,,,,CLR,,,,,,,,VFR,,,,,,,,,,,,METAR,242.0
SCRM 280700Z 32011KT 0300 -DZ FG OVC002 M00/M00 Q0984,SCRM,2018-10-28T07:00:00Z,-62.18,-58.98,0.0,0.0,320,11,,0.19,29.055119,,,,,,,,,,-DZ FG,OVC,200,,,,,,,LIFR,,,,,,,,,,,,METAR,45.0
SCCH 280700Z AUTO 00000KT CAVOK 12/12 Q1015,SCCH,2018-10-28T07:00:00Z,-36.57,-72.02,12.0,12.0,0,0,,6.21,29.970472,,,TRUE,,,,,,,,CAVOK,,,,,,,,VFR,,,,,,,,,,,,METAR,148.0
SCTN 280700Z AUTO 35013KT //// R/////// // FEW012 BKN036 13/12 Q1012,SCTN,2018-10-28T07:00:00Z,-42.92,-72.7,13.0,12.0,350,13,,,29.88189,,,TRUE,,,,,,,,FEW,1200,BKN,3600,,,,,,,,,,,,,,,,,METAR,4.0
SCPQ 280700Z AUTO 01010KT //// -RA OVC003 12/12 Q1011,SCPQ,2018-10-28T07:00:00Z,-42.33,-73.72,12.0,12.0,10,10,,,29.852362,,,TRUE,,,,,,,-RA,OVC,300,,,,,,,,,,,,,,,,,,,METAR,5.0
SCIP 280700Z 11013KT 9999 SCT020 BKN100 19/15 Q1023 NOSIG,SCIP,2018-10-28T07:00:00Z,-27.17,-109.43,19.0,15.0,110,13,,6.21,30.206694,,,,,,TRUE,,,,,SCT,2000,BKN,10000,,,,,VFR,,,,,,,,,,,,METAR,69.0
CBBC 280700Z AUTO 16004KT 9SM -RA OVC047 09/08 A2944 RMK SLP972,CBBC,2018-10-28T07:00:00Z,52.18,-128.15,9.0,8.0,160,4,,9.0,29.438976,997.2,,TRUE,,,,,,,-RA,OVC,4700,,,,,,,VFR,,,,,,,,,,,,METAR,43.0
SBGL 280700Z 25008KT 9999 BKN030 OVC070 23/16 Q1010,SBGL,2018-10-28T07:00:00Z,-22.82,-43.25,23.0,16.0,250,8,,6.21,29.822834,,,,,,,,,,,BKN,3000,OVC,7000,,,,,MVFR,,,,,,,,,,,,METAR,6.0
GBYD 280700Z VRB02KT 9000 DKC 24/22 Q1012,GBYD,2018-10-28T07:00:00Z,13.33,-16.65,24.0,22.0,0,2,,5.59,29.88189,,,,,,,,,,,,,,,,,,,,,,,,,,,,,,,SPECI,36.0
GVSV 280700Z 06008KT 9999 FEW020 SCT200 24/20 Q1015 NOSIG,GVSV,2018-10-28T07:00:00Z,16.83,-25.07,24.0,20.0,60,8,,6.21,29.970472,,,,,,TRUE,,,,,FEW,2000,SCT,20000,,,,,VFR,,,,,,,,,,,,METAR,20.0
OPSK 280700Z 00000KT 3000 HZ NSC 35/18 QNH 1015 NOSIG,OPSK,2018-10-28T07:00:00Z,27.72,68.8,35.0,18.0,0,0,,1.86,,,,,,,TRUE,,,,HZ,CLR,,,,,,,,IFR,,,,,,,,,,,,METAR,58.0
MYNN 280700Z 22003KT 190V250 CAVOK 23/22 A3000,MYNN,2018-10-28T07:00:00Z,25.03,-77.47,23.0,22.0,220,3,,6.21,30.0,,,,,,,,,,,CAVOK,,,,,,,,VFR,,,,,,,,,,,,METAR,3.0
GLRB 280700Z 07003KT 7000 BKN013 FEW023CB 25/24 Q1012 RMK CB-W BRVC,GLRB,2018-10-28T07:00:00Z,6.25,-10.33,25.0,24.0,70,3,,4.35,29.88189,,,,,,,,,,,BKN,1300,FEW,2300,,,,,MVFR,,,,,,,,,,,,SPECI,18.0
OPPS 280700Z 05004KT 3000 HZ 26/14 QNH1020,OPPS,2018-10-28T07:00:00Z,34.02,71.52,26.0,14.0,50,4,,1.86,,,,,,,,,,,HZ,,,,,,,,,,,,,,,,,,,,,METAR,360.0
ORER 280700Z VRB01KT 7000 NSC 25/05 Q1027 NOSIG,ORER,2018-10-28T07:00:00Z,36.23,43.97,25.0,5.0,0,1,,4.35,30.324802,,,,,,TRUE,,,,,CLR,,,,,,,,MVFR,,,,,,,,,,,,METAR,409.0
UAII 280700Z 31006MPS 9999 -SHRA BKN008 OVC026CB 07/06 Q1035 R28/2///55 NOSIG RMK QFE738/0984,UAII,2018-10-28T07:00:00Z,42.37,69.48,7.0,6.0,310,12,,6.21,30.561024,,,,,,TRUE,,,,-SHRA,BKN,800,OVC,2600,,,,,IFR,,,,,,,,,,,,METAR,422.0
UAOO 280700Z 28009MPS CAVOK 12/02 Q1033 R23/CLRD70 NOSIG RMK QFE762/1017,UAOO,2018-10-28T07:00:00Z,44.7,65.6,12.0,2.0,280,17,,6.21,30.501968,,,,,,TRUE,,,,,CAVOK,,,,,,,,VFR,,,,,,,,,,,,SPECI,129.0
UACP 280700Z 28007MPS 9999 SCT046CB 03/M02 Q1010 R23/2/0258 NOSIG RMK QFE745/0993,UACP,2018-10-28T07:00:00Z,54.78,69.18,3.0,-2.0,280,14,,6.21,29.822834,,,,,,TRUE,,,,,SCT,4600,,,,,,,VFR,,,,,,,,,,,,METAR,142.0
UASK 280700Z 14009MPS 9999 BKN150 19/M03 Q1013 R12/090060 TEMPO 14010G15MPS RMK QFE734/0979,UASK,2018-10-28T07:00:00Z,50.03,82.5,19.0,-3.0,140,17,,6.21,29.911417,,,,,,,,,,,BKN,15000,,,,,,,VFR,,,,,,,,,,,,METAR,286.0
UASP 280700Z 16007MPS 9999 -SHRA BKN043CB OVC093 10/06 Q1000 R21/290565 NOSIG RMK QFE739/0986,UASP,2018-10-28T07:00:00Z,52.2,77.07,10.0,6.0,160,14,,6.21,29.52756,,,,,,TRUE,,,,-SHRA,BKN,4300,OVC,9300,,,,,VFR,,,,,,,,,,,,METAR,125.0
UAKK 280700Z 26013MPS 9999 -SHRA BKN006 OVC020CB 03/02 Q1013 R23/0///70 NOSIG RMK QBB190 QFE713/0951,UAKK,2018-10-28T07:00:00Z,49.67,73.33,3.0,2.0,260,25,,6.21,29.911417,,,,,,TRUE,,,,-SHRA,BKN,600,OVC,2000,,,,,IFR,,,,,,,,,,,,METAR,538.0
UACC 280700Z 29009G14MPS 9999 -SHSNRA BKN008 OVC020CB 02/01 Q1012 R22/250355 TEMPO 30015G20MPS 1500 SHSNRA RMK QFE728/0971,UACC,2018-10-28T07:00:00Z,51.02,71.47,2.0,1.0,290,17,27,6.21,29.88189,,,,,,,,,,-SHSN -SHRA,BKN,800,OVC,2000,,,,,IFR,,,,,,,,,,,,METAR,355.0
FMMT 280700Z VRB03KT 9999 VCSH SCT017 SCT033 26/18 Q1016 NOSIG,FMMT,2018-10-28T07:00:00Z,-18.12,49.38,26.0,18.0,0,3,,6.21,30.0,,,,,,TRUE,,,,VCSH,SCT,1700,SCT,3300,,,,,VFR,,,,,,,,,,,,METAR,6.0
LESO 280700Z VRB01KT 9999 SCT040 05/04 Q1006,LESO,2018-10-28T07:00:00Z,43.35,-1.8,5.0,4.0,0,1,,6.21,29.704725,,,,,,,,,,,SCT,4000,,,,,,,VFR,,,,,,,,,,,,METAR,8.0
UASS 280700Z 15011MPS 9999 SCT040CB 18/M03 Q1009 R26/0///60 TEMPO 23015G20MPS RMK QFE738/0984,UASS,2018-10-28T07:00:00Z,50.35,80.23,18.0,-3.0,150,21,,6.21,29.793306,,,,,,,,,,,SCT,4000,,,,,,,VFR,,,,,,,,,,,,METAR,232.0
UARR 280700Z 19007MPS CAVOK 04/01 Q1024 R22/CLRD70 NOSIG RMK QFE764/1019,UARR,2018-10-28T07:00:00Z,51.15,51.53,4.0,1.0,190,14,,6.21,30.236221,,,,,,TRUE,,,,,CAVOK,,,,,,,,VFR,,,,,,,,,,,,SPECI,38.0
UATE 280700Z 13008MPS 9999 SCT040 11/03 Q1035 R12/0///70 NOSIG RMK QFE774/1033,UATE,2018-10-28T07:00:00Z,43.87,51.1,11.0,3.0,130,16,,6.21,30.561024,,,,,,TRUE,,,,,SCT,4000,,,,,,,VFR,,,,,,,,,,,,METAR,22.0
UATG 280700Z 22008MPS 9999 BKN041 11/04 Q1032 R14/19//67 NOSIG RMK QFE776/1035,UATG,2018-10-28T07:00:00Z,47.12,51.83,11.0,4.0,220,16,,6.21,30.47244,,,,,,TRUE,,,,,BKN,4100,,,,,,,VFR,,,,,,,,,,,,SPECI,-22.0
UATT 280700Z 24006MPS CAVOK 05/M03 Q1028 R31/0///60 NOSIG RMK QFE750/1001,UATT,2018-10-28T07:00:00Z,50.25,57.2,5.0,-3.0,240,12,,6.21,30.35433,,,,,,TRUE,,,,,CAVOK,,,,,,,,VFR,,,,,,,,,,,,METAR,227.0
TNCC 280700Z AUTO 11011KT 9999 NSC 28/23 Q1011 ,TNCC,2018-10-28T07:00:00Z,12.2,-68.97,28.0,23.0,110,11,,6.21,29.852362,,,TRUE,,,,,,,,CLR,,,,,,,,VFR,,,,,,,,,,,,METAR,9.0
SARP 280700Z 16005KT CAVOK 16/12 Q1015,SARP,2018-10-28T07:00:00Z,-27.38,-55.97,16.0,12.0,160,5,,6.21,29.970472,,,,,,,,,,,CAVOK,,,,,,,,VFR,,,,,,,,,,,,METAR,125.0
RCSS 280700Z 08009KT 030V110 9999 FEW025 25/11 Q1015 NOSIG RMK A3000,RCSS,2018-10-28T07:00:00Z,25.07,121.53,25.0,11.0,80,9,,6.21,29.970472,,,,,,TRUE,,,,,FEW,2500,,,,,,,VFR,,,,,,,,,,,,SPECI,6.0
RCMQ 280700Z 36015G25KT 9999 FEW012 25/12 Q1013 NOSIG RMK A2992,RCMQ,2018-10-28T07:00:00Z,24.27,120.62,25.0,12.0,360,15,25,6.21,29.911417,,,,,,TRUE,,,,,FEW,1200,,,,,,,VFR,,,,,,,,,,,,SPECI,5.0
RCNN 280700Z 34010KT 9999 FEW012 27/14 Q1011 NOSIG RMK A2988,RCNN,2018-10-28T07:00:00Z,22.93,120.2,27.0,14.0,340,10,,6.21,29.852362,,,,,,TRUE,,,,,FEW,1200,,,,,,,VFR,,,,,,,,,,,,SPECI,19.0
RCFN 280700Z 04014G24KT 010V080 9999 FEW035 BKN300 25/14 Q1014 NOSIG RMK A2996,RCFN,2018-10-28T07:00:00Z,22.77,121.07,25.0,14.0,40,14,24,6.21,29.940945,,,,,,TRUE,,,,,FEW,3500,BKN,30000,,,,,VFR,,,,,,,,,,,,SPECI,42.0
LBWN 280700Z 30006KT CAVOK 18/12 Q1019 NOSIG,LBWN,2018-10-28T07:00:00Z,43.22,27.82,18.0,12.0,300,6,,6.21,30.088583,,,,,,TRUE,,,,,CAVOK,,,,,,,,VFR,,,,,,,,,,,,METAR,43.0
LBSF 280700Z 00000KT CAVOK 11/05 Q1021 NOSIG,LBSF,2018-10-28T07:00:00Z,42.7,23.42,11.0,5.0,0,0,,6.21,30.147638,,,,,,TRUE,,,,,CAVOK,,,,,,,,VFR,,,,,,,,,,,,METAR,530.0
LBBG 280700Z 26015KT 9999 FEW032 17/14 Q1021 NOSIG,LBBG,2018-10-28T07:00:00Z,42.57,27.52,17.0,14.0,260,15,,6.21,30.147638,,,,,,TRUE,,,,,FEW,3200,,,,,,,VFR,,,,,,,,,,,,METAR,28.0
LBPD 280700Z AUTO VRB02KT 9999 FEW008/// 10/07 Q1021 NOSIG,LBPD,2018-10-28T07:00:00Z,42.13,24.8,10.0,7.0,0,2,,6.21,30.147638,,,TRUE,,,TRUE,,,,,FEW,800,,,,,,,VFR,,,,,,,,,,,,METAR,185.0
TBPB 280700Z 01005KT 9999 FEW020 23/22 Q1011 NOSIG,TBPB,2018-10-28T07:00:00Z,13.07,-59.48,23.0,22.0,10,5,,6.21,29.852362,,,,,,TRUE,,,,,FEW,2000,,,,,,,VFR,,,,,,,,,,,,METAR,52.0
CYCO 280700Z 00000KT 5SM -SN BR FEW014 OVC023 M05/M06 A2987 RMK ST2SC6 FROIN SLP119,CYCO,2018-10-28T07:00:00Z,67.82,-115.15,-5.0,-6.0,0,0,,5.0,29.870079,1011.9,,,,,,,,,-SN BR,FEW,1400,OVC,2300,,,,,MVFR,,,,,,,,,,,,SPECI,22.0
CYHK 280700Z AUTO 07018KT 8SM FEW070 M11/M12 A2980 RMK SLP100,CYHK,2018-10-28T07:00:00Z,68.62,-95.83,-11.0,-12.0,70,18,,8.0,29.799213,1010.0,,TRUE,,,,,,,,FEW,7000,,,,,,,VFR,,,,,,,,,,,,SPECI,46.0
CYHU 280700Z AUTO 03016G22KT 9SM OVC009 01/M00 A2978 RMK SLP086,CYHU,2018-10-28T07:00:00Z,45.52,-73.42,1.0,0.0,30,16,22,9.0,29.778543,1008.6,,TRUE,,,,,,,,OVC,900,,,,,,,IFR,,,,,,,,,,,,SPECI,27.0
CYGP 280700Z 09010G17KT 15SM OVC030 00/M07 A3040 RMK SC8 SLP299,CYGP,2018-10-28T07:00:00Z,48.77,-64.47,0.0,-7.0,90,10,17,15.0,30.398623,1029.9,,,,,,,,,,OVC,3000,,,,,,,MVFR,,,,,,,,,,,,SPECI,33.0
CYXN 280700Z 21014KT 15SM BKN010 OVC030 M00/M01 A2963 RMK SC5SC3 SLP036,CYXN,2018-10-28T07:00:00Z,62.22,-92.58,0.0,-1.0,210,14,,15.0,29.630905,1003.6,,,,,,,,,,BKN,1000,OVC,3000,,,,,MVFR,,,,,,,,,,,,SPECI,20.0
CYWE 280700Z AUTO 05003KT 9SM OVC005 M05/M05 A2980 RMK SLP121,CYWE,2018-10-28T07:00:00Z,64.18,-114.08,-5.0,-5.0,50,3,,9.0,29.799213,1012.1,,TRUE,,,,,,,,OVC,500,,,,,,,IFR,,,,,,,,,,,,METAR,371.0
CYVM 280700Z AUTO 36024KT 2 1/4SM -SN OVC018 M04/M06 A2978 RMK SLP086,CYVM,2018-10-28T07:00:00Z,67.53,-64.02,-4.0,-6.0,360,24,,2.25,29.778543,1008.6,,TRUE,,,,,,,-SN,OVC,1800,,,,,,,IFR,,,,,,,,,,,,SPECI,6.0
CYRT 280700Z 20007KT 6SM -SN OVC003 M01/M01 A2962 RMK ST8 SLP035,CYRT,2018-10-28T07:00:00Z,62.82,-92.12,-1.0,-1.0,200,7,,6.0,29.619095,1003.5,,,,,,,,,-SN,OVC,300,,,,,,,LIFR,,,,,,,,,,,,SPECI,32.0
SBBE 280700Z 08006KT CAVOK 24/22 Q1008,SBBE,2018-10-28T07:00:00Z,-1.37,-48.47,24.0,22.0,80,6,,6.21,29.763779,,,,,,,,,,,CAVOK,,,,,,,,VFR,,,,,,,,,,,,SPECI,16.0
SBSG 280700Z 24003KT 9999 FEW019 22/21 Q1012,SBSG,2018-10-28T07:00:00Z,-5.77,-35.37,22.0,21.0,240,3,,6.21,29.88189,,,,,,,,,,,FEW,1900,,,,,,,VFR,,,,,,,,,,,,SPECI,83.0
YGTH 280700Z AUTO 22007KT 9999 // NCD 23/02 Q1013,YGTH,2018-10-28T07:00:00Z,-34.25,146.07,23.0,2.0,220,7,,6.21,29.911417,,,TRUE,,,,,,,,CLR,,,,,,,,VFR,,,,,,,,,,,,METAR,134.0
YGTE 280700Z AUTO 10009KT 9999 // BKN045 32/22 Q1006,YGTE,2018-10-28T07:00:00Z,-13.97,136.45,32.0,22.0,100,9,,6.21,29.704725,,,TRUE,,,,,,,,BKN,4500,,,,,,,VFR,,,,,,,,,,,,METAR,14.0
YGFN 280700Z AUTO 16010KT 9999 // BKN031 OVC038 20/13 Q1015,YGFN,2018-10-28T07:00:00Z,-29.77,153.03,20.0,13.0,160,10,,6.21,29.970472,,,TRUE,,,,,,,,BKN,3100,OVC,3800,,,,,VFR,,,,,,,,,,,,METAR,34.0
YEML 280700Z AUTO 10006KT 9999 // NCD 39/09 Q1004,YEML,2018-10-28T07:00:00Z,-23.57,148.18,39.0,9.0,100,6,,6.21,29.64567,,,TRUE,,,,,,,,CLR,,,,,,,,VFR,,,,,,,,,,,,METAR,190.0
YDBY 280700Z AUTO 29010KT 9999 // SCT125 39/14 Q1005,YDBY,2018-10-28T07:00:00Z,-17.37,123.67,39.0,14.0,290,10,,6.21,29.675198,,,TRUE,,,,,,,,SCT,12500,,,,,,,VFR,,,,,,,,,,,,METAR,7.0
YCOM 280700Z AUTO 17006KT 9999 // NCD 19/M06 Q1014,YCOM,2018-10-28T07:00:00Z,-36.3,148.97,19.0,-6.0,170,6,,6.21,29.940945,,,TRUE,,,,,,,,CLR,,,,,,,,VFR,,,,,,,,,,,,METAR,941.0
YCNM 280700Z AUTO 20008KT 160V260 //// // ////// 27/01 Q1012,YCNM,2018-10-28T07:00:00Z,-30.98,148.38,27.0,1.0,200,8,,,29.88189,,,TRUE,,,,,,,,,,,,,,,,,,,,,,,,,,,,METAR,184.0
UCFO 280700Z 28005MPS 5000 HZ FEW027 BKN150 19/07 Q1027 R12/CLRD70 TEMPO 27009G14MPS,UCFO,2018-10-28T07:00:00Z,40.6,72.8,19.0,7.0,280,10,,3.11,30.324802,,,,,,,,,,HZ,FEW,2700,BKN,15000,,,,,MVFR,,,,,,,,,,,,METAR,884.0
UCFL 280700Z 16002MPS 110V210 9999 SCT030 SCT100 15/M01 Q1027 R07/CLRD70,UCFL,2018-10-28T07:00:00Z,42.58,76.7,15.0,-1.0,160,4,,6.21,30.324802,,,,,,,,,,,SCT,3000,SCT,10000,,,,,VFR,,,,,,,,,,,,METAR,1648.0
SAZN 280700Z 27006KT CAVOK 17/10 Q1013,SAZN,2018-10-28T07:00:00Z,-38.95,-68.15,17.0,10.0,270,6,,6.21,29.911417,,,,,,,,,,,CAVOK,,,,,,,,VFR,,,,,,,,,,,,METAR,271.0
CXIB 280700Z AUTO 09013G18KT 05/02 RMK AO1 6PAST HR 6032 PK WND 09018/0654 SLP297 P0002 T00500020 50006,CXIB,2018-10-28T07:00:00Z,46.67,-60.38,5.0,2.0,90,13,18,,,1029.7,,TRUE,TRUE,,,,,,,,,,,,,,,,0.6,,,,,0.02,,,,,,METAR,8.0
WMBA 280700Z VRB07KT 9999 FEW017CB SCT020 BKN280 30/24 Q1009,WMBA,2018-10-28T07:00:00Z,4.22,100.7,30.0,24.0,0,7,,6.21,29.793306,,,,,,,,,,,FEW,1700,SCT,2000,BKN,28000,,,VFR,,,,,,,,,,,,METAR,8.0
CYHY 280700Z 00000KT 1/4SM FZFG VV003 M01/M01 A2985 RMK FG8 FROIN SLP119,CYHY,2018-10-28T07:00:00Z,60.82,-115.77,-1.0,-1.0,0,0,,0.25,29.84941,1011.9,,,,,,,,,FZFG,OVX,0,,,,,,,LIFR,,,,,,,,,,,300,SPECI,166.0
UTDK 280700Z 20003MPS 170V230 0600 BLDU VV003 20/10 Q1028 R01/09//70 RMK QBB090 QFE713/0951,UTDK,2018-10-28T07:00:00Z,37.98,69.8,20.0,10.0,200,6,,0.37,30.35433,,,,,,,,,,BLDU,OVX,0,,,,,,,LIFR,,,,,,,,,,,300,METAR,699.0
UTDD 280700Z 29006MPS 0650 R09/0900N BLDU VV011 17/10 Q1029 R09/CLRD// TEMPO 28009MPS RMK QFE702/0936,UTDD,2018-10-28T07:00:00Z,38.53,68.82,17.0,10.0,290,12,,0.4,30.383858,,,,,,,,,,BLDU,OVX,0,,,,,,,LIFR,,,,,,,,,,,1100,METAR,803.0
FCBB 280700Z VRB01KT 9999 -RA FEW008 SCT025 FEW030CB 22/21 Q1015 NOSIG,FCBB,2018-10-28T07:00:00Z,-4.25,15.25,22.0,21.0,0,1,,6.21,29.970472,,,,,,TRUE,,,,-RA,FEW,800,SCT,2500,FEW,3000,,,VFR,,,,,,,,,,,,METAR,316.0
FGBT 280700Z 18006KT 9999 TS SCT010 FEW020CB 28/26 Q1012,FGBT,2018-10-28T07:00:00Z,1.88,9.8,28.0,26.0,180,6,,6.21,29.88189,,,,,,,,,,TS,SCT,1000,FEW,2000,,,,,VFR,,,,,,,,,,,,METAR,8.0
FGSL 280700Z VRB02KT 9999 SCT010 FEW020CB 28/24 Q1013 RETS NOSIG,FGSL,2018-10-28T07:00:00Z,3.75,8.72,28.0,24.0,0,2,,6.21,29.911417,,,,,,TRUE,,,,,SCT,1000,FEW,2000,,,,,VFR,,,,,,,,,,,,METAR,56.0
FAPN 280700Z AUTO 21003KT //// // ////// ///// Q1025,FAPN,2018-10-28T07:00:00Z,-25.33,27.17,,,210,3,,,30.265747,,,TRUE,,,,,,,,,,,,,,,,,,,,,,,,,,,,METAR,1039.0
FAWB 280700Z AUTO 03004KT //// // ////// ///// Q1027,FAWB,2018-10-28T07:00:00Z,-25.63,28.22,,,30,4,,,30.324802,,,TRUE,,,,,,,,,,,,,,,,,,,,,,,,,,,,METAR,1248.0
YBPN 280700Z AUTO 35015KT 9999 // NCD 30/19 Q1007,YBPN,2018-10-28T07:00:00Z,-20.5,148.55,30.0,19.0,350,15,,6.21,29.734253,,,TRUE,,,,,,,,CLR,,,,,,,,VFR,,,,,,,,,,,,METAR,25.0
YBOK 280700Z AUTO 13011KT 9999 // SCT056 OVC115 25/16 Q1012,YBOK,2018-10-28T07:00:00Z,-27.42,151.72,25.0,16.0,130,11,,6.21,29.88189,,,TRUE,,,,,,,,SCT,5600,OVC,11500,,,,,VFR,,,,,,,,,,,,METAR,407.0
YBNA 280700Z AUTO 16012KT 9999 // SCT023 SCT032 BKN040 20/17 Q1014,YBNA,2018-10-28T07:00:00Z,-28.83,153.57,20.0,17.0,160,12,,6.21,29.940945,,,TRUE,,,,,,,,SCT,2300,SCT,3200,BKN,4000,,,VFR,,,,,,,,,,,,METAR,2.0
YBMK 280700Z AUTO 36016KT 9999 // NCD 28/22 Q1007,YBMK,2018-10-28T07:00:00Z,-21.17,149.17,28.0,22.0,360,16,,6.21,29.734253,,,TRUE,,,,,,,,CLR,,,,,,,,VFR,,,,,,,,,,,,METAR,31.0
YBHI 280700Z AUTO 17010KT 9999 // OVC094 21/03 Q1015,YBHI,2018-10-28T07:00:00Z,-32.0,141.47,21.0,3.0,170,10,,6.21,29.970472,,,TRUE,,,,,,,,OVC,9400,,,,,,,VFR,,,,,,,,,,,,METAR,292.0
YPBO 280700Z AUTO 17007KT 110V190 9999 // SCT120 36/03 Q1009,YPBO,2018-10-28T07:00:00Z,-23.2,117.75,36.0,3.0,170,7,,6.21,29.793306,,,TRUE,,,,,,,,SCT,12000,,,,,,,VFR,,,,,,,,,,,,METAR,1292.0
YOLD 280700Z AUTO 16009KT 9999 // BKN099 27/09 Q1013,YOLD,2018-10-28T07:00:00Z,-30.48,136.88,27.0,9.0,160,9,,6.21,29.911417,,,TRUE,,,,,,,,BKN,9900,,,,,,,VFR,,,,,,,,,,,,METAR,105.0
YNWN 280700Z AUTO 11008KT 9999 // SCT115 34/06 Q1011,YNWN,2018-10-28T07:00:00Z,-23.42,119.8,34.0,6.0,110,8,,6.21,29.852362,,,TRUE,,,,,,,,SCT,11500,,,,,,,VFR,,,,,,,,,,,,METAR,525.0
YNTN 280700Z AUTO 33011KT 9999 // NCD 35/17 Q1006,YNTN,2018-10-28T07:00:00Z,-17.68,141.07,35.0,17.0,330,11,,6.21,29.704725,,,TRUE,,,,,,,,CLR,,,,,,,,VFR,,,,,,,,,,,,METAR,22.0
YNBR 280700Z AUTO 13007KT 9999 // NCD 26/04 Q1011,YNBR,2018-10-28T07:00:00Z,-30.32,149.83,26.0,4.0,130,7,,6.21,29.852362,,,TRUE,,,,,,,,CLR,,,,,,,,VFR,,,,,,,,,,,,METAR,240.0
YNAR 280700Z AUTO 27008KT //// // ////// 25/02 Q1013,YNAR,2018-10-28T07:00:00Z,-34.7,146.52,25.0,2.0,270,8,,,29.911417,,,TRUE,,,,,,,,,,,,,,,,,,,,,,,,,,,,METAR,145.0
YMTG 280700Z AUTO 18014KT 9999 // NCD 14/07 Q1019,YMTG,2018-10-28T07:00:00Z,-37.75,140.78,14.0,7.0,180,14,,6.21,30.088583,,,TRUE,,,,,,,,CLR,,,,,,,,VFR,,,,,,,,,,,,METAR,65.0
YSNW 280700Z AUTO 13007KT 9999 // OVC037 16/08 Q1016,YSNW,2018-10-28T07:00:00Z,-34.95,150.52,16.0,8.0,130,7,,6.21,30.0,,,TRUE,,,,,,,,OVC,3700,,,,,,,VFR,,,,,,,,,,,,METAR,110.0
YLIS 280700Z AUTO 14008KT 9999 // SCT022 OVC031 19/16 Q1014,YLIS,2018-10-28T07:00:00Z,-28.83,153.27,19.0,16.0,140,8,,6.21,29.940945,,,TRUE,,,,,,,,SCT,2200,OVC,3100,,,,,VFR,,,,,,,,,,,,METAR,11.0
YLEC 280700Z AUTO 14011KT //// // ////// 27/08 Q1013,YLEC,2018-10-28T07:00:00Z,-30.6,138.43,27.0,8.0,140,11,,,29.911417,,,TRUE,,,,,,,,,,,,,,,,,,,,,,,,,,,,METAR,262.0
YKRY 280700Z AUTO 19010KT 9999 // OVC100 29/10 Q1010,YKRY,2018-10-28T07:00:00Z,-26.57,151.83,29.0,10.0,190,10,,6.21,29.822834,,,TRUE,,,,,,,,OVC,10000,,,,,,,VFR,,,,,,,,,,,,METAR,434.0
YHUG 280700Z AUTO 24007KT 9999 // NCD 40/05 Q1006,YHUG,2018-10-28T07:00:00Z,-20.82,144.23,40.0,5.0,240,7,,6.21,29.704725,,,TRUE,,,,,,,,CLR,,,,,,,,VFR,,,,,,,,,,,,METAR,318.0
CXZV 280700Z AUTO 03004KT M06/M10 RMK AO1 SLP317 T10641104 58006,CXZV,2018-10-28T07:00:00Z,50.22,-66.25,-6.4,-10.4,30,4,,,,1031.7,,TRUE,TRUE,,,,,,,,,,,,,,,,-0.6,,,,,,,,,,,METAR,52.0
VOBM 280700Z 11012KT CAVOK 30/08 Q1017,VOBM,2018-10-28T07:00:00Z,15.85,74.62,30.0,8.0,110,12,,6.21,30.029528,,,,,,,,,,,CAVOK,,,,,,,,VFR,,,,,,,,,,,,METAR,758.0
VOND 280700Z 10005KT 6000 NSC 33/14 Q1015 NOSIG,VOND,2018-10-28T07:00:00Z,19.18,77.32,33.0,14.0,100,5,,3.73,29.970472,,,,,,TRUE,,,,,CLR,,,,,,,,MVFR,,,,,,,,,,,,METAR,86.0
VAJB 280700Z 02012KT 5000 HZ NSC 30/13 Q1017,VAJB,2018-10-28T07:00:00Z,23.18,80.05,30.0,13.0,20,12,,3.11,30.029528,,,,,,,,,,HZ,CLR,,,,,,,,MVFR,,,,,,,,,,,,METAR,494.0
VOCP 280700Z 00000KT 6000 FEW020 33/21 Q1011,VOCP,2018-10-28T07:00:00Z,14.47,78.82,33.0,21.0,0,0,,3.73,29.852362,,,,,,,,,,,FEW,2000,,,,,,,MVFR,,,,,,,,,,,,METAR,130.0
VMMC 280700Z 01010KT CAVOK 27/13 Q1015 NOSIG,VMMC,2018-10-28T07:00:00Z,22.15,113.58,27.0,13.0,10,10,,6.21,29.970472,,,,,,TRUE,,,,,CAVOK,,,,,,,,VFR,,,,,,,,,,,,METAR,6.0
UTDT 280700Z 16005MPS 120V190 0700 +BLDU VV005 21/11 Q1026 R35/CLRD70 RMK QBB150 QFE730/0973,UTDT,2018-10-28T07:00:00Z,37.87,68.87,21.0,11.0,160,10,,0.43,30.295275,,,,,,,,,,+BLDU,OVX,0,,,,,,,LIFR,,,,,,,,,,,500,METAR,449.0
DTTK 280700Z 20006KT 150V260 9999 BKN023 SCT030 21/11 Q1007,DTTK,2018-10-28T07:00:00Z,35.67,10.08,21.0,11.0,200,6,,6.21,29.734253,,,,,,,,,,,BKN,2300,SCT,3000,,,,,MVFR,,,,,,,,,,,,METAR,68.0
RJTO 280700Z 24008KT 200V280 9999 FEW030 20/11 Q1008,RJTO,2018-10-28T07:00:00Z,34.77,139.37,20.0,11.0,240,8,,6.21,29.763779,,,,,,,,,,,FEW,3000,,,,,,,VFR,,,,,,,,,,,,METAR,41.0
RJTI 280700Z 06006KT 9999 FEW020 BKN035 20/13 Q1008,RJTI,2018-10-28T07:00:00Z,35.63,139.83,20.0,13.0,60,6,,6.21,29.763779,,,,,,,,,,,FEW,2000,BKN,3500,,,,,VFR,,,,,,,,,,,,METAR,8.0
RJTF 280700Z 14003KT 090V200 9999 FEW030 20/11 Q1008,RJTF,2018-10-28T07:00:00Z,35.67,139.52,20.0,11.0,140,3,,6.21,29.763779,,,,,,,,,,,FEW,3000,,,,,,,VFR,,,,,,,,,,,,METAR,44.0
RJSY 280700Z 14004KT 9999 VCSH FEW015 SCT025 BKN045 12/11 Q1009,RJSY,2018-10-28T07:00:00Z,38.82,139.77,12.0,11.0,140,4,,6.21,29.793306,,,,,,,,,,VCSH,FEW,1500,SCT,2500,BKN,4500,,,VFR,,,,,,,,,,,,METAR,22.0
RJSR 280700Z 20004KT 9999 -SHRA FEW001 SCT030 BKN040 11/11 Q1008,RJSR,2018-10-28T07:00:00Z,40.18,140.37,11.0,11.0,200,4,,6.21,29.763779,,,,,,,,,,-SHRA,FEW,100,SCT,3000,BKN,4000,,,VFR,,,,,,,,,,,,METAR,87.0
RJSI 280700Z 21004KT 180V260 9999 -SHRA FEW020 SCT040 BKN050 14/09 Q1009,RJSI,2018-10-28T07:00:00Z,39.42,141.12,14.0,9.0,210,4,,6.21,29.793306,,,,,,,,,,-SHRA,FEW,2000,SCT,4000,BKN,5000,,,VFR,,,,,,,,,,,,METAR,93.0
RJSC 280700Z VRB02KT 9999 -SHRA FEW030 BKN050 15/08 Q1009,RJSC,2018-10-28T07:00:00Z,38.42,140.37,15.0,8.0,0,2,,6.21,29.793306,,,,,,,,,,-SHRA,FEW,3000,BKN,5000,,,,,VFR,,,,,,,,,,,,METAR,108.0
RJOY 280700Z 23008KT 160V310 9999 FEW040 18/08 Q1011,RJOY,2018-10-28T07:00:00Z,34.6,135.58,18.0,8.0,230,8,,6.21,29.852362,,,,,,,,,,,FEW,4000,,,,,,,VFR,,,,,,,,,,,,METAR,13.0
RJOW 280700Z 23005KT 180V270 9999 FEW035 17/05 Q1011,RJOW,2018-10-28T07:00:00Z,34.67,131.8,17.0,5.0,230,5,,6.21,29.852362,,,,,,,,,,,FEW,3500,,,,,,,VFR,,,,,,,,,,,,METAR,54.0
FAOB 280700Z AUTO 12008KT //// // ////// 19/16 Q1015,FAOB,2018-10-28T07:00:00Z,-34.6,20.27,19.0,16.0,120,8,,,29.970472,,,TRUE,,,,,,,,,,,,,,,,,,,,,,,,,,,,METAR,75.0
FABL 280700Z 03008KT 360V060 CAVOK 25/06 Q1026 NOSIG,FABL,2018-10-28T07:00:00Z,-29.1,26.3,25.0,6.0,30,8,,6.21,30.295275,,,,,,TRUE,,,,,CAVOK,,,,,,,,VFR,,,,,,,,,,,,METAR,1348.0
CWDK 280700Z AUTO 05001KT 02/M06 RMK AO1 SLP171 T00191055 58008,CWDK,2018-10-28T07:00:00Z,50.02,-113.62,1.9,-5.5,50,1,,,,1017.1,,TRUE,TRUE,,,,,,,,,,,,,,,,-0.8,,,,,,,,,,,METAR,1012.0
CWDJ 280700Z AUTO 28012KT M01/M04 RMK AO1 SLP154 T10091043 51010,CWDJ,2018-10-28T07:00:00Z,50.4,-104.58,-0.9,-4.3,280,12,,,,1015.4,,TRUE,TRUE,,,,,,,,,,,,,,,,1.0,,,,,,,,,,,METAR,573.0
CWCO 280700Z AUTO 07003KT 02/M00 RMK AO1 2PAST HR 6016 SLP095 P0001 T00201004 50002,CWCO,2018-10-28T07:00:00Z,44.45,-80.17,2.0,-0.4,70,3,,,,1009.5,,TRUE,TRUE,,,,,,,,,,,,,,,,0.2,,,,,0.01,,,,,,METAR,221.0
CWCJ 280700Z AUTO 06002KT 04/02 RMK AO1 SOG 03 7017 SLP119 T00370019,CWCJ,2018-10-28T07:00:00Z,48.6,-86.28,3.7,1.9,60,2,,,,1011.9,,TRUE,TRUE,,,,,,,,,,,,,,,,,,,,,,,,,,,METAR,206.0
CWCF 280700Z AUTO 30007KT 02/01 RMK AO1 SLP070 T00200005 53008,CWCF,2018-10-28T07:00:00Z,52.35,-97.03,2.0,0.5,300,7,,,,1007.0,,TRUE,TRUE,,,,,,,,,,,,,,,,0.8,,,,,,,,,,,METAR,222.0
CWBZ 280700Z AUTO 06010G15KT 01/01 RMK AO1 0PAST HR 6019 SLP075 P0004 T00050006 50010,CWBZ,2018-10-28T07:00:00Z,45.12,-74.27,0.5,0.6,60,10,15,,,1007.5,,TRUE,TRUE,,,,,,,,,,,,,,,,1.0,,,,,0.04,,,,,,METAR,49.0
CWBT 280700Z AUTO 02003KT M06/M08 RMK AO1 SLP334 T10641084 56002,CWBT,2018-10-28T07:00:00Z,50.27,-64.23,-6.4,-8.4,20,3,,,,1033.4,,TRUE,TRUE,,,,,,,,,,,,,,,,-0.2,,,,,,,,,,,METAR,11.0
CWBS 280700Z AUTO 04025G31KT 01/M00 RMK AO1 PK WND 05033/0633 T00051002,CWBS,2018-10-28T07:00:00Z,46.18,-72.92,0.5,-0.2,40,25,31,,,,,TRUE,TRUE,,,,,,,,,,,,,,,,,,,,,,,,,,,METAR,16.0
CWBO 280700Z AUTO 09001KT M06/M08 RMK AO1 SLP174 T10551079 55000,CWBO,2018-10-28T07:00:00Z,50.53,-111.83,-5.5,-7.9,90,1,,,,1017.4,,TRUE,TRUE,,,,,,,,,,,,,,,,0.0,,,,,,,,,,,METAR,747.0
CWAV 280700Z AUTO 27002KT M05/M08 RMK AO1 SLP177 T10461082 58005,CWAV,2018-10-28T07:00:00Z,51.77,-114.67,-4.6,-8.2,270,2,,,,1017.7,,TRUE,TRUE,,,,,,,,,,,,,,,,-0.5,,,,,,,,,,,METAR,1114.0
CWAQ 280700Z AUTO 34003KT M03/M04 RMK AO1 SLP173 T10301040 51011,CWAQ,2018-10-28T07:00:00Z,49.05,-105.48,-3.0,-4.0,340,3,,,,1017.3,,TRUE,TRUE,,,,,,,,,,,,,,,,1.1,,,,,,,,,,,METAR,756.0
CWAF 280700Z AUTO 05016G21KT M01/M02 RMK AO1 PK WND 05028/0610 T10131021,CWAF,2018-10-28T07:00:00Z,48.07,-69.53,-1.3,-2.1,50,16,21,,,,,TRUE,TRUE,,,,,,,,,,,,,,,,,,,,,,,,,,,METAR,5.0
CWGL 280700Z AUTO 34005KT M00/M00 RMK AO1 SLP084 T10041001 56015,CWGL,2018-10-28T07:00:00Z,44.52,-79.22,-0.4,-0.1,340,5,,,,1008.4,,TRUE,TRUE,,,,,,,,,,,,,,,,-1.5,,,,,,,,,,,METAR,221.0
CWGD 280700Z AUTO 01002KT 02/02 RMK AO1 SLP095 T00150017 56010,CWGD,2018-10-28T07:00:00Z,43.77,-81.72,1.5,1.7,10,2,,,,1009.5,,TRUE,TRUE,,,,,,,,,,,,,,,,-1.0,,,,,,,,,,,METAR,214.0
CWGB 280700Z AUTO 13017G26KT 10/09 RMK AO1 2PAST HR 5013 PK WND 13031/0631 SLP039 P0001 T01000087 50002,CWGB,2018-10-28T07:00:00Z,49.35,-124.17,10.0,8.7,130,17,26,,,1003.9,,TRUE,TRUE,,,,,,,,,,,,,,,,0.2,,,,,0.01,,,,,,METAR,5.0
CWFQ 280700Z AUTO 03006KT 02/01 RMK AO1 SLP056 T00210014 56027,CWFQ,2018-10-28T07:00:00Z,45.03,-72.82,2.1,1.4,30,6,,,,1005.6,,TRUE,TRUE,,,,,,,,,,,,,,,,-2.7,,,,,,,,,,,METAR,152.0
CWFJ 280700Z AUTO 10002KT M00/M05 RMK AO1 T10011049,CWFJ,2018-10-28T07:00:00Z,49.2,-113.27,-0.1,-4.9,100,2,,,,,,TRUE,TRUE,,,,,,,,,,,,,,,,,,,,,,,,,,,METAR,1136.0
CWFF 280700Z AUTO 30005KT 03/M00 RMK AO1 SLP129 T00271003 51013,CWFF,2018-10-28T07:00:00Z,52.82,-104.58,2.7,-0.3,300,5,,,,1012.9,,TRUE,TRUE,,,,,,,,,,,,,,,,1.3,,,,,,,,,,,METAR,490.0
CWEW 280700Z AUTO 04012G22KT 01/M00 RMK AO1 1PAST HR 8033 PK WND 03023/0624 SLP101 P0004 T00121001 50011,CWEW,2018-10-28T07:00:00Z,45.82,-73.43,1.2,-0.1,40,12,22,,,1010.1,,TRUE,TRUE,,,,,,,,,,,,,,,,1.1,,,,,0.04,,,,,,METAR,21.0
CWEL 280700Z AUTO 16021KT 10/09 RMK AO1 2PAST HR 6020 PK WND 16024/0649 SLP044 P0001 T01010089 50002,CWEL,2018-10-28T07:00:00Z,49.22,-123.78,10.1,8.9,160,21,,,,1004.4,,TRUE,TRUE,,,,,,,,,,,,,,,,0.2,,,,,0.01,,,,,,METAR,5.0
CWEB 280700Z AUTO 16016KT 10/10 RMK AO1 1PAST HR 1014 PK WND 16027/0621 SLP015 P0008 T01030100 50021,CWEB,2018-10-28T07:00:00Z,49.38,-126.55,10.3,10.0,160,16,,,,1001.5,,TRUE,TRUE,,,,,,,,,,,,,,,,2.1,,,,,0.08,,,,,,METAR,7.0
CXWN 280700Z AUTO 28003KT 04/01 RMK AO1 SLP079 T00350014 53006,CXWN,2018-10-28T07:00:00Z,49.88,-97.13,3.5,1.4,280,3,,,,1007.9,,TRUE,TRUE,,,,,,,,,,,,,,,,0.6,,,,,,,,,,,METAR,230.0
CXTP 280700Z AUTO 34002KT M03/M04 RMK AO1 SLP354 T10281043 50001,CXTP,2018-10-28T07:00:00Z,48.55,-53.97,-2.8,-4.3,340,2,,,,1035.4,,TRUE,TRUE,,,,,,,,,,,,,,,,0.1,,,,,,,,,,,METAR,107.0
CXSH 280700Z AUTO 06009KT 01/M00 RMK AO1 4PAST HR 6035 SLP122 P0005 T00071004 50014,CXSH,2018-10-28T07:00:00Z,46.58,-72.73,0.7,-0.4,60,9,,,,1012.2,,TRUE,TRUE,,,,,,,,,,,,,,,,1.4,,,,,0.05,,,,,,METAR,110.0
CXRH 280700Z AUTO 14003KT RMK AO1,CXRH,2018-10-28T07:00:00Z,49.57,-57.88,,,140,3,,,,,,TRUE,TRUE,,,,,,,,,,,,,,,,,,,,,,,,,,,METAR,68.0
CXOX 280700Z AUTO 32004KT M00/M01 RMK AO1 SOG 12 3017 SLP124 T10021006,CXOX,2018-10-28T07:00:00Z,55.15,-105.27,-0.2,-0.6,320,4,,,,1012.4,,TRUE,TRUE,,,,,,,,,,,,,,,,,,,,,,,,,,,METAR,379.0
CXNM 280700Z AUTO 09009G15KT M01/M00 RMK AO1 SOG 07 T10051004,CXNM,2018-10-28T07:00:00Z,46.82,-60.67,-0.5,-0.4,90,9,15,,,,,TRUE,TRUE,,,,,,,,,,,,,,,,,,,,,,,,,,,METAR,439.0
CXMY 280700Z AUTO 08/07 RMK AO1 8PAST HR M P0034 T00780073 50088,CXMY,2018-10-28T07:00:00Z,44.98,-62.48,7.8,7.3,,,,,,,,TRUE,TRUE,,,,,,,,,,,,,,,,8.8,,,,,0.34,,,,,,METAR,40.0
CXMM 280700Z AUTO 21006KT M02/M03 RMK AO1 SLP132 T10161028 53011,CXMM,2018-10-28T07:00:00Z,56.65,-111.22,-1.6,-2.8,210,6,,,,1013.2,,TRUE,TRUE,,,,,,,,,,,,,,,,1.1,,,,,,,,,,,METAR,369.0
CXMI 280700Z AUTO 08025G33KT 10/09 RMK AO1 PK WND 09037/0637 SLP145 T00960091 56053,CXMI,2018-10-28T07:00:00Z,44.6,-63.53,9.6,9.1,80,25,33,,,1014.5,,TRUE,TRUE,,,,,,,,,,,,,,,,-5.3,,,,,,,,,,,METAR,15.0
CXMD 280700Z AUTO 28009KT 04/M01 RMK AO1 SLP091 T00401006 53005,CXMD,2018-10-28T07:00:00Z,49.22,-98.08,4.0,-0.6,280,9,,,,1009.1,,TRUE,TRUE,,,,,,,,,,,,,,,,0.5,,,,,,,,,,,METAR,301.0
CXHF 280700Z AUTO 01/01 RMK AO1 T00070006,CXHF,2018-10-28T07:00:00Z,45.83,-75.65,0.7,0.6,,,,,,,,TRUE,TRUE,,,,,,,,,,,,,,,,,,,,,,,,,,,METAR,190.0
CXHA 280700Z AUTO 29004KT 05/04 RMK AO1 SLP098 T00520043 55000,CXHA,2018-10-28T07:00:00Z,42.03,-82.9,5.2,4.3,290,4,,,,1009.8,,TRUE,TRUE,,,,,,,,,,,,,,,,0.0,,,,,,,,,,,METAR,191.0
CXGH 280700Z AUTO 31004KT 03/02 RMK AO1 SLP069 T00330015 53007,CXGH,2018-10-28T07:00:00Z,50.63,-97.0,3.3,1.5,310,4,,,,1006.9,,TRUE,TRUE,,,,,,,,,,,,,,,,0.7,,,,,,,,,,,METAR,217.0
CXET 280700Z AUTO 33003KT M00/01 RMK AO1 5PAST HR 6015 SLP087 P0002 T10010005 50005,CXET,2018-10-28T07:00:00Z,44.23,-79.78,-0.1,0.5,330,3,,,,1008.7,,TRUE,TRUE,,,,,,,,,,,,,,,,0.5,,,,,0.02,,,,,,METAR,251.0
CXEG 280700Z AUTO M05/M09 RMK AO1 T10521086,CXEG,2018-10-28T07:00:00Z,53.3,-113.6,-5.2,-8.6,,,,,,,,TRUE,TRUE,,,,,,,,,,,,,,,,,,,,,,,,,,,METAR,715.0
CXEC 280700Z AUTO 22004KT 01/M05 RMK AO1 2PAST HR 1003 SLP167 P0001 T00051050 50002,CXEC,2018-10-28T07:00:00Z,53.57,-113.52,0.5,-5.0,220,4,,,,1016.7,,TRUE,TRUE,,,,,,,,,,,,,,,,0.2,,,,,0.01,,,,,,METAR,671.0
CXEA 280700Z AUTO 00000KT 06/05 RMK AO1 8PAST HR 7003 SLP071 P0003 T00580054 50008,CXEA,2018-10-28T07:00:00Z,50.63,-93.22,5.8,5.4,0,0,,,,1007.1,,TRUE,TRUE,,,,,,,,,,,,,,,,0.8,,,,,0.03,,,,,,METAR,355.0
CXDW 280700Z AUTO 28016KT 04/01 RMK AO1 PK WND 27020/0656 SLP093 T00400005 53006,CXDW,2018-10-28T07:00:00Z,49.4,-98.32,4.0,0.5,280,16,,,,1009.3,,TRUE,TRUE,,,,,,,,,,,,,,,,0.6,,,,,,,,,,,METAR,341.0
CXDI 280700Z AUTO 01002KT 01/01 RMK AO1 SLP084 T00140010 58002,CXDI,2018-10-28T07:00:00Z,42.87,-80.55,1.4,1.0,10,2,,,,1008.4,,TRUE,TRUE,,,,,,,,,,,,,,,,-0.2,,,,,,,,,,,METAR,232.0
CXDE 280700Z AUTO 16002KT M06/M07 RMK AO1 SOG 08 0002 SLP111 T10601069,CXDE,2018-10-28T07:00:00Z,65.22,-123.43,-6.0,-6.9,160,2,,,,1011.1,,TRUE,TRUE,,,,,,,,,,,,,,,,,,,,,,,,,,,METAR,213.0
CXCK 280700Z AUTO 00000KT M06/M07 RMK AO1 SLP094 T10561071 57005,CXCK,2018-10-28T07:00:00Z,62.12,-136.2,-5.6,-7.1,0,0,,,,1009.4,,TRUE,TRUE,,,,,,,,,,,,,,,,-0.5,,,,,,,,,,,METAR,540.0
CXCA 280700Z AUTO 09002KT 04/04 RMK AO1 7PAST HR 7014 SLP109 P0003 T00440038 50007,CXCA,2018-10-28T07:00:00Z,49.15,-88.35,4.4,3.8,90,2,,,,1010.9,,TRUE,TRUE,,,,,,,,,,,,,,,,0.7,,,,,0.03,,,,,,METAR,228.0
CXBO 280700Z AUTO 07031G42KT RMK AO1 PK WND 07042/0651,CXBO,2018-10-28T07:00:00Z,46.83,-71.2,,,70,31,42,,,,,TRUE,TRUE,,,,,,,,,,,,,,,,,,,,,,,,,,,METAR,100.0
CXKT 280700Z AUTO 05005KT 05/05 RMK AO1 4PAST HR 8050 SLP140 P0017 T00500048 50044,CXKT,2018-10-28T07:00:00Z,45.07,-64.48,5.0,4.8,50,5,,,,1014.0,,TRUE,TRUE,,,,,,,,,,,,,,,,4.4,,,,,0.17,,,,,,METAR,49.0
CXBK 280700Z AUTO 27012KT M00/M02 RMK AO1 SLP145 T10011015 51012,CXBK,2018-10-28T07:00:00Z,50.2,-104.7,-0.1,-1.5,270,12,,,,1014.5,,TRUE,TRUE,,,,,,,,,,,,,,,,1.2,,,,,,,,,,,METAR,580.0
CWPZ 280700Z AUTO 09004KT 06/M01 RMK AO1 SLP037 T00561014 56033,CWPZ,2018-10-28T07:00:00Z,54.38,-125.97,5.6,-1.4,90,4,,,,1003.7,,TRUE,TRUE,,,,,,,,,,,,,,,,-3.3,,,,,,,,,,,METAR,713.0
CWPR 280700Z AUTO 00000KT 04/04 RMK AO1 3PAST HR 6021 SLP125 P0005 T00440037 50013,CWPR,2018-10-28T07:00:00Z,49.47,-120.52,4.4,3.7,0,0,,,,1012.5,,TRUE,TRUE,,,,,,,,,,,,,,,,1.3,,,,,0.05,,,,,,METAR,700.0
CWPD 280700Z AUTO 04009G18KT M05/M06 RMK AO1 PK WND 06020/0648 SLP151 T10471055 58027,CWPD,2018-10-28T07:00:00Z,47.57,-71.22,-4.7,-5.5,40,9,18,,,1015.1,,TRUE,TRUE,,,,,,,,,,,,,,,,-2.7,,,,,,,,,,,METAR,803.0
CWOD 280700Z AUTO 02006KT M03/M09 RMK AO1 SLP198 T10331091 58016,CWOD,2018-10-28T07:00:00Z,48.85,-72.55,-3.3,-9.1,20,6,,,,1019.8,,TRUE,TRUE,,,,,,,,,,,,,,,,-1.6,,,,,,,,,,,METAR,137.0
CWOC 280700Z AUTO 08009G22KT M00/M00 RMK AO1 PK WND 07022/0659 SLP261 T10021001 58037,CWOC,2018-10-28T07:00:00Z,48.02,-65.32,-0.2,-0.1,80,9,22,,,1026.1,,TRUE,TRUE,,,,,,,,,,,,,,,,-3.7,,,,,,,,,,,METAR,47.0
CWNQ 280700Z AUTO 05009G15KT M00/M01 RMK AO1 6PAST HR 6034 PK WND 03021/0604 SLP106 P0006 T10041008 50016,CWNQ,2018-10-28T07:00:00Z,46.22,-72.65,-0.4,-0.8,50,9,15,,,1010.6,,TRUE,TRUE,,,,,,,,,,,,,,,,1.6,,,,,0.06,,,,,,METAR,10.0
CWNP 280700Z AUTO 29002KT 05/05 RMK AO1 3PAST HR 8018 SLP169 P0001 T00530046 50003,CWNP,2018-10-28T07:00:00Z,50.27,-117.82,5.3,4.6,290,2,,,,1016.9,,TRUE,TRUE,,,,,,,,,,,,,,,,0.3,,,,,0.01,,,,,,METAR,524.0
CWNM 280700Z AUTO 07003KT 08/05 RMK AO1 SLP165 T00770049 58023,CWNM,2018-10-28T07:00:00Z,49.5,-117.28,7.7,4.9,70,3,,,,1016.5,,TRUE,TRUE,,,,,,,,,,,,,,,,-2.3,,,,,,,,,,,METAR,535.0
CWNK 280700Z AUTO 28007KT 04/00 RMK AO1 T00360000,CWNK,2018-10-28T07:00:00Z,49.5,-98.03,3.6,0.0,280,7,,,,,,TRUE,TRUE,,,,,,,,,,,,,,,,,,,,,,,,,,,METAR,268.0
CWJH 280700Z AUTO 28003KT 01/01 RMK AO1 SOG 02 3015 SLP111 T00060005,CWJH,2018-10-28T07:00:00Z,56.32,-103.27,0.6,0.5,280,3,,,,1011.1,,TRUE,TRUE,,,,,,,,,,,,,,,,,,,,,,,,,,,METAR,344.0
CWJC 280700Z AUTO 29012KT M01/M02 RMK AO1 SLP056 T10051018 53010,CWJC,2018-10-28T07:00:00Z,61.13,-100.9,-0.5,-1.8,290,12,,,,1005.6,,TRUE,TRUE,,,,,,,,,,,,,,,,1.0,,,,,,,,,,,METAR,357.0
CWJB 280700Z AUTO 05018G29KT 00/M01 RMK AO1 PK WND 06038/0604 T00001012,CWJB,2018-10-28T07:00:00Z,46.78,-71.27,0.0,-1.2,50,18,29,,,,,TRUE,TRUE,,,,,,,,,,,,,,,,,,,,,,,,,,,METAR,91.0
CWIZ 280700Z AUTO 04010G18KT 01/M00 RMK AO1 PK WND 04021/0622 T00091002,CWIZ,2018-10-28T07:00:00Z,45.28,-73.33,0.9,-0.2,40,10,18,,,,,TRUE,TRUE,,,,,,,,,,,,,,,,,,,,,,,,,,,METAR,45.0
CWIW 280700Z AUTO 29007KT 04/M03 RMK AO1 SOG 03 2012 SLP145 T00391033,CWIW,2018-10-28T07:00:00Z,51.67,-105.4,3.9,-3.3,290,7,,,,1014.5,,TRUE,TRUE,,,,,,,,,,,,,,,,,,,,,,,,,,,METAR,526.0
CWIT 280700Z AUTO 04009G15KT 01/M00 RMK AO1 2PAST HR 6027 PK WND 03020/0618 SLP066 P0001 T00101001 50002,CWIT,2018-10-28T07:00:00Z,45.17,-73.67,1.0,-0.1,40,9,15,,,1006.6,,TRUE,TRUE,,,,,,,,,,,,,,,,0.2,,,,,0.01,,,,,,METAR,52.0
CWIS 280700Z AUTO 03013G22KT M05/M06 RMK AO1 7PAST HR SOG 09 8029 PK WND 05023/0606 SLP172 P0011 T10511055 50027,CWIS,2018-10-28T07:00:00Z,47.28,-70.63,-5.1,-5.5,30,13,22,,,1017.2,,TRUE,TRUE,,,,,,,,,,,,,,,,2.7,,,,,0.11,,,,,,METAR,719.0
CWIJ 280700Z AUTO 33004KT M07/M08 RMK AO1 SOG 25 2013 T10661076,CWIJ,2018-10-28T07:00:00Z,65.77,-111.23,-6.6,-7.6,330,4,,,,,,TRUE,TRUE,,,,,,,,,,,,,,,,,,,,,,,,,,,METAR,500.0
CWII 280700Z AUTO 32008KT 04/03 RMK AO1 SLP072 T00420033 53005,CWII,2018-10-28T07:00:00Z,50.7,-96.57,4.2,3.3,320,8,,,,1007.2,,TRUE,TRUE,,,,,,,,,,,,,,,,0.5,,,,,,,,,,,METAR,220.0
CWIG 280700Z AUTO 03027G35KT RMK AO1 PK WND 04035/0646,CWIG,2018-10-28T07:00:00Z,47.07,-70.53,,,30,27,35,,,,,TRUE,TRUE,,,,,,,,,,,,,,,,,,,,,,,,,,,METAR,18.0
CWID 280700Z AUTO 10002KT M04/M04 RMK AO1 SLP114 T10351042 52005,CWID,2018-10-28T07:00:00Z,61.32,-117.6,-3.5,-4.2,100,2,,,,1011.4,,TRUE,TRUE,,,,,,,,,,,,,,,,0.5,,,,,,,,,,,METAR,161.0
CWHV 280700Z AUTO 08007KT 01/M01 RMK AO1 SLP119 T00061009 56040,CWHV,2018-10-28T07:00:00Z,46.2,-70.77,0.6,-0.9,80,7,,,,1011.9,,TRUE,TRUE,,,,,,,,,,,,,,,,-4.0,,,,,,,,,,,METAR,229.0
CWHT 280700Z AUTO 08001KT M06/M06 RMK AO1 SLP078 T10571055 58015,CWHT,2018-10-28T07:00:00Z,60.77,-137.58,-5.7,-5.5,80,1,,,,1007.8,,TRUE,TRUE,,,,,,,,,,,,,,,,-1.5,,,,,,,,,,,METAR,599.0
CWHQ 280700Z AUTO 09013G24KT 01/M01 RMK AO1 PK WND 09027/0642 T00091010,CWHQ,2018-10-28T07:00:00Z,46.68,-71.97,0.9,-1.0,90,13,24,,,,,TRUE,TRUE,,,,,,,,,,,,,,,,,,,,,,,,,,,METAR,55.0
CWHL 280700Z AUTO 09019G28KT 12/04 RMK AO1 PK WND 10032/0639 SLP928 T01190036 56012,CWHL,2018-10-28T07:00:00Z,54.17,-130.35,11.9,3.6,90,19,28,,,992.8,,TRUE,TRUE,,,,,,,,,,,,,,,,-1.2,,,,,,,,,,,METAR,5.0
CWHI 280700Z AUTO 27003KT M05/M08 RMK AO1 T10491084,CWHI,2018-10-28T07:00:00Z,51.7,-113.22,-4.9,-8.4,270,3,,,,,,TRUE,TRUE,,,,,,,,,,,,,,,,,,,,,,,,,,,METAR,907.0
CWGY 280700Z AUTO 23009KT M01/M06 RMK AO1 SLP185 T10141055 51008,CWGY,2018-10-28T07:00:00Z,51.67,-110.2,-1.4,-5.5,230,9,,,,1018.5,,TRUE,TRUE,,,,,,,,,,,,,,,,0.8,,,,,,,,,,,METAR,707.0
CWGX 280700Z AUTO 10003KT 01/M00 RMK AO1 SOG 03 1004 SLP062 T00091003,CWGX,2018-10-28T07:00:00Z,56.35,-94.7,0.9,-0.3,100,3,,,,1006.2,,TRUE,TRUE,,,,,,,,,,,,,,,,,,,,,,,,,,,METAR,145.0
CWGW 280700Z AUTO 35003KT 00/M01 RMK AO1 SLP208 T00001013 58009,CWGW,2018-10-28T07:00:00Z,49.75,-114.9,0.0,-1.3,350,3,,,,1020.8,,TRUE,TRUE,,,,,,,,,,,,,,,,-0.9,,,,,,,,,,,METAR,1137.0
CWGT 280700Z AUTO 12033G38KT 10/08 RMK AO1 PK WND 12038/0650 SLP023 T01030075 56008,CWGT,2018-10-28T07:00:00Z,49.48,-124.43,10.3,7.5,120,33,38,,,1002.3,,TRUE,TRUE,,,,,,,,,,,,,,,,-0.8,,,,,,,,,,,METAR,5.0
CWGR 280700Z AUTO 09021G28KT 04/02 RMK AO1 3PAST HR 8039 PK WND 08028/0655 SLP279 P0013 T00370023 50033,CWGR,2018-10-28T07:00:00Z,47.42,-61.8,3.7,2.3,90,21,28,,,1027.9,,TRUE,TRUE,,,,,,,,,,,,,,,,3.3,,,,,0.13,,,,,,METAR,60.0
CWWB 280700Z AUTO 34009KT 02/01 RMK AO1 SLP086 T00230007 56010,CWWB,2018-10-28T07:00:00Z,43.3,-79.78,2.3,0.7,340,9,,,,1008.6,,TRUE,TRUE,,,,,,,,,,,,,,,,-1.0,,,,,,,,,,,METAR,76.0
CWZW 280700Z AUTO 07004KT M02/M05 RMK AO1 SLP098 T10231047 57019,CWZW,2018-10-28T07:00:00Z,60.17,-132.73,-2.3,-4.7,70,4,,,,1009.8,,TRUE,TRUE,,,,,,,,,,,,,,,,-1.9,,,,,,,,,,,METAR,705.0
CWVT 280700Z AUTO 28002KT M00/M01 RMK AO1 SLP143 T10011009 51012,CWVT,2018-10-28T07:00:00Z,55.82,-108.42,-0.1,-0.9,280,2,,,,1014.3,,TRUE,TRUE,,,,,,,,,,,,,,,,1.2,,,,,,,,,,,METAR,434.0
CWLB 280700Z AUTO 24002KT M01/M02 RMK AO1 SOG 03 3005 SLP155 T10051015,CWLB,2018-10-28T07:00:00Z,54.77,-112.02,-0.5,-1.5,240,2,,,,1015.5,,TRUE,TRUE,,,,,,,,,,,,,,,,,,,,,,,,,,,METAR,567.0
CWCT 280700Z AUTO 26006KT M05/M08 RMK AO1 SLP189 T10511077 51007,CWCT,2018-10-28T07:00:00Z,52.07,-111.47,-5.1,-7.7,260,6,,,,1018.9,,TRUE,TRUE,,,,,,,,,,,,,,,,0.7,,,,,,,,,,,METAR,791.0
CWOY 280700Z AUTO 27007KT 04/M03 RMK AO1 SLP135 T00361029 51014,CWOY,2018-10-28T07:00:00Z,51.77,-104.2,3.6,-2.9,270,7,,,,1013.5,,TRUE,TRUE,,,,,,,,,,,,,,,,1.4,,,,,,,,,,,METAR,560.0
CWKO 280700Z AUTO 29008KT 02/M02 RMK AO1 SLP178 T00241020 51006,CWKO,2018-10-28T07:00:00Z,49.17,-105.97,2.4,-2.0,290,8,,,,1017.8,,TRUE,TRUE,,,,,,,,,,,,,,,,0.6,,,,,,,,,,,METAR,917.0
CWEH 280700Z AUTO 31006KT M01/M03 RMK AO1 SLP185 T10091029 51005,CWEH,2018-10-28T07:00:00Z,49.42,-108.97,-0.9,-2.9,310,6,,,,1018.5,,TRUE,TRUE,,,,,,,,,,,,,,,,0.5,,,,,,,,,,,METAR,1078.0
CWDC 280700Z AUTO 31003KT M00/M00 RMK AO1 SLP117 T10011004 51012,CWDC,2018-10-28T07:00:00Z,59.57,-108.47,-0.1,-0.4,310,3,,,,1011.7,,TRUE,TRUE,,,,,,,,,,,,,,,,1.2,,,,,,,,,,,METAR,318.0
CWZG 280700Z AUTO 21006KT M01/M05 RMK AO1 SOG 02 8013 SLP188 T10091049,CWZG,2018-10-28T07:00:00Z,51.2,-115.53,-0.9,-4.9,210,6,,,,1018.8,,TRUE,TRUE,,,,,,,,,,,,,,,,,,,,,,,,,,,METAR,1397.0
CWLP 280700Z AUTO 12029G37KT 09/07 RMK AO1 6PAST HR 1020 PK WND 12041/0624 SLP979 P0010 T00940074 50026,CWLP,2018-10-28T07:00:00Z,50.93,-127.63,9.4,7.4,120,29,37,,,997.9,,TRUE,TRUE,,,,,,,,,,,,,,,,2.6,,,,,0.1,,,,,,METAR,17.0
CWJD 280700Z AUTO 29003KT M00/M00 RMK AO1 2PAST HR 1018 SLP085 P0005 T10021003 50012,CWJD,2018-10-28T07:00:00Z,53.17,-99.27,-0.2,-0.3,290,3,,,,1008.5,,TRUE,TRUE,,,,,,,,,,,,,,,,1.2,,,,,0.05,,,,,,METAR,223.0
CWEQ 280700Z AUTO 26006KT 03/M00 RMK AO1 SLP104 T00251001 51017,CWEQ,2018-10-28T07:00:00Z,52.12,-101.22,2.5,-0.1,260,6,,,,1010.4,,TRUE,TRUE,,,,,,,,,,,,,,,,1.7,,,,,,,,,,,METAR,335.0
CWRM 280700Z AUTO 20002KT M04/M08 RMK AO1 SOG 01 8005 SLP171 T10351081,CWRM,2018-10-28T07:00:00Z,52.42,-114.92,-3.5,-8.1,200,2,,,,1017.1,,TRUE,TRUE,,,,,,,,,,,,,,,,,,,,,,,,,,,METAR,988.0
CXKE 280700Z AUTO 05004KT M00/M00 RMK AO1 SLP076 T10031001 56023,CXKE,2018-10-28T07:00:00Z,45.0,-75.63,-0.3,-0.1,50,4,,,,1007.6,,TRUE,TRUE,,,,,,,,,,,,,,,,-2.3,,,,,,,,,,,METAR,99.0
CXKA 280700Z AUTO 05003KT M02/M04 RMK AO1 SLP152 T10181044 58017,CXKA,2018-10-28T07:00:00Z,49.4,-82.45,-1.8,-4.4,50,3,,,,1015.2,,TRUE,TRUE,,,,,,,,,,,,,,,,-1.7,,,,,,,,,,,METAR,218.0
CXHM 280700Z AUTO 03001KT 02/02 RMK AO1 SLP085 T00190017 56009,CXHM,2018-10-28T07:00:00Z,43.28,-79.9,1.9,1.7,30,1,,,,1008.5,,TRUE,TRUE,,,,,,,,,,,,,,,,-0.9,,,,,,,,,,,METAR,107.0
CWZS 280700Z AUTO 10003KT M01/M05 RMK AO1 SLP249 T10091046 58025,CWZS,2018-10-28T07:00:00Z,48.47,-67.43,-0.9,-4.6,100,3,,,,1024.9,,TRUE,TRUE,,,,,,,,,,,,,,,,-2.5,,,,,,,,,,,METAR,166.0
CWZO 280700Z AUTO 15018G23KT RMK AO1 PK WND 14023/0656,CWZO,2018-10-28T07:00:00Z,48.55,-123.23,,,150,18,23,,,,,TRUE,TRUE,,,,,,,,,,,,,,,,,,,,,,,,,,,METAR,1.0
CWBE 280700Z AUTO 06005KT 03/M06 RMK AO1 SLP122 T00301057 57018,CWBE,2018-10-28T07:00:00Z,45.98,-81.48,3.0,-5.7,60,5,,,,1012.2,,TRUE,TRUE,,,,,,,,,,,,,,,,-1.8,,,,,,,,,,,METAR,196.0
CTCK 280700Z AUTO 06010KT 01/M00 RMK AO1 PK WND 06018/0604 SLP078 T00051002 56023,CTCK,2018-10-28T07:00:00Z,45.25,-74.97,0.5,-0.2,60,10,,,,1007.8,,TRUE,TRUE,,,,,,,,,,,,,,,,-2.3,,,,,,,,,,,METAR,85.0
CWDV 280700Z AUTO 13004KT 04/04 RMK AO1 1PAST HR 7014 SLP086 P0000 T00390036 50001,CWDV,2018-10-28T07:00:00Z,49.02,-90.47,3.9,3.6,130,4,,,,1008.6,,TRUE,TRUE,,,,,,,,,,,,,,,,0.1,,,,,0.005,,,,,,METAR,489.0
CWDQ 280700Z AUTO 35008KT M01/M03 RMK AO1 SLP152 T10141026 58031,CWDQ,2018-10-28T07:00:00Z,47.42,-72.78,-1.4,-2.6,350,8,,,,1015.2,,TRUE,TRUE,,,,,,,,,,,,,,,,-3.1,,,,,,,,,,,METAR,169.0
CWWE 280700Z AUTO 14022KT 13/13 RMK AO1 6PAST HR 6045 PK WND 13031/0626 SLP097 P0002 T01260126 50006,CWWE,2018-10-28T07:00:00Z,43.97,-64.67,12.6,12.6,140,22,,,,1009.7,,TRUE,TRUE,,,,,,,,,,,,,,,,0.6,,,,,0.02,,,,,,METAR,9.0
CWPK 280700Z AUTO 07005KT M03/M07 RMK AO1 SLP148 T10251071 58027,CWPK,2018-10-28T07:00:00Z,47.92,-74.62,-2.5,-7.1,70,5,,,,1014.8,,TRUE,TRUE,,,,,,,,,,,,,,,,-2.7,,,,,,,,,,,METAR,442.0
CWSS 280700Z AUTO 06012G22KT 03/02 RMK AO1 2PAST HR 7034 PK WND 06024/0600 SLP115 P0001 T00270018 50002,CWSS,2018-10-28T07:00:00Z,45.2,-67.25,2.7,1.8,60,12,22,,,1011.5,,TRUE,TRUE,,,,,,,,,,,,,,,,0.2,,,,,0.01,,,,,,METAR,26.0
CWRN 280700Z AUTO 08022G30KT 08/07 RMK AO1 PRESFR PK WND 08033/0644 SLP223 T00780067 58046,CWRN,2018-10-28T07:00:00Z,45.35,-60.98,7.8,6.7,80,22,30,,,1022.3,,TRUE,TRUE,,,,,,,,,,,,,,,,-4.6,,,,,,,,,,,METAR,8.0
CWHO 280700Z AUTO 28011G22KT M04/M10 RMK AO1 PK WND 27027/0635 SLP265 T10401099 51024,CWHO,2018-10-28T07:00:00Z,55.45,-60.22,-4.0,-9.9,280,11,22,,,1026.5,,TRUE,TRUE,,,,,,,,,,,,,,,,2.4,,,,,,,,,,,METAR,8.0
CWBV 280700Z AUTO 08029G36KT 09/09 RMK AO1 PK WND 09034/0607 SLP184 T00850090 56039,CWBV,2018-10-28T07:00:00Z,44.82,-62.32,8.5,9.0,80,29,36,,,1018.4,,TRUE,TRUE,,,,,,,,,,,,,,,,-3.9,,,,,,,,,,,METAR,10.0
CWNH 280700Z AUTO 02010G17KT M03/M04 RMK AO1 1PAST HR 8021 PK WND 03017/0655 SLP217 P0008 T10291036 50021,CWNH,2018-10-28T07:00:00Z,47.78,-69.53,-2.9,-3.6,20,10,17,,,1021.7,,TRUE,TRUE,,,,,,,,,,,,,,,,2.1,,,,,0.08,,,,,,METAR,148.0
CWER 280700Z AUTO 05045G52KT RMK AO1 PK WND 04053/0615,CWER,2018-10-28T07:00:00Z,47.0,-70.82,,,50,45,52,,,,,TRUE,TRUE,,,,,,,,,,,,,,,,,,,,,,,,,,,METAR,5.0
CWBY 280700Z AUTO 08007KT M05/M07 RMK AO1 SLP322 T10511069 58007,CWBY,2018-10-28T07:00:00Z,49.82,-64.28,-5.1,-6.9,80,7,,,,1032.2,,TRUE,TRUE,,,,,,,,,,,,,,,,-0.7,,,,,,,,,,,METAR,53.0
CWSF 280700Z AUTO 15011KT M02/M05 RMK AO1 SLP298 T10201054 58013,CWSF,2018-10-28T07:00:00Z,49.25,-65.32,-2.0,-5.4,150,11,,,,1029.8,,TRUE,TRUE,,,,,,,,,,,,,,,,-1.3,,,,,,,,,,,METAR,29.0
CZZJ 280700Z AUTO 31001KT M03/M07 RMK AO1 SOG 03 8009 SLP168 T10251074,CZZJ,2018-10-28T07:00:00Z,53.58,-116.47,-2.5,-7.4,310,1,,,,1016.8,,TRUE,TRUE,,,,,,,,,,,,,,,,,,,,,,,,,,,METAR,927.0
CZTB 280700Z AUTO 12005KT 06/05 RMK AO1 SLP091 T00620046 58018,CZTB,2018-10-28T07:00:00Z,48.37,-89.32,6.2,4.6,120,5,,,,1009.1,,TRUE,TRUE,,,,,,,,,,,,,,,,-1.8,,,,,,,,,,,METAR,199.0
CZMJ 280700Z AUTO 28011KT 02/M02 RMK AO1 SLP169 T00181022 51011,CZMJ,2018-10-28T07:00:00Z,50.33,-105.57,1.8,-2.2,280,11,,,,1016.9,,TRUE,TRUE,,,,,,,,,,,,,,,,1.1,,,,,,,,,,,METAR,577.0
CZKD 280700Z AUTO 03003KT 01/01 RMK AO1 SOG 01 3011 SLP057 T00070006,CZKD,2018-10-28T07:00:00Z,56.03,-96.52,0.7,0.6,30,3,,,,1005.7,,TRUE,TRUE,,,,,,,,,,,,,,,,,,,,,,,,,,,METAR,183.0
WMKM 280700Z VRB05KT 9999 SCT020 SCT140 BKN270 31/25 Q1008,WMKM,2018-10-28T07:00:00Z,2.27,102.25,31.0,25.0,0,5,,6.21,29.763779,,,,,,,,,,,SCT,2000,SCT,14000,BKN,27000,,,VFR,,,,,,,,,,,,METAR,9.0
UKLU 280700Z 00000MPS 9999 BKN040 11/10 Q1011 R10/290160 NOSIG,UKLU,2018-10-28T07:00:00Z,48.63,22.27,11.0,10.0,0,0,,6.21,29.852362,,,,,,TRUE,,,,,BKN,4000,,,,,,,VFR,,,,,,,,,,,,METAR,117.0
UKON 280700Z 18007MPS 9999 SCT011 16/14 Q1018 NOSIG,UKON,2018-10-28T07:00:00Z,47.05,31.92,16.0,14.0,180,14,,6.21,30.059055,,,,,,TRUE,,,,,SCT,1100,,,,,,,VFR,,,,,,,,,,,,METAR,56.0
UKLI 280700Z 00000MPS 2100 BR OVC005 10/10 Q1012 R10/290065 NOSIG,UKLI,2018-10-28T07:00:00Z,48.88,24.68,10.0,10.0,0,0,,1.3,29.88189,,,,,,TRUE,,,,BR,OVC,500,,,,,,,IFR,,,,,,,,,,,,METAR,280.0
UKLR 280700Z 05003MPS 2400 BR OVC010 08/08 Q1014 NOSIG,UKLR,2018-10-28T07:00:00Z,50.6,26.13,8.0,8.0,50,6,,1.49,29.940945,,,,,,TRUE,,,,BR,OVC,1000,,,,,,,IFR,,,,,,,,,,,,METAR,230.0
LKTB 280700Z 06012KT 9999 FEW012 OVC018 06/03 Q1007 NOSIG,LKTB,2018-10-28T07:00:00Z,49.13,16.68,6.0,3.0,60,12,,6.21,29.734253,,,,,,TRUE,,,,,FEW,1200,OVC,1800,,,,,MVFR,,,,,,,,,,,,METAR,246.0
LKPR 280700Z 02011KT 4500 -RA BR SCT002 OVC003 03/03 Q1010 NOSIG,LKPR,2018-10-28T07:00:00Z,50.1,14.27,3.0,3.0,20,11,,2.8,29.822834,,,,,,TRUE,,,,-RA BR,SCT,200,OVC,300,,,,,LIFR,,,,,,,,,,,,METAR,365.0
LKMT 280700Z 02010KT 5000 RA BR BKN006 OVC012 05/04 Q1010 NOSIG,LKMT,2018-10-28T07:00:00Z,49.67,18.12,5.0,4.0,20,10,,3.11,29.822834,,,,,,TRUE,,,,RA BR,BKN,600,OVC,1200,,,,,IFR,,,,,,,,,,,,METAR,256.0
LKKV 280700Z 03007KT 360V060 2400 -SN BR BKN004 BKN012 01/M00 Q1009,LKKV,2018-10-28T07:00:00Z,50.2,12.92,1.0,0.0,30,7,,1.49,29.793306,,,,,,,,,,-SN BR,BKN,400,BKN,1200,,,,,LIFR,,,,,,,,,,,,METAR,604.0
UKDR 280700Z 21007MPS 9999 OVC008 14/13 Q1017 R18/19//60 NOSIG,UKDR,2018-10-28T07:00:00Z,48.05,33.22,14.0,13.0,210,14,,6.21,30.029528,,,,,,TRUE,,,,,OVC,800,,,,,,,IFR,,,,,,,,,,,,METAR,124.0
UKLL 280700Z 06003MPS 030V090 2900 BR OVC002 08/08 Q1013 R31/290055 NOSIG,UKLL,2018-10-28T07:00:00Z,49.82,23.93,8.0,8.0,60,6,,1.8,29.911417,,,,,,TRUE,,,,BR,OVC,200,,,,,,,LIFR,,,,,,,,,,,,METAR,325.0
UKDD 280700Z 22006MPS 160V250 9999 BKN011 13/11 Q1019 R26/190060 NOSIG,UKDD,2018-10-28T07:00:00Z,48.37,35.1,13.0,11.0,220,12,,6.21,30.088583,,,,,,TRUE,,,,,BKN,1100,,,,,,,MVFR,,,,,,,,,,,,METAR,149.0
UKDE 280700Z 18007MPS 140V210 CAVOK 13/10 Q1020 R20L/210370 NOSIG,UKDE,2018-10-28T07:00:00Z,47.87,35.32,13.0,10.0,180,14,,6.21,30.11811,,,,,,TRUE,,,,,CAVOK,,,,,,,,VFR,,,,,,,,,,,,METAR,113.0
UKOO 280700Z 18006MPS 9999 SCT007 17/16 Q1017 R16/190058 NOSIG,UKOO,2018-10-28T07:00:00Z,46.42,30.68,17.0,16.0,180,12,,6.21,30.029528,,,,,,TRUE,,,,,SCT,700,,,,,,,VFR,,,,,,,,,,,,METAR,35.0
UKHH 280700Z 25006MPS 9999 BKN011 13/11 Q1016 R25/190068 NOSIG,UKHH,2018-10-28T07:00:00Z,49.92,36.28,13.0,11.0,250,12,,6.21,30.0,,,,,,TRUE,,,,,BKN,1100,,,,,,,MVFR,,,,,,,,,,,,METAR,155.0
UKBB 280700Z 00000MPS CAVOK 10/09 Q1014 R88/CLRD// NOSIG,UKBB,2018-10-28T07:00:00Z,50.33,30.9,10.0,9.0,0,0,,6.21,29.940945,,,,,,TRUE,,,,,CAVOK,,,,,,,,VFR,,,,,,,,,,,,METAR,119.0
HSSS 280700Z 36012KT CAVOK 32/11 Q1014 NOSIG,HSSS,2018-10-28T07:00:00Z,15.58,32.53,32.0,11.0,360,12,,6.21,29.940945,,,,,,TRUE,,,,,CAVOK,,,,,,,,VFR,,,,,,,,,,,,METAR,380.0
VEIM 280700Z 00000KT 3000 -RA FEW010 SCT016 OVC090 20/19 Q1019 TEMPO 1500 +RA,VEIM,2018-10-28T07:00:00Z,24.77,93.9,20.0,19.0,0,0,,1.86,30.088583,,,,,,,,,,-RA,FEW,1000,SCT,1600,OVC,9000,,,IFR,,,,,,,,,,,,METAR,781.0
UBBB 280700Z 16018KT 9999 BKN032 18/11 Q1033 R88/CLRD// NOSIG,UBBB,2018-10-28T07:00:00Z,40.45,50.07,18.0,11.0,160,18,,6.21,30.501968,,,,,,TRUE,,,,,BKN,3200,,,,,,,VFR,,,,,,,,,,,,METAR,-6.0
LCPH 280700Z 07009KT 050V110 9999 FEW020 25/14 Q1024,LCPH,2018-10-28T07:00:00Z,34.72,32.47,25.0,14.0,70,9,,6.21,30.236221,,,,,,,,,,,FEW,2000,,,,,,,VFR,,,,,,,,,,,,METAR,8.0
LCLK 280700Z 03010KT 9999 FEW040 22/09 Q1025 NOSIG,LCLK,2018-10-28T07:00:00Z,34.87,33.62,22.0,9.0,30,10,,6.21,30.265747,,,,,,TRUE,,,,,FEW,4000,,,,,,,VFR,,,,,,,,,,,,METAR,2.0
VHHH 280700Z 31013KT CAVOK 27/09 Q1015 NOSIG,VHHH,2018-10-28T07:00:00Z,22.32,113.92,27.0,9.0,310,13,,6.21,29.970472,,,,,,TRUE,,,,,CAVOK,,,,,,,,VFR,,,,,,,,,,,,METAR,9.0
CZEV 280700Z AUTO 00000KT M06/M06 RMK AO1 2PAST HR SOG 31 2001 SLP087 P0001 T10571055 50002,CZEV,2018-10-28T07:00:00Z,68.32,-133.52,-5.7,-5.5,0,0,,,,1008.7,,TRUE,TRUE,,,,,,,,,,,,,,,,0.2,,,,,0.01,,,,,,METAR,103.0
SCAR 280700Z 13003KT 090V170 9999 OVC020 19/12 Q1014,SCAR,2018-10-28T07:00:00Z,-18.35,-70.32,19.0,12.0,130,3,,6.21,29.940945,,,,,,,,,,,OVC,2000,,,,,,,MVFR,,,,,,,,,,,,METAR,59.0
ZGKL 280700Z VRB02MPS CAVOK 27/07 Q1018 NOSIG,ZGKL,2018-10-28T07:00:00Z,25.22,110.03,27.0,7.0,0,4,,6.21,30.059055,,,,,,TRUE,,,,,CAVOK,,,,,,,,VFR,,,,,,,,,,,,METAR,166.0
CZSM 280700Z AUTO 00000KT M01/M02 RMK AO1 SLP119 T10051020 51010,CZSM,2018-10-28T07:00:00Z,60.03,-111.93,-0.5,-2.0,0,0,,,,1011.9,,TRUE,TRUE,,,,,,,,,,,,,,,,1.0,,,,,,,,,,,METAR,203.0
CZHY 280700Z AUTO 11001KT M01/M01 RMK AO1 SLP113 T10071009 53007,CZHY,2018-10-28T07:00:00Z,60.83,-115.78,-0.7,-0.9,110,1,,,,1011.3,,TRUE,TRUE,,,,,,,,,,,,,,,,0.7,,,,,,,,,,,METAR,164.0
CTRA 280700Z AUTO 30002KT 05/04 RMK AO1 4PAST HR 3004 SLP068 P0002 T00480044 50004,CTRA,2018-10-28T07:00:00Z,49.67,-93.73,4.8,4.4,300,2,,,,1006.8,,TRUE,TRUE,,,,,,,,,,,,,,,,0.4,,,,,0.02,,,,,,METAR,435.0
CTNK 280700Z AUTO 02001KT M01/M03 RMK AO1 SOG 07 6020 SLP092 T10121026,CTNK,2018-10-28T07:00:00Z,45.53,-78.27,-1.2,-2.6,20,1,,,,1009.2,,TRUE,TRUE,,,,,,,,,,,,,,,,,,,,,,,,,,,METAR,410.0
CWMQ 280700Z AUTO 20003KT M03/M06 RMK AO1 SLP194 T10301061 52005,CWMQ,2018-10-28T07:00:00Z,49.9,-109.47,-3.0,-6.1,200,3,,,,1019.4,,TRUE,TRUE,,,,,,,,,,,,,,,,0.5,,,,,,,,,,,METAR,767.0
CWMM 280700Z AUTO 09003KT 10/08 RMK AO1 6PAST HR 8014 SLP062 P0002 T00980075 50006,CWMM,2018-10-28T07:00:00Z,49.22,-122.68,9.8,7.5,90,3,,,,1006.2,,TRUE,TRUE,,,,,,,,,,,,,,,,0.6,,,,,0.02,,,,,,METAR,5.0
CWMJ 280700Z AUTO 02006KT M00/M01 RMK AO1 2PAST HR SOG 02 6031 SLP098 P0001 T10021008 50002,CWMJ,2018-10-28T07:00:00Z,46.27,-76.0,-0.2,-0.8,20,6,,,,1009.8,,TRUE,TRUE,,,,,,,,,,,,,,,,0.2,,,,,0.01,,,,,,METAR,200.0
CWLM 280700Z AUTO 08006KT 10/10 RMK AO1 SLP047 T01030097 58008,CWLM,2018-10-28T07:00:00Z,48.42,-123.32,10.3,9.7,80,6,,,,1004.7,,TRUE,TRUE,,,,,,,,,,,,,,,,-0.8,,,,,,,,,,,METAR,70.0
CWLE 280700Z AUTO 28010KT 01/M05 RMK AO1 SLP166 T00101046 51008,CWLE,2018-10-28T07:00:00Z,50.95,-107.15,1.0,-4.6,280,10,,,,1016.6,,TRUE,TRUE,,,,,,,,,,,,,,,,0.8,,,,,,,,,,,METAR,665.0
CWLC 280700Z AUTO 12023G29KT 13/03 RMK AO1 PK WND 12032/0627 T01260032,CWLC,2018-10-28T07:00:00Z,54.3,-130.62,12.6,3.2,120,23,29,,,,,TRUE,TRUE,,,,,,,,,,,,,,,,,,,,,,,,,,,METAR,27.0
CWKX 280700Z AUTO 30001KT M04/M04 RMK AO1 SLP098 T10361041 58023,CWKX,2018-10-28T07:00:00Z,58.43,-130.02,-3.6,-4.1,300,1,,,,1009.8,,TRUE,TRUE,,,,,,,,,,,,,,,,-2.3,,,,,,,,,,,METAR,793.0
CWKH 280700Z AUTO 08/08 RMK AO1 SLP042 T00830082 56018,CWKH,2018-10-28T07:00:00Z,48.57,-123.55,8.3,8.2,,,,,,1004.2,,TRUE,TRUE,,,,,,,,,,,,,,,,-1.8,,,,,,,,,,,METAR,366.0
CWKG 280700Z AUTO 10010G19KT 09/09 RMK AO1 7PAST HR 6037 PK WND 08019/0655 SLP105 P0014 T00940087 50037,CWKG,2018-10-28T07:00:00Z,44.43,-65.2,9.4,8.7,100,10,19,,,1010.5,,TRUE,TRUE,,,,,,,,,,,,,,,,3.7,,,,,0.14,,,,,,METAR,165.0
CWJX 280700Z AUTO 24006KT M05/M08 RMK AO1 SLP184 T10491075 53005,CWJX,2018-10-28T07:00:00Z,50.88,-109.5,-4.9,-7.5,240,6,,,,1018.4,,TRUE,TRUE,,,,,,,,,,,,,,,,0.5,,,,,,,,,,,METAR,672.0
CWJW 280700Z AUTO 22001KT M03/M05 RMK AO1 SLP165 T10271046 58021,CWJW,2018-10-28T07:00:00Z,52.93,-118.03,-2.7,-4.6,220,1,,,,1016.5,,TRUE,TRUE,,,,,,,,,,,,,,,,-2.1,,,,,,,,,,,METAR,1020.0
CWJV 280700Z AUTO 00000KT 06/05 RMK AO1 4PAST HR 8007 SLP151 P0005 T00580053 50014,CWJV,2018-10-28T07:00:00Z,50.22,-119.18,5.8,5.3,0,0,,,,1015.1,,TRUE,TRUE,,,,,,,,,,,,,,,,1.4,,,,,0.05,,,,,,METAR,556.0
CWJT 280700Z AUTO 01/ RMK AO1 SLP089 T0007 56034,CWJT,2018-10-28T07:00:00Z,46.07,-74.57,0.7,,,,,,,1008.9,,TRUE,TRUE,,,,,,,,,,,,,,,,-3.4,,,,,,,,,,,METAR,239.0
CWJR 280700Z AUTO 11002KT 06/04 RMK AO1 SLP183 T00580036 56015,CWJR,2018-10-28T07:00:00Z,49.07,-116.5,5.8,3.6,110,2,,,,1018.3,,TRUE,TRUE,,,,,,,,,,,,,,,,-1.5,,,,,,,,,,,METAR,646.0
CWJI 280700Z AUTO 26010KT 00/M02 RMK AO1 SLP177 T00001023 51009,CWJI,2018-10-28T07:00:00Z,49.72,-105.92,0.0,-2.3,260,10,,,,1017.7,,TRUE,TRUE,,,,,,,,,,,,,,,,0.9,,,,,,,,,,,METAR,724.0
CXBR 280700Z AUTO 06/M04 RMK AO1 T00561041,CXBR,2018-10-28T07:00:00Z,49.62,-113.82,5.6,-4.1,,,,,,,,TRUE,TRUE,,,,,,,,,,,,,,,,,,,,,,,,,,,METAR,1073.0
CWIK 280700Z AUTO 28008KT 02/M05 RMK AO1 SLP130 T00181049 51015,CWIK,2018-10-28T07:00:00Z,50.37,-102.58,1.8,-4.9,280,8,,,,1013.0,,TRUE,TRUE,,,,,,,,,,,,,,,,1.5,,,,,,,,,,,METAR,602.0
CWBU 280700Z AUTO 29011KT 03/01 RMK AO1 SOG 01 3016 SLP122 T00280009,CWBU,2018-10-28T07:00:00Z,53.33,-104.02,2.8,0.9,290,11,,,,1012.2,,TRUE,TRUE,,,,,,,,,,,,,,,,,,,,,,,,,,,METAR,373.0
CZEL 280700Z AUTO 29002KT 00/01 RMK AO1 SLP091 T00000005 56008,CZEL,2018-10-28T07:00:00Z,43.65,-80.42,0.0,0.5,290,2,,,,1009.1,,TRUE,TRUE,,,,,,,,,,,,,,,,-0.8,,,,,,,,,,,METAR,376.0
CXZC 280700Z AUTO 10004KT M04/M06 RMK AO1 SOG 02 8012 SLP190 T10381060,CXZC,2018-10-28T07:00:00Z,51.3,-80.62,-3.8,-6.0,100,4,,,,1019.0,,TRUE,TRUE,,,,,,,,,,,,,,,,,,,,,,,,,,,METAR,9.0
CXBI 280700Z AUTO 36004KT M00/M01 RMK AO1 2PAST HR 6014 SLP093 P0001 T10011006 50002,CXBI,2018-10-28T07:00:00Z,44.48,-79.55,-0.1,-0.6,360,4,,,,1009.3,,TRUE,TRUE,,,,,,,,,,,,,,,,0.2,,,,,0.01,,,,,,METAR,289.0
CWKK 280700Z AUTO 16007KT 05/04 RMK AO1 SLP107 T00480037 56012,CWKK,2018-10-28T07:00:00Z,49.72,-88.33,4.8,3.7,160,7,,,,1010.7,,TRUE,TRUE,,,,,,,,,,,,,,,,-1.2,,,,,,,,,,,METAR,260.0
GOOD 280700Z 00000KT CAVOK 24/23 Q1012,GOOD,2018-10-28T07:00:00Z,14.65,-16.22,24.0,23.0,0,0,,6.21,29.88189,,,,,,,,,,,CAVOK,,,,,,,,VFR,,,,,,,,,,,,METAR,9.0
GOSM 280700Z 30002KT CAVOK 29/21 Q1012,GOSM,2018-10-28T07:00:00Z,15.6,-13.33,29.0,21.0,300,2,,6.21,29.88189,,,,,,,,,,,CAVOK,,,,,,,,VFR,,,,,,,,,,,,METAR,17.0
GOOG 280700Z 32002KT CAVOK 24/21 Q////,GOOG,2018-10-28T07:00:00Z,15.4,-15.08,24.0,21.0,320,2,,6.21,,,,,,,,,,,,CAVOK,,,,,,,,VFR,,,,,,,,,,,,METAR,21.0
GOSP 280700Z 28002KT CAVOK 24/20 Q1011,GOSP,2018-10-28T07:00:00Z,16.68,-14.97,24.0,20.0,280,2,,6.21,29.852362,,,,,,,,,,,CAVOK,,,,,,,,VFR,,,,,,,,,,,,METAR,7.0
DRRT 280700Z 22002KT CAVOK 29/16 Q1014,DRRT,2018-10-28T07:00:00Z,14.9,5.25,29.0,16.0,220,2,,6.21,29.940945,,,,,,,,,,,CAVOK,,,,,,,,VFR,,,,,,,,,,,,METAR,391.0
DRRM 280700Z 22002KT CAVOK 27/21 Q1014,DRRM,2018-10-28T07:00:00Z,13.5,7.12,27.0,21.0,220,2,,6.21,29.940945,,,,,,,,,,,CAVOK,,,,,,,,VFR,,,,,,,,,,,,METAR,373.0
DRZR 280700Z 32008KT CAVOK 29/17 Q1014,DRZR,2018-10-28T07:00:00Z,13.77,8.97,29.0,17.0,320,8,,6.21,29.940945,,,,,,,,,,,CAVOK,,,,,,,,VFR,,,,,,,,,,,,METAR,453.0
LFQG 280700Z AUTO 36010KT 9999 -RA BKN015 BKN029 OVC054 05/03 Q1003,LFQG,2018-10-28T07:00:00Z,47.0,3.1,5.0,3.0,360,10,,6.21,29.616142,,,TRUE,,,,,,,-RA,BKN,1500,BKN,2900,OVC,5400,,,MVFR,,,,,,,,,,,,METAR,181.0
LFLW 280700Z AUTO 30005KT CAVOK 02/01 Q0998 TEMPO 4000 -RA BKN012,LFLW,2018-10-28T07:00:00Z,44.88,2.42,2.0,1.0,300,5,,6.21,29.468504,,,TRUE,,,,,,,,CAVOK,,,,,,,,VFR,,,,,,,,,,,,METAR,639.0
LIRU 280700Z 16016G25KT 8000 BKN020 21/17 Q1004,LIRU,2018-10-28T07:00:00Z,41.95,12.5,21.0,17.0,160,16,25,4.97,29.64567,,,,,,,,,,,BKN,2000,,,,,,,MVFR,,,,,,,,,,,,SPECI,24.0
SADF 280700Z 36002KT CAVOK 14/12 Q1017,SADF,2018-10-28T07:00:00Z,-34.45,-58.58,14.0,12.0,360,2,,6.21,30.029528,,,,,,,,,,,CAVOK,,,,,,,,VFR,,,,,,,,,,,,METAR,4.0
HRYR 280700Z 03006KT 360V060 9999 SCT023 BKN100 23/16 Q1023 NOSIG,HRYR,2018-10-28T07:00:00Z,-1.97,30.12,23.0,16.0,30,6,,6.21,30.206694,,,,,,TRUE,,,,,SCT,2300,BKN,10000,,,,,VFR,,,,,,,,,,,,METAR,1497.0
HKMO 280700Z 17004KT 9999 SCT023 27/22 Q1017 NOSIG,HKMO,2018-10-28T07:00:00Z,-4.02,39.62,27.0,22.0,170,4,,6.21,30.029528,,,,,,TRUE,,,,,SCT,2300,,,,,,,VFR,,,,,,,,,,,,METAR,55.0
HKML 280700Z 19009KT 9999 BKN024TCU 28/23 Q1016,HKML,2018-10-28T07:00:00Z,-3.22,40.1,28.0,23.0,190,9,,6.21,30.0,,,,,,,,,,,BKN,2400,,,,,,,MVFR,,,,,,,,,,,,METAR,23.0
HKKI 280700Z 06007KT 9999 FEW019CB BKN080 23/18 Q1020,HKKI,2018-10-28T07:00:00Z,-0.1,34.75,23.0,18.0,60,7,,6.21,30.11811,,,,,,,,,,,FEW,1900,BKN,8000,,,,,VFR,,,,,,,,,,,,METAR,1146.0
HKEL 280700Z 12012KT 9999 FEW018CB SCT020 BKN090 21/12 Q1027,HKEL,2018-10-28T07:00:00Z,0.4,35.23,21.0,12.0,120,12,,6.21,30.324802,,,,,,,,,,,FEW,1800,SCT,2000,BKN,9000,,,VFR,,,,,,,,,,,,METAR,2133.0
HCMM 280700Z 20009KT 9999 SCT020 29/23 Q1014,HCMM,2018-10-28T07:00:00Z,2.02,45.35,29.0,23.0,200,9,,6.21,29.940945,,,,,,,,,,,SCT,2000,,,,,,,VFR,,,,,,,,,,,,METAR,9.0
HCMH 280700Z 36009KT 9999 BKN030 21/17 Q1023,HCMH,2018-10-28T07:00:00Z,9.5,44.07,21.0,17.0,360,9,,6.21,30.206694,,,,,,,,,,,BKN,3000,,,,,,,MVFR,,,,,,,,,,,,METAR,1326.0
HCMF 280700Z 27003KT CAVOK 28/22 Q1014,HCMF,2018-10-28T07:00:00Z,11.27,49.17,28.0,22.0,270,3,,6.21,29.940945,,,,,,,,,,,CAVOK,,,,,,,,VFR,,,,,,,,,,,,METAR,2.0
VOCI 280700Z 08008KT 5000 HZ FEW015 SCT090 34/19 Q1009 NOSIG,VOCI,2018-10-28T07:00:00Z,10.15,76.4,34.0,19.0,80,8,,3.11,29.793306,,,,,,TRUE,,,,HZ,FEW,1500,SCT,9000,,,,,MVFR,,,,,,,,,,,,METAR,8.0
VABB 280700Z 04008KT 4000 FU NSC 36/12 Q1013 NOSIG,VABB,2018-10-28T07:00:00Z,19.1,72.87,36.0,12.0,40,8,,2.49,29.911417,,,,,,TRUE,,,,FU,CLR,,,,,,,,IFR,,,,,,,,,,,,METAR,8.0
FKKD 280700Z 13004KT 090V160 7000 BKN013 FEW016CB 27/25 Q1012 NOSIG,FKKD,2018-10-28T07:00:00Z,4.0,9.72,27.0,25.0,130,4,,4.35,29.88189,,,,,,TRUE,,,,,BKN,1300,FEW,1600,,,,,MVFR,,,,,,,,,,,,METAR,9.0
DNPO 280700Z 00000KT 7000 FEW008 FEW008CB 26/25 Q1012 NOSIG,DNPO,2018-10-28T07:00:00Z,4.83,7.02,26.0,25.0,0,0,,4.35,29.88189,,,,,,TRUE,,,,,FEW,800,FEW,800,,,,,MVFR,,,,,,,,,,,,METAR,18.0
FEFF 280700Z VRB03KT 9999 FEW007 25/20 Q1014 NOSIG,FEFF,2018-10-28T07:00:00Z,4.4,18.52,25.0,20.0,0,3,,6.21,29.940945,,,,,,TRUE,,,,,FEW,700,,,,,,,VFR,,,,,,,,,,,,METAR,366.0
FKKN 280700Z 02002KT 9999 FEW020 22/21 Q1018,FKKN,2018-10-28T07:00:00Z,7.33,13.57,22.0,21.0,20,2,,6.21,30.059055,,,,,,,,,,,FEW,2000,,,,,,,VFR,,,,,,,,,,,,METAR,1104.0
FKKR 280700Z 36002KT 9999 TS FEW016 FEW020CB 27/22 Q1013 NOSIG,FKKR,2018-10-28T07:00:00Z,9.32,13.37,27.0,22.0,360,2,,6.21,29.911417,,,,,,TRUE,,,,TS,FEW,1600,FEW,2000,,,,,VFR,,,,,,,,,,,,METAR,244.0
FEFT 280700Z 36004KT 6000 -RATS FEW003 FEW030CB 21/20 Q1014,FEFT,2018-10-28T07:00:00Z,4.25,15.8,21.0,20.0,360,4,,3.73,29.940945,,,,,,,,,,TS -RA,FEW,300,FEW,3000,,,,,MVFR,,,,,,,,,,,,METAR,583.0
FCPP 280700Z 08007KT 050V110 4000 -TSRA BKN006 OVC020 FEW030CB 23/22 Q1014 NOSIG,FCPP,2018-10-28T07:00:00Z,-4.82,11.9,23.0,22.0,80,7,,2.49,29.940945,,,,,,TRUE,,,,-TSRA,BKN,600,OVC,2000,FEW,3000,,,IFR,,,,,,,,,,,,METAR,17.0
FKYS 280700Z /////KT 9999 SCT003 BKN006 23/22 Q1018 BECMG BKN010,FKYS,2018-10-28T07:00:00Z,3.82,11.52,23.0,22.0,,,,6.21,30.059055,,,,,,,,,,,SCT,300,BKN,600,,,,,IFR,,,,,,,,,,,,METAR,760.0
CYFS 280700Z 00000KT 3SM BR OVC002 M04/M05 A2982 RMK ST8 SLP113,CYFS,2018-10-28T07:00:00Z,61.75,-121.22,-4.0,-5.0,0,0,,3.0,29.819881,1011.3,,,,,,,,,BR,OVC,200,,,,,,,LIFR,,,,,,,,,,,,SPECI,169.0
CXCD 280700Z AUTO 02001KT M02/M05 RMK AO1 T10201054,CXCD,2018-10-28T07:00:00Z,56.32,-119.75,-2.0,-5.4,20,1,,,,,,TRUE,TRUE,,,,,,,,,,,,,,,,,,,,,,,,,,,METAR,630.0
CYFB 280700Z 34015G21KT 15SM FEW018 M11/M14 A3000 RMK SC2 SLP164,CYFB,2018-10-28T07:00:00Z,63.75,-68.55,-11.0,-14.0,340,15,21,15.0,30.0,1016.4,,,,,,,,,,FEW,1800,,,,,,,VFR,,,,,,,,,,,,SPECI,34.0
VEAT 280700Z 08003KT 4000 -RA BR SCT018 BKN100 23/20 Q1016 BECMG 5000 BR,VEAT,2018-10-28T07:00:00Z,23.87,91.25,23.0,20.0,80,3,,2.49,30.0,,,,,,,,,,-RA BR,SCT,1800,BKN,10000,,,,,IFR,,,,,,,,,,,,METAR,16.0
FMCH 280700Z 23012KT 9999 FEW020 29/22 Q1017 NOSIG,FMCH,2018-10-28T07:00:00Z,-11.52,43.27,29.0,22.0,230,12,,6.21,30.029528,,,,,,TRUE,,,,,FEW,2000,,,,,,,VFR,,,,,,,,,,,,METAR,29.0
DAUH 280700Z 15005KT 8000 SCT040 SCT100 19/14 Q1009,DAUH,2018-10-28T07:00:00Z,31.67,6.15,19.0,14.0,150,5,,4.97,29.793306,,,,,,,,,,,SCT,4000,SCT,10000,,,,,MVFR,,,,,,,,,,,,METAR,142.0
DAOO 280700Z 24010KT 9999 BKN026 SCT233 15/09 Q1002,DAOO,2018-10-28T07:00:00Z,35.62,-0.6,15.0,9.0,240,10,,6.21,29.586615,,,,,,,,,,,BKN,2600,SCT,23300,,,,,MVFR,,,,,,,,,,,,METAR,90.0
DAON 280700Z 20004KT 9999 SCT026 SCT100 14/09 Q1003,DAON,2018-10-28T07:00:00Z,35.02,-1.47,14.0,9.0,200,4,,6.21,29.616142,,,,,,,,,,,SCT,2600,SCT,10000,,,,,VFR,,,,,,,,,,,,METAR,247.0
VEMN 280700Z 10003KT 5000 HZ SCT020 BKN100 27/20 Q1015 NOSIG,VEMN,2018-10-28T07:00:00Z,27.47,95.02,27.0,20.0,100,3,,3.11,29.970472,,,,,,TRUE,,,,HZ,SCT,2000,BKN,10000,,,,,MVFR,,,,,,,,,,,,METAR,111.0
VIAR 280700Z 32004KT 3000 HZ NSC 27/16 Q1018 NOSIG,VIAR,2018-10-28T07:00:00Z,31.7,74.8,27.0,16.0,320,4,,1.86,30.059055,,,,,,TRUE,,,,HZ,CLR,,,,,,,,IFR,,,,,,,,,,,,METAR,234.0
VOVZ 280700Z 05012KT 5000 HZ FEW018 SCT090 31/16 Q1011 NOSIG,VOVZ,2018-10-28T07:00:00Z,17.75,83.22,31.0,16.0,50,12,,3.11,29.852362,,,,,,TRUE,,,,HZ,FEW,1800,SCT,9000,,,,,MVFR,,,,,,,,,,,,METAR,5.0
UTDL 280700Z 25011G17MPS 6000 -RA SCT005 OVC048 11/11 Q1033 R26/29//55 NOSIG RMK QBB160 QFE736/0982,UTDL,2018-10-28T07:00:00Z,40.22,69.7,11.0,11.0,250,21,33,3.73,30.501968,,,,,,TRUE,,,,-RA,SCT,500,OVC,4800,,,,,MVFR,,,,,,,,,,,,SPECI,442.0
KUKF 280700Z AUTO 23003KT 10SM OVC045 07/05 A2996 RMK AO2,KUKF,2018-10-28T07:00:00Z,36.22,-81.1,7.0,5.0,230,3,,10.0,29.958662,,,TRUE,TRUE,,,,,,,OVC,4500,,,,,,,VFR,,,,,,,,,,,,SPECI,396.0
KSVH 280700Z AUTO 24009KT 10SM CLR 08/05 A2991 RMK AO2 T00780046,KSVH,2018-10-28T07:00:00Z,35.75,-80.95,7.8,4.6,240,9,,10.0,29.911417,,,TRUE,TRUE,,,,,,,CLR,,,,,,,,VFR,,,,,,,,,,,,SPECI,294.0
KRHP 280700Z AUTO 00000KT 10SM CLR 05/05 A3003 RMK AO2 T00470047,KRHP,2018-10-28T07:00:00Z,35.18,-83.85,4.7,4.7,0,0,,10.0,30.029528,,,TRUE,TRUE,,,,,,,CLR,,,,,,,,VFR,,,,,,,,,,,,SPECI,518.0
KOCW 280700Z AUTO 25004KT 10SM SCT075 11/10 A2987 RMK AO2 T01100100,KOCW,2018-10-28T07:00:00Z,35.57,-77.05,11.0,10.0,250,4,,10.0,29.870079,,,TRUE,TRUE,,,,,,,SCT,7500,,,,,,,VFR,,,,,,,,,,,,SPECI,12.0
DTTD 280700Z 25006KT 190V290 9999 FEW030 21/12 Q1012,DTTD,2018-10-28T07:00:00Z,32.32,10.4,21.0,12.0,250,6,,6.21,29.88189,,,,,,,,,,,FEW,3000,,,,,,,VFR,,,,,,,,,,,,METAR,301.0
DTTB 280700Z 16010KT 9999 SCT016 SCT030 19/14 Q1003,DTTB,2018-10-28T07:00:00Z,37.25,9.8,19.0,14.0,160,10,,6.21,29.616142,,,,,,,,,,,SCT,1600,SCT,3000,,,,,VFR,,,,,,,,,,,,METAR,3.0
DABS 280700Z 20008KT 9999 FEW026 SCT030 14/10 Q1007,DABS,2018-10-28T07:00:00Z,35.43,8.12,14.0,10.0,200,8,,6.21,29.734253,,,,,,,,,,,FEW,2600,SCT,3000,,,,,VFR,,,,,,,,,,,,METAR,813.0
DAAS 280700Z 22004KT 9999 FEW010 SCT026 10/08 Q1005,DAAS,2018-10-28T07:00:00Z,36.18,5.33,10.0,8.0,220,4,,6.21,29.675198,,,,,,,,,,,FEW,1000,SCT,2600,,,,,VFR,,,,,,,,,,,,METAR,1038.0
FAJB 280700Z AUTO 04002KT //// // ////// 24/03 Q1028,FAJB,2018-10-28T07:00:00Z,-26.15,28.0,24.0,3.0,40,2,,,30.35433,,,TRUE,,,,,,,,,,,,,,,,,,,,,,,,,,,,METAR,1626.0
YPTN 280700Z AUTO 10004KT 9999 // SCT098 38/13 Q1004,YPTN,2018-10-28T07:00:00Z,-14.52,132.38,38.0,13.0,100,4,,6.21,29.64567,,,TRUE,,,,,,,,SCT,9800,,,,,,,VFR,,,,,,,,,,,,METAR,109.0
CYCB 280700Z 05010KT 12SM OVC012 M09/M10 A2989 RMK SC8 SLP126,CYCB,2018-10-28T07:00:00Z,69.08,-105.12,-9.0,-10.0,50,10,,12.0,29.890747,1012.6,,,,,,,,,,OVC,1200,,,,,,,MVFR,,,,,,,,,,,,SPECI,27.0
CYXH 280700Z AUTO 17003KT 9SM CLR M03/M07 A3001 RMK ICG SLP181,CYXH,2018-10-28T07:00:00Z,50.02,-110.72,-3.0,-7.0,170,3,,9.0,30.008858,1018.1,,TRUE,,,,,,,,CLR,,,,,,,,VFR,,,,,,,,,,,,SPECI,716.0
CYUS 280700Z AUTO 08027KT ////SM //// NCD M13/M15 A2986,CYUS,2018-10-28T07:00:00Z,68.82,-93.42,-13.0,-15.0,80,27,,,29.861221,,,TRUE,,,,,,,,CLR,,,,,,,,,,,,,,,,,,,,SPECI,42.0
CYTH 280700Z 35005KT 8SM -SN BKN005 OVC025 M00/M01 A2970 RMK SC7SC1 SLP072,CYTH,2018-10-28T07:00:00Z,55.78,-97.87,0.0,-1.0,350,5,,8.0,29.698818,1007.2,,,,,,,,,-SN,BKN,500,OVC,2500,,,,,IFR,,,,,,,,,,,,SPECI,218.0
CYSM 280700Z 31003KT 290V350 3/8SM FZFG VV002 M02/M02 A2985 RMK FG8 FROIN SLP123,CYSM,2018-10-28T07:00:00Z,60.03,-111.97,-2.0,-2.0,310,3,,0.38,29.84941,1012.3,,,,,,,,,FZFG,OVX,0,,,,,,,LIFR,,,,,,,,,,,200,SPECI,203.0
CYSF 280700Z AUTO 24004KT 9SM OVC015 01/00 A2979 RMK SLP104,CYSF,2018-10-28T07:00:00Z,59.25,-105.82,1.0,0.0,240,4,,9.0,29.790354,1010.4,,TRUE,,,,,,,,OVC,1500,,,,,,,MVFR,,,,,,,,,,,,SPECI,250.0
CYQV 280700Z AUTO 29007KT 9SM BKN065 03/M01 A2983 RMK SLP120,CYQV,2018-10-28T07:00:00Z,51.27,-102.47,3.0,-1.0,290,7,,9.0,29.828741,1012.0,,TRUE,,,,,,,,BKN,6500,,,,,,,VFR,,,,,,,,,,,,SPECI,498.0
CYPE 280700Z VRB03KT 15SM SKC M00/M05 A2988 RMK SLP143,CYPE,2018-10-28T07:00:00Z,56.22,-117.45,0.0,-5.0,0,3,,15.0,29.878937,1014.3,,,,,,,,,,SKC,,,,,,,,VFR,,,,,,,,,,,,SPECI,571.0
CYOD 280700Z 26005KT 15SM BKN041 04/01 A2993 RMK SC7 SLP155,CYOD,2018-10-28T07:00:00Z,54.4,-110.28,4.0,1.0,260,5,,15.0,29.929134,1015.5,,,,,,,,,,BKN,4100,,,,,,,VFR,,,,,,,,,,,,SPECI,544.0
CYIO 280700Z AUTO 14006KT 9SM CLR M23/M25 A2988 RMK SLP131,CYIO,2018-10-28T07:00:00Z,72.67,-77.97,-23.0,-25.0,140,6,,9.0,29.878937,1013.1,,TRUE,,,,,,,,CLR,,,,,,,,VFR,,,,,,,,,,,,SPECI,57.0
CYED 280700Z AUTO 23006KT 9SM CLR M01/M05 A2995 RMK SLP167,CYED,2018-10-28T07:00:00Z,53.67,-113.47,-1.0,-5.0,230,6,,9.0,29.949802,1016.7,,TRUE,,,,,,,,CLR,,,,,,,,VFR,,,,,,,,,,,,SPECI,688.0
CYCY 280700Z AUTO 29014KT 9SM CLR M16/M19 A2982 RMK SLP104,CYCY,2018-10-28T07:00:00Z,70.47,-68.52,-16.0,-19.0,290,14,,9.0,29.819881,1010.4,,TRUE,,,,,,,,CLR,,,,,,,,VFR,,,,,,,,,,,,SPECI,26.0
CYBW 280700Z AUTO 16002KT 9SM BKN180 BKN200 00/M09 A2997 RMK SLP181,CYBW,2018-10-28T07:00:00Z,51.1,-114.37,0.0,-9.0,160,2,,9.0,29.970472,1018.1,,TRUE,,,,,,,,BKN,18000,BKN,20000,,,,,VFR,,,,,,,,,,,,SPECI,1200.0
CYOW 280700Z 06010G16KT 4SM -SN BR OVC007 00/M00 A2977 RMK SF8 SLP086,CYOW,2018-10-28T07:00:00Z,45.32,-75.67,0.0,0.0,60,10,16,4.0,29.769686,1008.6,,,,,,,,,-SN BR,OVC,700,,,,,,,IFR,,,,,,,,,,,,SPECI,114.0
CYMX 280700Z 05011G21KT 020V090 4SM -SN OVC006 00/M00 A2978 RMK SF8 SLP089,CYMX,2018-10-28T07:00:00Z,45.67,-74.02,0.0,0.0,50,11,21,4.0,29.778543,1008.9,,,,,,,,,-SN,OVC,600,,,,,,,IFR,,,,,,,,,,,,SPECI,82.0
CYJT 280700Z 06010KT 15SM SCT030 OVC080 01/M04 A3052 RMK SC4AC4 PRESFR SLP339,CYJT,2018-10-28T07:00:00Z,48.55,-58.57,1.0,-4.0,60,10,,15.0,30.519686,1033.9,,,,,,,,,,SCT,3000,OVC,8000,,,,,VFR,,,,,,,,,,,,SPECI,26.0
CYHZ 280700Z 11022G33KT 2SM RA BR OVC004 08/08 A2997 RMK ST8 SLP154,CYHZ,2018-10-28T07:00:00Z,44.87,-63.5,8.0,8.0,110,22,33,2.0,29.970472,1015.4,,,,,,,,,RA BR,OVC,400,,,,,,,LIFR,,,,,,,,,,,,SPECI,145.0
CYGL 280700Z 11010KT 15SM FEW070 M07/M10 A3020 RMK AC2 SLP243,CYGL,2018-10-28T07:00:00Z,53.62,-77.7,-7.0,-10.0,110,10,,15.0,30.200787,1024.3,,,,,,,,,,FEW,7000,,,,,,,VFR,,,,,,,,,,,,SPECI,195.0
CYEG 280700Z 18007KT 20SM FEW250 M04/M08 A2997 RMK CI2 SLP177,CYEG,2018-10-28T07:00:00Z,53.28,-113.57,-4.0,-8.0,180,7,,20.0,29.970472,1017.7,,,,,,,,,,FEW,25000,,,,,,,VFR,,,,,,,,,,,,SPECI,723.0
CYBG 280700Z 09018KT 5SM -SNPL BKN036 OVC060 M01/M05 A3013 RMK SC6SC2 SLP210,CYBG,2018-10-28T07:00:00Z,48.33,-70.98,-1.0,-5.0,90,18,,5.0,30.129921,1021.0,,,,,,,,,-SN -PL,BKN,3600,OVC,6000,,,,,MVFR,,,,,,,,,,,,SPECI,159.0
CZMD 280700Z AUTO 15004KT 080V200 9SM OVC005 04/04 A2972 RMK SLP079,CZMD,2018-10-28T07:00:00Z,53.43,-91.77,4.0,4.0,150,4,,9.0,29.719488,1007.9,,TRUE,,,,,,,,OVC,500,,,,,,,IFR,,,,,,,,,,,,METAR,278.0
CYYU 280700Z 06004KT 15SM OVC110 M02/M04 A2996 RMK AC8 SLP159,CYYU,2018-10-28T07:00:00Z,49.42,-82.47,-2.0,-4.0,60,4,,15.0,29.958662,1015.9,,,,,,,,,,OVC,11000,,,,,,,VFR,,,,,,,,,,,,SPECI,227.0
CYXL 280700Z 14004KT 10SM SCT006 BKN014 OVC036 05/04 A2973 RMK SF3SC4SC1 BR SLP083,CYXL,2018-10-28T07:00:00Z,50.12,-91.9,5.0,4.0,140,4,,10.0,29.731298,1008.3,,,,,,,,,,SCT,600,BKN,1400,OVC,3600,,,MVFR,,,,,,,,,,,,SPECI,390.0
CYVQ 280700Z 07002KT 10SM SCT003 BKN005 OVC090 M05/M06 A2983 RMK ST3SC2AC3 SLP109,CYVQ,2018-10-28T07:00:00Z,65.27,-126.78,-5.0,-6.0,70,2,,10.0,29.828741,1010.9,,,,,,,,,,SCT,300,BKN,500,OVC,9000,,,IFR,,,,,,,,,,,,SPECI,74.0
CYVO 280700Z AUTO 06008KT 9SM FEW080 BKN099 OVC120 M02/M07 A2990 RMK SLP147,CYVO,2018-10-28T07:00:00Z,48.07,-77.77,-2.0,-7.0,60,8,,9.0,29.899607,1014.7,,TRUE,,,,,,,,FEW,8000,BKN,9900,OVC,12000,,,VFR,,,,,,,,,,,,SPECI,337.0
CYSC 280700Z AUTO 06010G18KT 9SM FEW024 OVC030 02/01 A2975 RMK SLP083,CYSC,2018-10-28T07:00:00Z,45.43,-71.68,2.0,1.0,60,10,18,9.0,29.749016,1008.3,,TRUE,,,,,,,,FEW,2400,OVC,3000,,,,,MVFR,,,,,,,,,,,,SPECI,241.0
CYSB 280700Z 04012KT 15SM FEW040 OVC075 01/M05 A2983 RMK SC1AC7 SLP116,CYSB,2018-10-28T07:00:00Z,46.63,-80.8,1.0,-5.0,40,12,,15.0,29.828741,1011.6,,,,,,,,,,FEW,4000,OVC,7500,,,,,VFR,,,,,,,,,,,,SPECI,348.0
CYRB 280700Z 35004KT 1 1/2SM BR FEW004 M20/M23 A2994 RMK ST2 SLP150,CYRB,2018-10-28T07:00:00Z,74.72,-94.97,-20.0,-23.0,350,4,,1.5,29.940945,1015.0,,,,,,,,,BR,FEW,400,,,,,,,IFR,,,,,,,,,,,,SPECI,67.0
CYQK 280700Z 30003KT 4SM -DZ OVC003 05/04 A2972 RMK SF8 SLP078,CYQK,2018-10-28T07:00:00Z,49.77,-94.37,5.0,4.0,300,3,,4.0,29.719488,1007.8,,,,,,,,,-DZ,OVC,300,,,,,,,LIFR,,,,,,,,,,,,SPECI,411.0
CYPO 280700Z AUTO 17008KT 9SM FEW120 M01/M05 A2995 RMK SLP148,CYPO,2018-10-28T07:00:00Z,54.98,-85.43,-1.0,-5.0,170,8,,9.0,29.949802,1014.8,,TRUE,,,,,,,,FEW,12000,,,,,,,VFR,,,,,,,,,,,,METAR,53.0
CYLH 280700Z AUTO 12003KT 100V160 9SM FEW041 SCT050 BKN065 OVC100 01/M02 A2986 RMK SLP129,CYLH,2018-10-28T07:00:00Z,52.2,-87.93,1.0,-2.0,120,3,,9.0,29.861221,1012.9,,TRUE,,,,,,,,FEW,4100,SCT,5000,BKN,6500,OVC,10000,VFR,,,,,,,,,,,,METAR,254.0
CYKP 280700Z AUTO 09004KT 060V120 9SM FEW048 M04/M04 A2993 RMK ICG SLP148,CYKP,2018-10-28T07:00:00Z,51.67,-85.9,-4.0,-4.0,90,4,,9.0,29.929134,1014.8,,TRUE,,,,,,,,FEW,4800,,,,,,,VFR,,,,,,,,,,,,METAR,179.0
CYKL 280700Z AUTO 25002KT 9SM CLR M12/M14 A3033 RMK SLP317,CYKL,2018-10-28T07:00:00Z,54.78,-66.82,-12.0,-14.0,250,2,,9.0,30.33071,1031.7,,TRUE,,,,,,,,CLR,,,,,,,,VFR,,,,,,,,,,,,SPECI,521.0
CYGQ 280700Z 10003KT 15SM FEW008 OVC019 02/01 A2986 RMK SF1SC7 SLP130,CYGQ,2018-10-28T07:00:00Z,49.77,-86.92,2.0,1.0,100,3,,15.0,29.861221,1013.0,,,,,,,,,,FEW,800,OVC,1900,,,,,MVFR,,,,,,,,,,,,SPECI,351.0
CYER 280700Z AUTO 19008KT 9SM -RA BKN045 OVC055 01/M00 A2987 RMK SLP118,CYER,2018-10-28T07:00:00Z,56.02,-87.68,1.0,0.0,190,8,,9.0,29.870079,1011.8,,TRUE,,,,,,,-RA,BKN,4500,OVC,5500,,,,,VFR,,,,,,,,,,,,METAR,16.0
CYCK 280700Z AUTO 34004KT 9SM 03/03 A2980 RMK CLD MISG SLP098,CYCK,2018-10-28T07:00:00Z,42.3,-82.08,3.0,3.0,340,4,,9.0,29.799213,1009.8,,TRUE,,,,,,,,,,,,,,,,,,,,,,,,,,,,METAR,198.0
CYBC 280700Z AUTO 08018G26KT 9SM BKN023 OVC140 01/M04 A3032 RMK SLP269,CYBC,2018-10-28T07:00:00Z,49.12,-68.2,1.0,-4.0,80,18,26,9.0,30.318897,1026.9,,TRUE,,,,,,,,BKN,2300,OVC,14000,,,,,MVFR,,,,,,,,,,,,SPECI,22.0
CYAT 280700Z AUTO /////KT 9SM BKN210 BKN240 M04/M06 A3007 RMK WND MISG SLP185,CYAT,2018-10-28T07:00:00Z,52.93,-82.43,-4.0,-6.0,,,,9.0,30.070866,1018.5,,TRUE,,,,,,,,BKN,21000,BKN,24000,,,,,VFR,,,,,,,,,,,,METAR,9.0
CZVL 280700Z AUTO 00000KT 9SM FEW250 M01/M06 A2995 RMK SLP165,CZVL,2018-10-28T07:00:00Z,53.67,-113.85,-1.0,-6.0,0,0,,9.0,29.949802,1016.5,,TRUE,,,,,,,,FEW,25000,,,,,,,VFR,,,,,,,,,,,,METAR,686.0
CYZH 280700Z AUTO 15003KT 9SM CLR 00/M02 A2991 RMK SLP153,CYZH,2018-10-28T07:00:00Z,55.28,-114.77,0.0,-2.0,150,3,,9.0,29.911417,1015.3,,TRUE,,,,,,,,CLR,,,,,,,,VFR,,,,,,,,,,,,SPECI,581.0
CYYN 280700Z AUTO 25010KT 9SM CLR 01/M02 A2999 RMK SLP176,CYYN,2018-10-28T07:00:00Z,50.27,-107.67,1.0,-2.0,250,10,,9.0,29.991142,1017.6,,TRUE,,,,,,,,CLR,,,,,,,,VFR,,,,,,,,,,,,SPECI,818.0
CYYL 280700Z AUTO 31006KT 1/2SM FZFG VV003 M00/ A2974 RMK ICG TD MISG SLP096,CYYL,2018-10-28T07:00:00Z,56.87,-101.07,0.0,,310,6,,0.5,29.740158,1009.6,,TRUE,,,,,,,FZFG,OVX,0,,,,,,,LIFR,,,,,,,,,,,300,SPECI,357.0
CYVC 280700Z 30006KT 1/2SM FZFG VV003 M00/M00 A2985 RMK FG8 SLP131,CYVC,2018-10-28T07:00:00Z,55.15,-105.27,0.0,0.0,300,6,,0.5,29.84941,1013.1,,,,,,,,,FZFG,OVX,0,,,,,,,LIFR,,,,,,,,,,,300,SPECI,379.0
CYQW 280700Z AUTO 30006KT 9SM OVC060 05/M02 A2995 RMK SLP158,CYQW,2018-10-28T07:00:00Z,52.77,-108.25,5.0,-2.0,300,6,,9.0,29.949802,1015.8,,TRUE,,,,,,,,OVC,6000,,,,,,,VFR,,,,,,,,,,,,SPECI,548.0
CYQR 280700Z 27012KT 15SM SKC M01/M04 A2993 RMK SLP161,CYQR,2018-10-28T07:00:00Z,50.43,-104.67,-1.0,-4.0,270,12,,15.0,29.929134,1016.1,,,,,,,,,,SKC,,,,,,,,VFR,,,,,,,,,,,,SPECI,577.0
CYQL 280700Z AUTO 21006KT 9SM FEW160 M00/M05 A3000 RMK SLP180,CYQL,2018-10-28T07:00:00Z,49.63,-112.8,0.0,-5.0,210,6,,9.0,30.0,1018.0,,TRUE,,,,,,,,FEW,16000,,,,,,,VFR,,,,,,,,,,,,SPECI,929.0
CYQF 280700Z 19004KT 15SM BKN220 M05/M09 A2998 RMK CI6 SLP188,CYQF,2018-10-28T07:00:00Z,52.17,-113.9,-5.0,-9.0,190,4,,15.0,29.97933,1018.8,,,,,,,,,,BKN,22000,,,,,,,VFR,,,,,,,,,,,,SPECI,905.0
CYPY 280700Z AUTO 00000KT 9SM CLR M07/M08 A2985 RMK SLP126,CYPY,2018-10-28T07:00:00Z,58.77,-111.12,-7.0,-8.0,0,0,,9.0,29.84941,1012.6,,TRUE,,,,,,,,CLR,,,,,,,,VFR,,,,,,,,,,,,SPECI,232.0
CYPA 280700Z 29008KT 15SM FEW075 02/M01 A2990 RMK AC2 SLP144,CYPA,2018-10-28T07:00:00Z,53.22,-105.67,2.0,-1.0,290,8,,15.0,29.899607,1014.4,,,,,,,,,,FEW,7500,,,,,,,VFR,,,,,,,,,,,,SPECI,428.0
CYOJ 280700Z AUTO VRB02KT 9SM CLR M05/M07 A2983 RMK SLP126,CYOJ,2018-10-28T07:00:00Z,58.62,-117.17,-5.0,-7.0,0,2,,9.0,29.828741,1012.6,,TRUE,,,,,,,,CLR,,,,,,,,VFR,,,,,,,,,,,,SPECI,338.0
CYNE 280700Z AUTO 31004KT 9SM BKN006 BKN016 OVC024 00/00 A2968 RMK SLP064,CYNE,2018-10-28T07:00:00Z,53.97,-97.82,0.0,0.0,310,4,,9.0,29.681103,1006.4,,TRUE,,,,,,,,BKN,600,BKN,1600,OVC,2400,,,IFR,,,,,,,,,,,,SPECI,223.0
CYMM 280700Z AUTO 20007KT 9SM CLR M01/M03 A2988 RMK SLP139,CYMM,2018-10-28T07:00:00Z,56.65,-111.22,-1.0,-3.0,200,7,,9.0,29.878937,1013.9,,TRUE,,,,,,,,CLR,,,,,,,,VFR,,,,,,,,,,,,SPECI,369.0
CYLL 280700Z AUTO 30007KT 9SM SCT025 01/M02 A2994 RMK SLP162,CYLL,2018-10-28T07:00:00Z,53.32,-110.07,1.0,-2.0,300,7,,9.0,29.940945,1016.2,,TRUE,,,,,,,,SCT,2500,,,,,,,VFR,,,,,,,,,,,,SPECI,669.0
CYKJ 280700Z AUTO 26004KT 1/4SM FZFG VV002 M01/M01 A2981 RMK ICG SLP123,CYKJ,2018-10-28T07:00:00Z,57.25,-105.62,-1.0,-1.0,260,4,,0.25,29.811024,1012.3,,TRUE,,,,,,,FZFG,OVX,0,,,,,,,LIFR,,,,,,,,,,,200,SPECI,509.0
CYGX 280700Z 10003KT 070V150 1SM BR VV006 01/00 A2970 RMK FG8 SLP067,CYGX,2018-10-28T07:00:00Z,56.35,-94.7,1.0,0.0,100,3,,1.0,29.698818,1006.7,,,,,,,,,BR,OVX,0,,,,,,,LIFR,,,,,,,,,,,600,SPECI,145.0
CYET 280700Z AUTO 29003KT 9SM BKN210 M02/M07 A2992 RMK SLP164,CYET,2018-10-28T07:00:00Z,53.57,-116.47,-2.0,-7.0,290,3,,9.0,29.920275,1016.4,,TRUE,,,,,,,,BKN,21000,,,,,,,VFR,,,,,,,,,,,,SPECI,925.0
CYEN 280700Z AUTO 28011G16KT 9SM CLR 02/M02 A2993 RMK SLP157,CYEN,2018-10-28T07:00:00Z,49.22,-102.97,2.0,-2.0,280,11,16,9.0,29.929134,1015.7,,TRUE,,,,,,,,CLR,,,,,,,,VFR,,,,,,,,,,,,SPECI,581.0
CYBU 280700Z AUTO 26011G16KT 9SM FEW035 BKN050 OVC065 03/01 A2984 RMK SLP124,CYBU,2018-10-28T07:00:00Z,53.32,-104.0,3.0,1.0,260,11,16,9.0,29.840551,1012.4,,TRUE,,,,,,,,FEW,3500,BKN,5000,OVC,6500,,,VFR,,,,,,,,,,,,SPECI,374.0
CYBQ 280700Z AUTO 31006KT 290V360 3/8SM FZFG VV002 M02/M02 A2970 RMK ICG SLP078,CYBQ,2018-10-28T07:00:00Z,58.7,-98.5,-2.0,-2.0,310,6,,0.38,29.698818,1007.8,,TRUE,,,,,,,FZFG,OVX,0,,,,,,,LIFR,,,,,,,,,,,200,METAR,262.0
CYBK 280700Z 31010KT 15SM -SN OVC026 M01/M02 A2959 RMK SC8 SLP023,CYBK,2018-10-28T07:00:00Z,64.28,-96.07,-1.0,-2.0,310,10,,15.0,29.589567,1002.3,,,,,,,,,-SN,OVC,2600,,,,,,,MVFR,,,,,,,,,,,,SPECI,18.0
CWHN 280700Z AUTO 31006KT 270V340 9SM OVC037 04/00 A2989 RMK SLP143,CWHN,2018-10-28T07:00:00Z,54.88,-109.97,4.0,0.0,310,6,,9.0,29.890747,1014.3,,TRUE,,,,,,,,OVC,3700,,,,,,,VFR,,,,,,,,,,,,METAR,636.0
CYZY 280700Z AUTO 00000KT 9SM BKN180 OVC200 M02/M03 A2978 RMK SLP117,CYZY,2018-10-28T07:00:00Z,55.28,-123.12,-2.0,-3.0,0,0,,9.0,29.778543,1011.7,,TRUE,,,,,,,,BKN,18000,OVC,20000,,,,,VFR,,,,,,,,,,,,SPECI,690.0
CYYF 280700Z 00000KT 15SM -RA OVC040 08/06 A2995 RMK SC8 SLP151,CYYF,2018-10-28T07:00:00Z,49.47,-119.58,8.0,6.0,0,0,,15.0,29.949802,1015.1,,,,,,,,,-RA,OVC,4000,,,,,,,VFR,,,,,,,,,,,,SPECI,344.0
CYYE 280700Z 17003KT 160V230 15SM SKC M04/M06 A2983 RMK SLP122,CYYE,2018-10-28T07:00:00Z,58.82,-122.57,-4.0,-6.0,170,3,,15.0,29.828741,1012.2,,,,,,,,,,SKC,,,,,,,,VFR,,,,,,,,,,,,SPECI,382.0
CYYD 280700Z AUTO 18013KT 9SM OVC110 07/M01 A2959 RMK SLP035,CYYD,2018-10-28T07:00:00Z,54.82,-127.18,7.0,-1.0,180,13,,9.0,29.589567,1003.5,,TRUE,,,,,,,,OVC,11000,,,,,,,VFR,,,,,,,,,,,,SPECI,523.0
CYXY 280700Z 00000KT 15SM FEW200 M02/M03 A2967 RMK CI2 SLP085,CYXY,2018-10-28T07:00:00Z,60.72,-135.07,-2.0,-3.0,0,0,,15.0,29.66929,1008.5,,,,,,,,,,FEW,20000,,,,,,,VFR,,,,,,,,,,,,SPECI,703.0
CYXT 280700Z 29004KT 220V020 15SM -RA OVC044 06/04 A2950 RMK SC8 SLP997,CYXT,2018-10-28T07:00:00Z,54.47,-128.57,6.0,4.0,290,4,,15.0,29.500984,999.7,,,,,,,,,-RA,OVC,4400,,,,,,,VFR,,,,,,,,,,,,SPECI,217.0
CYXJ 280700Z 12004KT 30SM SCT230 01/M05 A2984 RMK CI4 SLP133,CYXJ,2018-10-28T07:00:00Z,56.25,-120.73,1.0,-5.0,120,4,,30.0,29.840551,1013.3,,,,,,,,,,SCT,23000,,,,,,,VFR,,,,,,,,,,,,SPECI,695.0
CYWL 280700Z CCA 10032G39KT 15SM -SHRA OVC065 05/M01 A2969 RMK SC8 CVCTV CLD EMBD PRESFR SLP076,CYWL,2018-10-28T07:00:00Z,52.18,-122.07,5.0,-1.0,100,32,39,15.0,29.68996,1007.6,,,,,,,,,-SHRA,OVC,6500,,,,,,,VFR,,,,,,,,,,,,SPECI,940.0
CYQU 280700Z 00000KT 25SM BKN250 M03/M06 A2988 RMK CI5 SLP148,CYQU,2018-10-28T07:00:00Z,55.18,-118.88,-3.0,-6.0,0,0,,25.0,29.878937,1014.8,,,,,,,,,,BKN,25000,,,,,,,VFR,,,,,,,,,,,,SPECI,669.0
CYQH 280700Z 31003KT 20SM SKC M05/M06 A2978 RMK SLP120,CYQH,2018-10-28T07:00:00Z,60.12,-128.82,-5.0,-6.0,310,3,,20.0,29.778543,1012.0,,,,,,,,,,SKC,,,,,,,,VFR,,,,,,,,,,,,SPECI,690.0
CYMA 280700Z 03003KT 20SM FEW120 BKN220 M07/M08 A2976 RMK AC2CI3 SLP117,CYMA,2018-10-28T07:00:00Z,63.62,-135.87,-7.0,-8.0,30,3,,20.0,29.760826,1011.7,,,,,,,,,,FEW,12000,BKN,22000,,,,,VFR,,,,,,,,,,,,SPECI,504.0
CYLW 280700Z AUTO 01006KT 9SM -RA SCT037 OVC046 06/06 A2995 RMK SLP151,CYLW,2018-10-28T07:00:00Z,49.95,-119.37,6.0,6.0,10,6,,9.0,29.949802,1015.1,,TRUE,,,,,,,-RA,SCT,3700,OVC,4600,,,,,VFR,,,,,,,,,,,,SPECI,430.0
CYKA 280700Z 15005KT 12SM -SHRA BKN040 OVC070 07/05 A2990 RMK SC6AC2 CVCTV CLD EMBD SLP136,CYKA,2018-10-28T07:00:00Z,50.7,-120.45,7.0,5.0,150,5,,12.0,29.899607,1013.6,,,,,,,,,-SHRA,BKN,4000,OVC,7000,,,,,VFR,,,,,,,,,,,,SPECI,346.0
CYQG 280700Z AUTO 31007KT 9SM OVC015 05/04 A2982 RMK SLP105,CYQG,2018-10-28T07:00:00Z,42.27,-82.97,5.0,4.0,310,7,,9.0,29.819881,1010.5,,TRUE,,,,,,,,OVC,1500,,,,,,,MVFR,,,,,,,,,,,,SPECI,190.0
CYMO 280700Z AUTO 10007KT 9SM OVC190 M04/M06 A3009 RMK SLP191,CYMO,2018-10-28T07:00:00Z,51.28,-80.62,-4.0,-6.0,100,7,,9.0,30.088583,1019.1,,TRUE,,,,,,,,OVC,19000,,,,,,,VFR,,,,,,,,,,,,SPECI,10.0
SPJC 280700Z 18004KT 9999 OVC020 17/15 Q1014 NOSIG RMK PP000,SPJC,2018-10-28T07:00:00Z,-12.02,-77.12,17.0,15.0,180,4,,6.21,29.940945,,,,,,TRUE,,,,,OVC,2000,,,,,,,MVFR,,,,,,,,,,,,METAR,13.0
MHTG 280700Z 00000KT 8000 FEW008 BKN024 19/19 Q1020 A3012 NOSIG,MHTG,2018-10-28T07:00:00Z,14.07,-87.22,19.0,19.0,0,0,,4.97,30.11811,,,,,,TRUE,,,,,FEW,800,BKN,2400,,,,,MVFR,,,,,,,,,,,,METAR,1004.0
MHLM 280700Z 17004KT 9999 SCT024 BKN080 23/22 Q1016 A3000 NOSIG,MHLM,2018-10-28T07:00:00Z,15.45,-87.93,23.0,22.0,170,4,,6.21,30.0,,,,,,TRUE,,,,,SCT,2400,BKN,8000,,,,,VFR,,,,,,,,,,,,METAR,26.0
WAMM 280700Z 18007KT 120V220 9000 SCT021 30/22 Q1007 NOSIG,WAMM,2018-10-28T07:00:00Z,1.55,124.92,30.0,22.0,180,7,,5.59,29.734253,,,,,,TRUE,,,,,SCT,2100,,,,,,,VFR,,,,,,,,,,,,METAR,80.0
WAJJ 280700Z 27005KT 9999 FEW013 31/24 Q1004 NOSIG,WAJJ,2018-10-28T07:00:00Z,-2.58,140.52,31.0,24.0,270,5,,6.21,29.64567,,,,,,TRUE,,,,,FEW,1300,,,,,,,VFR,,,,,,,,,,,,METAR,88.0
ORSU 280700Z 05020G30KT CAVOK 18/02 Q1028,ORSU,2018-10-28T07:00:00Z,35.57,45.32,18.0,2.0,50,20,30,6.21,30.35433,,,,,,,,,,,CAVOK,,,,,,,,VFR,,,,,,,,,,,,METAR,761.0
WIII 280700Z 02007KT 340V050 9999 FEW020 33/23 Q1008 NOSIG,WIII,2018-10-28T07:00:00Z,-6.13,106.67,33.0,23.0,20,7,,6.21,29.763779,,,,,,TRUE,,,,,FEW,2000,,,,,,,VFR,,,,,,,,,,,,METAR,8.0
MDSD 280700Z 02004KT 9999 FEW016 23/22 Q1013 NOSIG,MDSD,2018-10-28T07:00:00Z,18.42,-69.67,23.0,22.0,20,4,,6.21,29.911417,,,,,,TRUE,,,,,FEW,1600,,,,,,,VFR,,,,,,,,,,,,METAR,18.0
MDPC 280700Z 07004KT 9999 FEW018 26/23 Q1014 NOSIG,MDPC,2018-10-28T07:00:00Z,18.57,-68.37,26.0,23.0,70,4,,6.21,29.940945,,,,,,TRUE,,,,,FEW,1800,,,,,,,VFR,,,,,,,,,,,,METAR,12.0
MDST 280700Z VRB03KT 9999 BKN016 23/23 Q1014,MDST,2018-10-28T07:00:00Z,19.4,-70.6,23.0,23.0,0,3,,6.21,29.940945,,,,,,,,,,,BKN,1600,,,,,,,MVFR,,,,,,,,,,,,METAR,184.0
WBKW 280700Z 33003KT 260V020 9999 FEW010 FEW016CB BKN140 26/24 Q1007,WBKW,2018-10-28T07:00:00Z,4.32,118.12,26.0,24.0,330,3,,6.21,29.734253,,,,,,,,,,,FEW,1000,FEW,1600,BKN,14000,,,VFR,,,,,,,,,,,,METAR,20.0
WBKT 280700Z 35006KT 300V060 9999 FEW014 BKN270 31/25 Q1007,WBKT,2018-10-28T07:00:00Z,6.92,116.82,31.0,25.0,350,6,,6.21,29.734253,,,,,,,,,,,FEW,1400,BKN,27000,,,,,VFR,,,,,,,,,,,,METAR,5.0
WBKS 280700Z 02005KT 340V060 9999 FEW016 BKN290 31/26 Q1007,WBKS,2018-10-28T07:00:00Z,5.9,118.07,31.0,26.0,20,5,,6.21,29.734253,,,,,,,,,,,FEW,1600,BKN,29000,,,,,VFR,,,,,,,,,,,,METAR,13.0
CXHR 280700Z AUTO 11005KT 01/M06 RMK AO1 T00101064,CXHR,2018-10-28T07:00:00Z,51.18,-112.5,1.0,-6.4,110,5,,,,,,TRUE,TRUE,,,,,,,,,,,,,,,,,,,,,,,,,,,METAR,971.0
CXFR 280700Z AUTO 01003KT M04/M07 RMK AO1 T10401071,CXFR,2018-10-28T07:00:00Z,56.08,-118.43,-4.0,-7.1,10,3,,,,,,TRUE,TRUE,,,,,,,,,,,,,,,,,,,,,,,,,,,METAR,655.0
CYYT 280700Z VRB02KT 15SM SCT110 00/M02 A3056 RMK AC4 SLP357,CYYT,2018-10-28T07:00:00Z,47.62,-52.72,0.0,-2.0,0,2,,15.0,30.561024,1035.7,,,,,,,,,,SCT,11000,,,,,,,VFR,,,,,,,,,,,,SPECI,140.0
CYYR 280700Z 25009G15KT 15SM BKN045 M07/M11 A3046 RMK SC6 SLP320,CYYR,2018-10-28T07:00:00Z,53.32,-60.42,-7.0,-11.0,250,9,15,15.0,30.46063,1032.0,,,,,,,,,,BKN,4500,,,,,,,VFR,,,,,,,,,,,,SPECI,49.0
CYYQ 280700Z 21005KT 15SM -SHRA OVC027 00/M01 A2973 RMK SC8 CVCTV CLD EMBD SLP071,CYYQ,2018-10-28T07:00:00Z,58.75,-94.07,0.0,-1.0,210,5,,15.0,29.731298,1007.1,,,,,,,,,-SHRA,OVC,2700,,,,,,,MVFR,,,,,,,,,,,,SPECI,29.0
CYYJ 280700Z 10005KT 090V250 3SM -RA BR FEW003 BKN009 OVC020 10/10 A2968 RMK SF2SF4SC2 SLP052,CYYJ,2018-10-28T07:00:00Z,48.63,-123.42,10.0,10.0,100,5,,3.0,29.681103,1005.2,,,,,,,,,-RA BR,FEW,300,BKN,900,OVC,2000,,,IFR,,,,,,,,,,,,SPECI,19.0
CYYC 280700Z 18003KT 15SM BKN190 03/M07 A2998 RMK AC5 SLP178,CYYC,2018-10-28T07:00:00Z,51.12,-114.02,3.0,-7.0,180,3,,15.0,29.97933,1017.8,,,,,,,,,,BKN,19000,,,,,,,VFR,,,,,,,,,,,,SPECI,1084.0
CYXX 280700Z 08013G19KT 10SM OVC035 09/08 A2971 RMK SC8 SLP063,CYXX,2018-10-28T07:00:00Z,49.03,-122.38,9.0,8.0,80,13,19,10.0,29.71063,1006.3,,,,,,,,,,OVC,3500,,,,,,,VFR,,,,,,,,,,,,SPECI,58.0
CYWG 280700Z 29007KT 15SM BKN076 02/01 A2974 RMK AC7 SLP084,CYWG,2018-10-28T07:00:00Z,49.88,-97.22,2.0,1.0,290,7,,15.0,29.740158,1008.4,,,,,,,,,,BKN,7600,,,,,,,VFR,,,,,,,,,,,,SPECI,239.0
CYVR 280700Z 09012KT 15SM OVC025 10/09 A2968 RMK SC8 SLP053,CYVR,2018-10-28T07:00:00Z,49.17,-123.17,10.0,9.0,90,12,,15.0,29.681103,1005.3,,,,,,,,,,OVC,2500,,,,,,,MVFR,,,,,,,,,,,,SPECI,2.0
CYUL 280700Z 04022G30KT 12SM BKN009 OVC025 01/M00 A2977 RMK SF7SC1 SLP083,CYUL,2018-10-28T07:00:00Z,45.47,-73.73,1.0,0.0,40,22,30,12.0,29.769686,1008.3,,,,,,,,,,BKN,900,OVC,2500,,,,,IFR,,,,,,,,,,,,SPECI,36.0
CYTR 280700Z 01006KT 3SM -PL OVC011 01/00 A2974 RMK SF8 CIG VRB 8-14 SLP076,CYTR,2018-10-28T07:00:00Z,44.12,-77.52,1.0,0.0,10,6,,3.0,29.740158,1007.6,,,,,,,,,-PL,OVC,1100,,,,,,,MVFR,,,,,,,,,,,,SPECI,86.0
CYQX 280700Z 31006KT 20SM BKN110 BKN200 BKN250 M03/M06 A3056 RMK AC5CC1CS1 SLP358,CYQX,2018-10-28T07:00:00Z,48.95,-54.58,-3.0,-6.0,310,6,,20.0,30.561024,1035.8,,,,,,,,,,BKN,11000,BKN,20000,BKN,25000,,,VFR,,,,,,,,,,,,SPECI,151.0
CYQQ 280700Z 15019G27KT 12SM -RA FEW028 OVC036 10/09 A2962 RMK SC2SC6 PCPN VRY LGT SLP031,CYQQ,2018-10-28T07:00:00Z,49.72,-124.9,10.0,9.0,150,19,27,12.0,29.619095,1003.1,,,,,,,,,-RA,FEW,2800,OVC,3600,,,,,VFR,,,,,,,,,,,,SPECI,24.0
CYQM 280700Z 06018G24KT 2 1/2SM -RA BKN006 OVC022 02/02 A3009 RMK SF6SC2 SLP194,CYQM,2018-10-28T07:00:00Z,46.12,-64.67,2.0,2.0,60,18,24,2.5,30.088583,1019.4,,,,,,,,,-RA,BKN,600,OVC,2200,,,,,IFR,,,,,,,,,,,,SPECI,71.0
CYZV 280700Z 04007KT 15SM BKN240 M06/M11 A3046 RMK CS7 SLP319,CYZV,2018-10-28T07:00:00Z,50.22,-66.27,-6.0,-11.0,40,7,,15.0,30.46063,1031.9,,,,,,,,,,BKN,24000,,,,,,,VFR,,,,,,,,,,,,SPECI,55.0
CYZF 280700Z 29004KT 15SM OVC021 M01/M02 A2983 RMK SC8 SLP117,CYZF,2018-10-28T07:00:00Z,62.47,-114.45,-1.0,-2.0,290,4,,15.0,29.828741,1011.7,,,,,,,,,,OVC,2100,,,,,,,MVFR,,,,,,,,,,,,SPECI,206.0
CYYZ 280700Z 35007KT 9SM -SN SCT004 SCT010 OVC014 01/M00 A2977 RMK SF3SF1SC4 SLP089,CYYZ,2018-10-28T07:00:00Z,43.67,-79.62,1.0,0.0,350,7,,9.0,29.769686,1008.9,,,,,,,,,-SN,SCT,400,SCT,1000,OVC,1400,,,MVFR,,,,,,,,,,,,SPECI,173.0
CYZX 280700Z 06015KT 3SM -RA BR FEW004 OVC013 05/05 A2992 RMK SF2SC6 SLP133,CYZX,2018-10-28T07:00:00Z,44.98,-64.92,5.0,5.0,60,15,,3.0,29.920275,1013.3,,,,,,,,,-RA BR,FEW,400,OVC,1300,,,,,MVFR,,,,,,,,,,,,SPECI,28.0
CYDB 280700Z AUTO 14009KT 9SM CLR 01/M05 A2960 RMK SLP060,CYDB,2018-10-28T07:00:00Z,61.37,-139.05,1.0,-5.0,140,9,,9.0,29.601377,1006.0,,TRUE,,,,,,,,CLR,,,,,,,,VFR,,,,,,,,,,,,SPECI,801.0
UCFM 280700Z 30009MPS 9000 BKN033CB 14/09 Q1028 R26/CLRD70 TEMPO 29012G17MPS 1500 BLDU BKN005,UCFM,2018-10-28T07:00:00Z,43.07,74.48,14.0,9.0,300,17,,5.59,30.35433,,,,,,,,,,,BKN,3300,,,,,,,VFR,,,,,,,,,,,,METAR,633.0
VTCC 280700Z 22005KT 9999 FEW035 33/20 Q1015 NOSIG,VTCC,2018-10-28T07:00:00Z,18.77,98.97,33.0,20.0,220,5,,6.21,29.970472,,,,,,TRUE,,,,,FEW,3500,,,,,,,VFR,,,,,,,,,,,,METAR,314.0
VVPQ 280700Z 07004KT 9999 SCT015 SCT040 31/23 Q1009 NOSIG,VVPQ,2018-10-28T07:00:00Z,10.23,103.97,31.0,23.0,70,4,,6.21,29.793306,,,,,,TRUE,,,,,SCT,1500,SCT,4000,,,,,VFR,,,,,,,,,,,,METAR,4.0
GABS 280700Z 21004KT 9999 FEW020 23/21 Q1016 NOSIG,GABS,2018-10-28T07:00:00Z,12.52,-7.95,23.0,21.0,210,4,,6.21,30.0,,,,,,TRUE,,,,,FEW,2000,,,,,,,VFR,,,,,,,,,,,,METAR,381.0
CYNA 280700Z AUTO 06005KT 9SM BKN240 M06/M08 A3052 RMK PRESFR SLP338,CYNA,2018-10-28T07:00:00Z,50.17,-61.82,-6.0,-8.0,60,5,,9.0,30.519686,1033.8,,TRUE,,,,,,,,BKN,24000,,,,,,,VFR,,,,,,,,,,,,SPECI,11.0
SUMU 280700Z 00000KT 0600 R24/N1200 R19/D0500 FG NSC 11/10 Q1017 TEMPO VCFG,SUMU,2018-10-28T07:00:00Z,-34.82,-56.0,11.0,10.0,0,0,,0.37,30.029528,,,,,,,,,,FG,CLR,,,,,,,,LIFR,,,,,,,,,,,,METAR,32.0
SULS 280700Z 07002KT 0050 FG VV/// 13/12 Q1017,SULS,2018-10-28T07:00:00Z,-34.87,-55.1,13.0,12.0,70,2,,0.03,30.029528,,,,,,,,,,FG,OVX,0,,,,,,,LIFR,,,,,,,,,,,,METAR,30.0
SLVR 280700Z 17004KT 9999 SCT008 BKN017 BKN070 21/21 Q1011,SLVR,2018-10-28T07:00:00Z,-17.63,-63.12,21.0,21.0,170,4,,6.21,29.852362,,,,,,,,,,,SCT,800,BKN,1700,BKN,7000,,,MVFR,,,,,,,,,,,,METAR,373.0
SLLP 280700Z VRB02KT 4000E VCFG FEW003 SCT070 BKN200 06/04 Q1036,SLLP,2018-10-28T07:00:00Z,-16.52,-68.17,6.0,4.0,0,2,,2.49,30.590551,,,,,,,,,,VCFG,FEW,300,SCT,7000,BKN,20000,,,IFR,,,,,,,,,,,,METAR,4014.0
SLCB 280700Z 00000KT 9999 FEW027 BKN070 15/11 Q1021,SLCB,2018-10-28T07:00:00Z,-17.42,-66.18,15.0,11.0,0,0,,6.21,30.147638,,,,,,,,,,,FEW,2700,BKN,7000,,,,,VFR,,,,,,,,,,,,METAR,2548.0
SGES 280700Z 24003KT CAVOK 14/12 Q1013,SGES,2018-10-28T07:00:00Z,-25.45,-54.85,14.0,12.0,240,3,,6.21,29.911417,,,,,,,,,,,CAVOK,,,,,,,,VFR,,,,,,,,,,,,METAR,849.0
SGAS 280700Z 19004KT CAVOK 16/14 Q1013,SGAS,2018-10-28T07:00:00Z,-25.25,-57.52,16.0,14.0,190,4,,6.21,29.911417,,,,,,,,,,,CAVOK,,,,,,,,VFR,,,,,,,,,,,,METAR,101.0
SYCJ 280700Z VRB02KT 9999 FEW013CB SCT014 24/23 Q1010 CB WNW NOSIG,SYCJ,2018-10-28T07:00:00Z,6.5,-58.25,24.0,23.0,0,2,,6.21,29.822834,,,,,,TRUE,,,,,FEW,1300,SCT,1400,,,,,VFR,,,,,,,,,,,,METAR,30.0
CXLB 280700Z AUTO 07027G34KT 12/11 RMK AO1 PK WND 07040/0628 SLP099 T01150111 56055,CXLB,2018-10-28T07:00:00Z,44.37,-64.3,11.5,11.1,70,27,34,,,1009.9,,TRUE,TRUE,,,,,,,,,,,,,,,,-5.5,,,,,,,,,,,METAR,4.0
CXKM 280700Z AUTO 24008KT M04/M06 RMK AO1 T10361055,CXKM,2018-10-28T07:00:00Z,52.82,-111.85,-3.6,-5.5,240,8,,,,,,TRUE,TRUE,,,,,,,,,,,,,,,,,,,,,,,,,,,METAR,675.0
CXKI 280700Z AUTO M02/M05 RMK AO1 SLP142 T10171053 56023,CXKI,2018-10-28T07:00:00Z,48.22,-80.0,-1.7,-5.3,,,,,,1014.2,,TRUE,TRUE,,,,,,,,,,,,,,,,-2.3,,,,,,,,,,,METAR,324.0
KASJ 280700Z AUTO 25004KT 10SM CLR 10/09 A2984 RMK AO2 T00950090,KASJ,2018-10-28T07:00:00Z,36.28,-77.17,9.5,9.0,250,4,,10.0,29.840551,,,TRUE,TRUE,,,,,,,CLR,,,,,,,,VFR,,,,,,,,,,,,SPECI,21.0
K24A 280700Z AUTO 30005KT 10SM OVC029 06/02 A2999 RMK AO2 T00610019,K24A,2018-10-28T07:00:00Z,35.32,-83.2,6.1,1.9,300,5,,10.0,29.991142,,,TRUE,TRUE,,,,,,,OVC,2900,,,,,,,MVFR,,,,,,,,,,,,SPECI,871.0
KETC 280700Z AUTO 26008KT 10SM CLR 10/09 A2986 RMK AO2 T01040085,KETC,2018-10-28T07:00:00Z,35.93,-77.55,10.4,8.5,260,8,,10.0,29.861221,,,TRUE,TRUE,,,,,,,CLR,,,,,,,,VFR,,,,,,,,,,,,SPECI,17.0
KGWW 280700Z AUTO 28007KT 10SM BKN110 11/09 A2989 RMK AO2 T01100086,KGWW,2018-10-28T07:00:00Z,35.47,-77.97,11.0,8.6,280,7,,10.0,29.890747,,,TRUE,TRUE,,,,,,,BKN,11000,,,,,,,VFR,,,,,,,,,,,,SPECI,41.0
DTTR 280700Z 13006KT 9999 FEW020 20/11 Q1011,DTTR,2018-10-28T07:00:00Z,31.7,9.27,20.0,11.0,130,6,,6.21,29.852362,,,,,,,,,,,FEW,2000,,,,,,,VFR,,,,,,,,,,,,METAR,259.0
DTTN 280700Z /////KT 9999 SCT020 21/09 Q1004,DTTN,2018-10-28T07:00:00Z,36.47,8.8,21.0,9.0,,,,6.21,29.64567,,,,,,,,,,,SCT,2000,,,,,,,VFR,,,,,,,,,,,,SPECI,144.0
DTTL 280700Z 19008KT 140V250 9999 SCT033 23/20 Q1006,DTTL,2018-10-28T07:00:00Z,36.85,11.07,23.0,20.0,190,8,,6.21,29.704725,,,,,,,,,,,SCT,3300,,,,,,,VFR,,,,,,,,,,,,METAR,30.0
FOON 280700Z 21004KT 170V250 9999 SCT004 OVC016 25/23 Q1014,FOON,2018-10-28T07:00:00Z,-1.63,13.42,25.0,23.0,210,4,,6.21,29.940945,,,,,,,,,,,SCT,400,OVC,1600,,,,,MVFR,,,,,,,,,,,,SPECI,441.0
FOOG 280700Z 20011KT 9999 FEW010 SCT040 28/25 Q1013,FOOG,2018-10-28T07:00:00Z,-0.7,8.75,28.0,25.0,200,11,,6.21,29.911417,,,,,,,,,,,FEW,1000,SCT,4000,,,,,VFR,,,,,,,,,,,,SPECI,4.0
WBSB 280700Z 34003KT 9999 SCT015 FEW016CB SCT140 BKN300 29/25 Q1008 RETS NOSIG,WBSB,2018-10-28T07:00:00Z,4.92,114.92,29.0,25.0,340,3,,6.21,29.763779,,,,,,TRUE,,,,,SCT,1500,FEW,1600,SCT,14000,BKN,30000,VFR,,,,,,,,,,,,METAR,15.0
KNGU 280659Z 23007KT 10SM FEW070 12/09 A2980 RMK AO2 SLP092 T01170094,KNGU,2018-10-28T06:59:00Z,36.92,-76.27,11.7,9.4,230,7,,10.0,29.799213,1009.2,,,TRUE,,,,,,,FEW,7000,,,,,,,VFR,,,,,,,,,,,,SPECI,5.0
KNOZ 280659Z AUTO 05003KT 10SM CLR 21/07 A2996 RMK AO2 SLP093 T02060067 403500150 $,KNOZ,2018-10-28T06:59:00Z,32.5,-114.45,20.6,6.7,50,3,,10.0,29.958662,1009.3,,TRUE,TRUE,TRUE,,,,,,CLR,,,,,,,,VFR,,,,35.0,15.0,,,,,,,SPECI,103.0
MUCF 280659Z AUTO 00000KT 23/23 Q1016,MUCF,2018-10-28T06:59:00Z,22.13,-80.4,23.0,23.0,0,0,,,30.0,,,TRUE,,,,,,,,,,,,,,,,,,,,,,,,,,,,METAR,39.0
KVPS 280659Z VRB04KT 10SM CLR 10/08 A3011 RMK AO2A SLP203 T00960079 $,KVPS,2018-10-28T06:59:00Z,30.47,-86.52,9.6,7.9,0,4,,10.0,30.109253,1020.3,,,TRUE,TRUE,,,,,,CLR,,,,,,,,VFR,,,,,,,,,,,,SPECI,26.0
KLSV 280659Z 02002KT 10SM CLR 16/M01 A3007 RMK AO2A SLPNO ALSTG ESTMD T01551006 $,KLSV,2018-10-28T06:59:00Z,36.22,-115.02,15.5,-0.6,20,2,,10.0,30.070866,,,,TRUE,TRUE,,,,,,CLR,,,,,,,,VFR,,,,,,,,,,,,SPECI,570.0
KNHK 280659Z AUTO 19003KT 9SM SCT025 OVC031 08/ A2975 RMK AO2 RAE57 P0000 T0078 $,KNHK,2018-10-28T06:59:00Z,38.27,-76.4,7.8,,190,3,,9.0,29.749016,,,TRUE,TRUE,TRUE,,,,,,SCT,2500,OVC,3100,,,,,VFR,,,,,,0.005,,,,,,SPECI,12.0
KROG 280658Z AUTO 19010KT 10SM CLR 13/08 A2998 RMK AO2 SLP145 T01330078,KROG,2018-10-28T06:58:00Z,36.37,-94.08,13.3,7.8,190,10,,10.0,29.97933,1014.5,,TRUE,TRUE,,,,,,,CLR,,,,,,,,VFR,,,,,,,,,,,,SPECI,415.0
K1J0 280658Z AUTO 00000KT 8SM CLR 09/09 A3013 RMK AO2 SLP188 T00940089,K1J0,2018-10-28T06:58:00Z,30.85,-85.6,9.4,8.9,0,0,,8.0,30.129921,1018.8,,TRUE,TRUE,,,,,,,CLR,,,,,,,,VFR,,,,,,,,,,,,METAR,26.0
K0J4 280658Z AUTO 00000KT 10SM CLR 10/08 A3014 RMK AO2 SLP206 T01000083 $,K0J4,2018-10-28T06:58:00Z,31.05,-86.32,10.0,8.3,0,0,,10.0,30.138779,1020.6,,TRUE,TRUE,TRUE,,,,,,CLR,,,,,,,,VFR,,,,,,,,,,,,SPECI,96.0
K1DW 280658Z AUTO 30009KT 10SM CLR 03/00 A3022 RMK AO2 SLP198 T00290003 402370029 $,K1DW,2018-10-28T06:58:00Z,41.37,-103.8,2.9,0.3,300,9,,10.0,30.221457,1019.8,,TRUE,TRUE,TRUE,,,,,,CLR,,,,,,,,VFR,,,,23.7,2.9,,,,,,,METAR,1546.0
K1MW 280658Z AUTO 28008KT 10SM CLR 02/00 A3020 RMK AO2 SLP209 T00231003 402670020 $,K1MW,2018-10-28T06:58:00Z,,,2.3,-0.3,280,8,,10.0,30.200787,1020.9,,TRUE,TRUE,TRUE,,,,,,CLR,,,,,,,,VFR,,,,26.7,2.0,,,,,,,METAR,
PAFR 280658Z AUTO 04003KT 10SM CLR M03/M03 A2953 RMK AO2 SLP008 T10261033,PAFR,2018-10-28T06:58:00Z,61.27,-149.65,-2.6,-3.3,40,3,,10.0,29.530512,1000.8,,TRUE,TRUE,,,,,,,CLR,,,,,,,,VFR,,,,,,,,,,,,SPECI,115.0
KSXS 280658Z AUTO 29006KT 10SM CLR 12/10 A3011 RMK AO2 SLP197 T01160099,KSXS,2018-10-28T06:58:00Z,31.37,-85.85,11.6,9.9,290,6,,10.0,30.109253,1019.7,,TRUE,TRUE,,,,,,,CLR,,,,,,,,VFR,,,,,,,,,,,,METAR,122.0
KHEY 280658Z AUTO 00000KT 10SM CLR 08/08 A3010 RMK AO2 SLP195 T00830083,KHEY,2018-10-28T06:58:00Z,31.35,-85.65,8.3,8.3,0,0,,10.0,30.100393,1019.5,,TRUE,TRUE,,,,,,,CLR,,,,,,,,VFR,,,,,,,,,,,,METAR,97.0
PWAK 280658Z AUTO 08009KT 9999 CLR 28/24 A2985 RMK AO2 SLP115,PWAK,2018-10-28T06:58:00Z,19.28,166.65,28.0,24.0,80,9,,6.21,29.84941,1011.5,,TRUE,TRUE,,,,,,,CLR,,,,,,,,VFR,,,,,,,,,,,,SPECI,4.0
KHLR 280658Z AUTO 23008KT 10SM CLR 20/13 A3004 RMK AO2 SLP163 T01950125,KHLR,2018-10-28T06:58:00Z,31.13,-97.72,19.5,12.5,230,8,,10.0,30.041338,1016.3,,TRUE,TRUE,,,,,,,CLR,,,,,,,,VFR,,,,,,,,,,,,METAR,283.0
KGXF 280658Z AUTO 15007KT 10SM CLR 18/08 A2998 RMK AO2 SLP143 T01810080 403190136,KGXF,2018-10-28T06:58:00Z,32.87,-112.72,18.1,8.0,150,7,,10.0,29.97933,1014.3,,TRUE,TRUE,,,,,,,CLR,,,,,,,,VFR,,,,31.9,13.6,,,,,,,METAR,262.0
KDMA 280658Z AUTO 17007KT 10SM CLR 16/09 A3009 RMK AO2 SLP155 T01560093 403160123 $,KDMA,2018-10-28T06:58:00Z,32.17,-110.87,15.6,9.3,170,7,,10.0,30.088583,1015.5,,TRUE,TRUE,TRUE,,,,,,CLR,,,,,,,,VFR,,,,31.6,12.3,,,,,,,METAR,824.0
KCWN 280658Z AUTO 34003KT 10SM CLR 08/01 A3023 RMK AO2 SLP091 T00800007 402060077 $,KCWN,2018-10-28T06:58:00Z,38.75,-104.85,8.0,0.7,340,3,,10.0,30.230314,1009.1,,TRUE,TRUE,TRUE,,,,,,CLR,,,,,,,,VFR,,,,20.6,7.7,,,,,,,METAR,2040.0
K4MR 280658Z AUTO 25014KT 10SM CLR 15/07 A3013 RMK AO2 SLP155 T01500071 402360077 $,K4MR,2018-10-28T06:58:00Z,34.3,-103.8,15.0,7.1,250,14,,10.0,30.129921,1015.5,,TRUE,TRUE,TRUE,,,,,,CLR,,,,,,,,VFR,,,,23.6,7.7,,,,,,,METAR,1326.0
KGRK 280658Z AUTO 24006KT 10SM CLR 19/12 A3008 RMK AO2 SLP177 T01920122,KGRK,2018-10-28T06:58:00Z,31.07,-97.83,19.2,12.2,240,6,,10.0,30.079725,1017.7,,TRUE,TRUE,,,,,,,CLR,,,,,,,,VFR,,,,,,,,,,,,METAR,309.0
KAFF 280658Z AUTO 36009KT 10SM CLR 06/01 A3026 RMK AO2 SLP193 T00580011 402370010,KAFF,2018-10-28T06:58:00Z,38.97,-104.82,5.8,1.1,360,9,,10.0,30.259842,1019.3,,TRUE,TRUE,,,,,,,CLR,,,,,,,,VFR,,,,23.7,1.0,,,,,,,METAR,2003.0
KBIF 280658Z AUTO 00000KT 10SM CLR 14/08 A3018 RMK AO2 SLPNO T01380081 402380084 $,KBIF,2018-10-28T06:58:00Z,31.85,-106.38,13.8,8.1,0,0,,10.0,30.180119,,,TRUE,TRUE,TRUE,,,,,,CLR,,,,,,,,VFR,,,,23.8,8.4,,,,,,,METAR,1203.0
K9L2 280658Z AUTO 13005KT 10SM CLR 15/M03 A3005 RMK AO2 SLP160 T01511030,K9L2,2018-10-28T06:58:00Z,34.97,-117.87,15.1,-3.0,130,5,,10.0,30.050198,1016.0,,TRUE,TRUE,,,,,,,CLR,,,,,,,,VFR,,,,,,,,,,,,METAR,701.0
KCVS 280658Z AUTO 27010KT 10SM CLR 13/06 A3013 RMK AO2 SLP159 T01250059 402480052 $,KCVS,2018-10-28T06:58:00Z,34.37,-103.32,12.5,5.9,270,10,,10.0,30.129921,1015.9,,TRUE,TRUE,TRUE,,,,,,CLR,,,,,,,,VFR,,,,24.8,5.2,,,,,,,METAR,1309.0
KEDW 280658Z AUTO 18004KT 10SM CLR 15/M02 A3004 RMK AO2 SLP159 T01471018,KEDW,2018-10-28T06:58:00Z,34.88,-117.87,14.7,-1.8,180,4,,10.0,30.041338,1015.9,,TRUE,TRUE,,,,,,,CLR,,,,,,,,VFR,,,,,,,,,,,,METAR,702.0
KFEW 280658Z AUTO 24008KT 10SM CLR 02/01 A3026 RMK AO2 SLP205 T00190008 402080000 $,KFEW,2018-10-28T06:58:00Z,41.13,-104.87,1.9,0.8,240,8,,10.0,30.259842,1020.5,,TRUE,TRUE,TRUE,,,,,,CLR,,,,,,,,VFR,,,,20.8,,,,,,,,METAR,1878.0
KFCS 280658Z AUTO 08005KT 8SM CLR 07/02 A3025 RMK AO2 SLP219 T00740021 402490036 $,KFCS,2018-10-28T06:58:00Z,38.67,-104.77,7.4,2.1,80,5,,8.0,30.250984,1021.9,,TRUE,TRUE,TRUE,,,,,,CLR,,,,,,,,VFR,,,,24.9,3.6,,,,,,,METAR,1789.0
KFHU 280658Z AUTO 20003KT 10SM CLR 15/04 A3022 RMK AO2 SLP170 T01460042 402640107,KFHU,2018-10-28T06:58:00Z,31.58,-110.35,14.6,4.2,200,3,,10.0,30.221457,1017.0,,TRUE,TRUE,,,,,,,CLR,,,,,,,,VFR,,,,26.4,10.7,,,,,,,METAR,1438.0
KHIF 280658Z AUTO 12012KT 10SM CLR 12/01 A3015 RMK AO2 SLP173 T01180006 402000078,KHIF,2018-10-28T06:58:00Z,41.12,-111.97,11.8,0.6,120,12,,10.0,30.15059,1017.3,,TRUE,TRUE,,,,,,,CLR,,,,,,,,VFR,,,,20.0,7.8,,,,,,,METAR,1459.0
KINS 280658Z AUTO 00000KT 10SM CLR 12/M05 A3010 RMK AO2 SLP163 T01221049 $,KINS,2018-10-28T06:58:00Z,36.58,-115.67,12.2,-4.9,0,0,,10.0,30.100393,1016.3,,TRUE,TRUE,TRUE,,,,,,CLR,,,,,,,,VFR,,,,,,,,,,,,METAR,955.0
KHMN 280658Z AUTO 00000KT 10SM CLR 09/06 A3023 RMK AO2 SLP194 T00940058 402280061 $,KHMN,2018-10-28T06:58:00Z,32.85,-106.08,9.4,5.8,0,0,,10.0,30.230314,1019.4,,TRUE,TRUE,TRUE,,,,,,CLR,,,,,,,,VFR,,,,22.8,6.1,,,,,,,METAR,1248.0
KLUF 280658Z AUTO 02005KT 10SM CLR 18/10 A2999 RMK AO2 SLP146 T01790100 403070141 $,KLUF,2018-10-28T06:58:00Z,33.52,-112.37,17.9,10.0,20,5,,10.0,29.991142,1014.6,,TRUE,TRUE,TRUE,,,,,,CLR,,,,,,,,VFR,,,,30.7,14.1,,,,,,,METAR,332.0
KPOE 280658Z AUTO 20003KT 10SM CLR 17/14 A3008 RMK AO2 SLP186 T01650142,KPOE,2018-10-28T06:58:00Z,31.05,-93.2,16.5,14.2,200,3,,10.0,30.079725,1018.6,,TRUE,TRUE,,,,,,,CLR,,,,,,,,VFR,,,,,,,,,,,,METAR,101.0
KMUO 280658Z AUTO 13009KT 10SM CLR 10/10 A3002 RMK AO2 SLP158 T00950095 401970050 $,KMUO,2018-10-28T06:58:00Z,43.03,-115.87,9.5,9.5,130,9,,10.0,30.02067,1015.8,,TRUE,TRUE,TRUE,,,,,,CLR,,,,,,,,VFR,,,,19.7,5.0,,,,,,,METAR,913.0
KBKF 280658Z 00000KT 10SM FEW220 06/02 A3026 RMK AO2A SLP200 T00620023 402240054,KBKF,2018-10-28T06:58:00Z,39.72,-104.75,6.2,2.3,0,0,,10.0,30.259842,1020.0,,,TRUE,,,,,,,FEW,22000,,,,,,,VFR,,,,22.4,5.4,,,,,,,METAR,1726.0
KMRH 280658Z AUTO 28010KT 10SM CLR 14/12 A2987 RMK AO2 SLP115 T01390122,KMRH,2018-10-28T06:58:00Z,34.73,-76.65,13.9,12.2,280,10,,10.0,29.870079,1011.5,,TRUE,TRUE,,,,,,,CLR,,,,,,,,VFR,,,,,,,,,,,,METAR,3.0
KJES 280658Z AUTO 00000KT 10SM CLR 10/08 A3008 RMK AO2,KJES,2018-10-28T06:58:00Z,31.55,-81.88,10.0,8.0,0,0,,10.0,30.079725,,,TRUE,TRUE,,,,,,,CLR,,,,,,,,VFR,,,,,,,,,,,,METAR,33.0
KSUU 280658Z AUTO 22011KT 10SM CLR 16/13 A3001 RMK AO2 SLP169 T01590132 $,KSUU,2018-10-28T06:58:00Z,38.27,-121.92,15.9,13.2,220,11,,10.0,30.008858,1016.9,,TRUE,TRUE,TRUE,,,,,,CLR,,,,,,,,VFR,,,,,,,,,,,,METAR,19.0
KRIV 280658Z AUTO 00000KT 10SM CLR 13/06 A3004 RMK AO2 SLP162 T01270063 PNO $,KRIV,2018-10-28T06:58:00Z,33.87,-117.27,12.7,6.3,0,0,,10.0,30.041338,1016.2,,TRUE,TRUE,TRUE,,,,,,CLR,,,,,,,,VFR,,,,,,,,,,,,METAR,469.0
KLOR 280658Z AUTO 00000KT 10SM CLR 07/07 A3011 RMK AO2 SLP179 T00730073,KLOR,2018-10-28T06:58:00Z,31.35,-85.75,7.3,7.3,0,0,,10.0,30.109253,1017.9,,TRUE,TRUE,,,,,,,CLR,,,,,,,,VFR,,,,,,,,,,,,METAR,74.0
KGRF 280658Z 14004KT 5SM -RA BR OVC044 13/13 A2975 RMK AO2A SLP078 P0004 $,KGRF,2018-10-28T06:58:00Z,47.07,-122.57,13.0,13.0,140,4,,5.0,29.749016,1007.8,,,TRUE,TRUE,,,,,-RA BR,OVC,4400,,,,,,,MVFR,,,,,,0.04,,,,,,SPECI,92.0
OAIX 280658Z 00000KT 9999 CLR 21/01 A3028 RMK AO2A SLP185 T02090007 $,OAIX,2018-10-28T06:58:00Z,34.95,69.27,20.9,0.7,0,0,,6.21,30.280512,1018.5,,,TRUE,TRUE,,,,,,CLR,,,,,,,,VFR,,,,,,,,,,,,METAR,1492.0
MHSC 280658Z AUTO 33010KT 9999 OVC046 21/21 A3004 RMK AO2 DZB18E29DZB35E45 SLP133 P0000 T02070207 $,MHSC,2018-10-28T06:58:00Z,14.37,-87.62,20.7,20.7,330,10,,6.21,30.041338,1013.3,,TRUE,TRUE,TRUE,,,,,,OVC,4600,,,,,,,VFR,,,,,,0.005,,,,,,METAR,626.0
PAFB 280658Z AUTO 00000KT 5SM BR OVC003 M01/M01 A2965 RMK AO2 SLP048 T10091010,PAFB,2018-10-28T06:58:00Z,64.83,-147.62,-0.9,-1.0,0,0,,5.0,29.648623,1004.8,,TRUE,TRUE,,,,,,BR,OVC,300,,,,,,,LIFR,,,,,,,,,,,,METAR,137.0
RKSO 280658Z 28012G20KT 7SM FEW040 SCT150 15/07 A2972 RMK SLPNO WND DATA ESTMD ALSTG ESTMD $,RKSO,2018-10-28T06:58:00Z,37.07,127.02,15.0,7.0,280,12,20,7.0,29.719488,,,,,TRUE,,,,,,FEW,4000,SCT,15000,,,,,VFR,,,,,,,,,,,,METAR,12.0
KEUF 280658Z AUTO 00000KT 8SM CLR 09/08 A3010 RMK AO2 SLP190 T00890078,KEUF,2018-10-28T06:58:00Z,31.95,-85.13,8.9,7.8,0,0,,8.0,30.100393,1019.0,,TRUE,TRUE,,,,,,,CLR,,,,,,,,VFR,,,,,,,,,,,,METAR,87.0
K1BW 280658Z AUTO 28010KT 10SM CLR 02/00 A3022 RMK AO2 SLP201 T00220002 402250018 $,K1BW,2018-10-28T06:58:00Z,,,2.2,0.2,280,10,,10.0,30.221457,1020.1,,TRUE,TRUE,TRUE,,,,,,CLR,,,,,,,,VFR,,,,22.5,1.8,,,,,,,METAR,
KTCM 280658Z 18004KT 5SM -RA BR FEW033 OVC043 13/13 A2977 RMK AO2A DZB01E10RAB10 SLPNO P0009 T01290129 $,KTCM,2018-10-28T06:58:00Z,47.12,-122.47,12.9,12.9,180,4,,5.0,29.769686,,,,TRUE,TRUE,,,,,-RA BR,FEW,3300,OVC,4300,,,,,MVFR,,,,,,0.09,,,,,,SPECI,98.0
KGOV 280658Z AUTO 00000KT 10SM OVC006 02/01 A2983 RMK AO2 SLP117 T00170014 $,KGOV,2018-10-28T06:58:00Z,44.68,-84.73,1.7,1.4,0,0,,10.0,29.828741,1011.7,,TRUE,TRUE,TRUE,,,,,,OVC,600,,,,,,,IFR,,,,,,,,,,,,SPECI,353.0
KGFA 280658Z AUTO 20004KT 10SM FEW160 BKN190 01/M06 A3005 RMK AO2 SLP196 T00111061 401601001 $,KGFA,2018-10-28T06:58:00Z,47.5,-111.17,1.1,-6.1,200,4,,10.0,30.050198,1019.6,,TRUE,TRUE,TRUE,,,,,,FEW,16000,BKN,19000,,,,,VFR,,,,16.0,-0.1,,,,,,,SPECI,1075.0
KBAB 280658Z AUTO 11006KT 10SM CLR 17/09 A2998 RMK AO2 SLP155 T01720089 $,KBAB,2018-10-28T06:58:00Z,39.12,-121.42,17.2,8.9,110,6,,10.0,29.97933,1015.5,,TRUE,TRUE,TRUE,,,,,,CLR,,,,,,,,VFR,,,,,,,,,,,,SPECI,34.0
KMEI 280658Z AUTO 00000KT 10SM CLR 10/08 A3009 RMK AO2 SLP188 T01000083 TSNO,KMEI,2018-10-28T06:58:00Z,32.33,-88.75,10.0,8.3,0,0,,10.0,30.088583,1018.8,,TRUE,TRUE,,,TRUE,,,,CLR,,,,,,,,VFR,,,,,,,,,,,,METAR,89.0
KNJM 280657Z AUTO 27007KT 10SM CLR 14/12 A2988 RMK AO2 SLP122 T01390117 $,KNJM,2018-10-28T06:57:00Z,34.67,-77.02,13.9,11.7,270,7,,10.0,29.878937,1012.2,,TRUE,TRUE,TRUE,,,,,,CLR,,,,,,,,VFR,,,,,,,,,,,,SPECI,7.0
KFLG 280657Z AUTO 00000KT 9SM CLR 01/M02 A3034 RMK AO2 SLP211 T00061022 402171028,KFLG,2018-10-28T06:57:00Z,35.13,-111.67,0.6,-2.2,0,0,,9.0,30.339567,1021.1,,TRUE,TRUE,,,,,,,CLR,,,,,,,,VFR,,,,21.7,-2.8,,,,,,,METAR,2134.0
KNYL 280657Z AUTO 03003KT 10SM CLR 22/06 A2994 RMK AO2 SLP136 T02220056 403440183 $,KNYL,2018-10-28T06:57:00Z,32.63,-114.62,22.2,5.6,30,3,,10.0,29.940945,1013.6,,TRUE,TRUE,TRUE,,,,,,CLR,,,,,,,,VFR,,,,34.4,18.3,,,,,,,METAR,65.0
KNTD 280657Z AUTO 24003KT 1/4SM FG VV002 15/14 A3000 RMK AO2 SLP160 T01500139 $,KNTD,2018-10-28T06:57:00Z,34.12,-119.12,15.0,13.9,240,3,,0.25,30.0,1016.0,,TRUE,TRUE,TRUE,,,,,FG,OVX,0,,,,,,,LIFR,,,,,,,,,,,200,METAR,4.0
EQYG 280657Z AUTO 22003KT 10SM CLR 20/ A3024 RMK AO2 SLP236 T0200 $ ,EQYG,2018-10-28T06:57:00Z,,,20.0,,220,3,,10.0,30.239174,1023.6,,TRUE,TRUE,TRUE,,,,,,CLR,,,,,,,,VFR,,,,,,,,,,,,METAR,
MMCP 280657Z RTD 06005KT 7SM BKN100 24/23 A3002 RMK 8/030,MMCP,2018-10-28T06:57:00Z,19.82,-90.5,24.0,23.0,60,5,,7.0,30.02067,,,,,,,,,,,BKN,10000,,,,,,,VFR,,,,,,,,,,,,METAR,5.0
PAJC 280657Z AUTO 28008G15KT 10SM BKN036 06/M01 A2967 RMK AO2 SLP049 T00561006,PAJC,2018-10-28T06:57:00Z,56.32,-158.37,5.6,-0.6,280,8,15,10.0,29.66929,1004.9,,TRUE,TRUE,,,,,,,BKN,3600,,,,,,,VFR,,,,,,,,,,,,SPECI,15.0
KEAR 280657Z AUTO 35018KT 10SM FEW120 11/04 A3006 RMK AO2 SLP170 T01060039,KEAR,2018-10-28T06:57:00Z,40.72,-99.0,10.6,3.9,350,18,,10.0,30.059055,1017.0,,TRUE,TRUE,,,,,,,FEW,12000,,,,,,,VFR,,,,,,,,,,,,SPECI,649.0
PHSF 280656Z AUTO 13004KT 10SM CLR 13/08 A3034 RMK AO2 SLP157 WND DATA ESTMD T01310075 PWINO $,PHSF,2018-10-28T06:56:00Z,19.77,-155.55,13.1,7.5,130,4,,10.0,30.339567,1015.7,,TRUE,TRUE,TRUE,,,,TRUE,,CLR,,,,,,,,VFR,,,,,,,,,,,,METAR,1887.0
PGUA 280656Z 07008KT 10SM FEW015 28/24 A2977 RMK AO2A SLP071 T02790239 $,PGUA,2018-10-28T06:56:00Z,13.57,144.92,27.9,23.9,70,8,,10.0,29.769686,1007.1,,,TRUE,TRUE,,,,,,FEW,1500,,,,,,,VFR,,,,,,,,,,,,METAR,187.0
KRDR 280656Z AUTO 31007KT 10SM CLR 05/03 A2979 RMK AO2 SLP100 T00450032,KRDR,2018-10-28T06:56:00Z,47.97,-97.4,4.5,3.2,310,7,,10.0,29.790354,1010.0,,TRUE,TRUE,,,,,,,CLR,,,,,,,,VFR,,,,,,,,,,,,METAR,278.0
KRCA 280656Z AUTO 28005KT 10SM CLR 03/00 A3009 RMK AO2 SLP201 T00281003 401890005 $,KRCA,2018-10-28T06:56:00Z,44.13,-103.08,2.8,-0.3,280,5,,10.0,30.088583,1020.1,,TRUE,TRUE,TRUE,,,,,,CLR,,,,,,,,VFR,,,,18.9,0.5,,,,,,,METAR,999.0
KPSM 280656Z 01011G19KT 10SM OVC008 04/02 A2967 RMK AO2A SLP050 T00370022,KPSM,2018-10-28T06:56:00Z,43.07,-70.82,3.7,2.2,10,11,19,10.0,29.66929,1005.0,,,TRUE,,,,,,,OVC,800,,,,,,,IFR,,,,,,,,,,,,METAR,31.0
KMIB 280656Z AUTO 28014KT 10SM FEW085 04/M02 A2990 RMK AO2 SLP143 T00351019 $,KMIB,2018-10-28T06:56:00Z,48.42,-101.33,3.5,-1.9,280,14,,10.0,29.899607,1014.3,,TRUE,TRUE,TRUE,,,,,,FEW,8500,,,,,,,VFR,,,,,,,,,,,,METAR,508.0
KHOP 280656Z AUTO 00000KT 10SM CLR 07/07 A3000 RMK AO2 SLP162 T00660065 FZRANO $,KHOP,2018-10-28T06:56:00Z,36.67,-87.5,6.6,6.5,0,0,,10.0,30.0,1016.2,,TRUE,TRUE,TRUE,,,TRUE,,,CLR,,,,,,,,VFR,,,,,,,,,,,,METAR,174.0
KFTK 280656Z AUTO 23003KT 8SM CLR 04/04 A2998 RMK AO2 SLP157 T00420042,KFTK,2018-10-28T06:56:00Z,37.88,-85.97,4.2,4.2,230,3,,8.0,29.97933,1015.7,,TRUE,TRUE,,,,,,,CLR,,,,,,,,VFR,,,,,,,,,,,,METAR,230.0
KQRH 280656Z AUTO 06009G13KT 010V120 M M CLR 31/21 A3003 RMK AO2 SLP156 WND DATA ESTMD T03100207 $,KQRH,2018-10-28T06:56:00Z,,,31.0,20.7,60,9,13,,30.029528,1015.6,,TRUE,TRUE,TRUE,,,,,,CLR,,,,,,,,,,,,,,,,,,,,METAR,
KQND 280656Z AUTO 00000KT 9999 FEW160 31/24 A2995 RMK AO2 SLP120 WND DATA ESTMD T03130236,KQND,2018-10-28T06:56:00Z,,,31.3,23.6,0,0,,6.21,29.949802,1012.0,,TRUE,TRUE,,,,,,,FEW,16000,,,,,,,VFR,,,,,,,,,,,,METAR,
KQN3 280656Z AUTO VRB03KT 5000 HZ CLR 30/20 A2990 RMK AO2 SLP117 WND DATA ESTMD T03000197,KQN3,2018-10-28T06:56:00Z,,,30.0,19.7,0,3,,3.11,29.899607,1011.7,,TRUE,TRUE,,,,,,HZ,CLR,,,,,,,,MVFR,,,,,,,,,,,,METAR,
KQKR 280656Z AUTO 00000KT 9999 CLR 26/21 A2990 RMK AO2 SLP133 WND DATA ESTMD T02620212,KQKR,2018-10-28T06:56:00Z,,,26.2,21.2,0,0,,6.21,29.899607,1013.3,,TRUE,TRUE,,,,,,,CLR,,,,,,,,VFR,,,,,,,,,,,,METAR,
KQHY 280656Z AUTO 00000KT 10SM CLR 11/10 A3013 RMK AO2 SLP206 T01080103 $,KQHY,2018-10-28T06:56:00Z,,,10.8,10.3,0,0,,10.0,30.129921,1020.6,,TRUE,TRUE,TRUE,,,,,,CLR,,,,,,,,VFR,,,,,,,,,,,,METAR,
KQD3 280656Z AUTO 11006KT 9000 HZ FEW036 31/21 A3005 RMK AO2 SLP141 WND DATA ESTMD T03090209,KQD3,2018-10-28T06:56:00Z,,,30.9,20.9,110,6,,5.59,30.050198,1014.1,,TRUE,TRUE,,,,,,HZ,FEW,3600,,,,,,,VFR,,,,,,,,,,,,METAR,
KQBF 280656Z AUTO 00000KT 9000 M CLR 28/ A2992 RMK AO2 SLP087 WND DATA ESTMD $,KQBF,2018-10-28T06:56:00Z,,,28.0,,0,0,,5.59,29.920275,1008.7,,TRUE,TRUE,TRUE,,,,,,CLR,,,,,,,,VFR,,,,,,,,,,,,METAR,
KMEH 280656Z AUTO 00000KT 10SM FEW110 11/07 A2992 RMK AO2 SLP124 T01110072,KMEH,2018-10-28T06:56:00Z,45.52,-118.42,11.1,7.2,0,0,,10.0,29.920275,1012.4,,TRUE,TRUE,,,,,,,FEW,11000,,,,,,,VFR,,,,,,,,,,,,METAR,1136.0
OTBH 280656Z 34019G24KT 8000 HZ SCT130 30/16 A3006 RMK AO2A SLP180 T02990159 $,OTBH,2018-10-28T06:56:00Z,25.12,51.32,29.9,15.9,340,19,24,4.97,30.059055,1018.0,,,TRUE,TRUE,,,,,HZ,SCT,13000,,,,,,,MVFR,,,,,,,,,,,,METAR,40.0
KOZR 280656Z AUTO 00000KT 10SM CLR 09/09 A3011 RMK AO2 SLP198 T00940086,KOZR,2018-10-28T06:56:00Z,31.28,-85.72,9.4,8.6,0,0,,10.0,30.109253,1019.8,,TRUE,TRUE,,,,,,,CLR,,,,,,,,VFR,,,,,,,,,,,,METAR,93.0
K2DP 280656Z AUTO 26008KT 10SM CLR 12/11 A2983 RMK AO2 SLPNO T01180107 $,K2DP,2018-10-28T06:56:00Z,35.68,-75.9,11.8,10.7,260,8,,10.0,29.828741,,,TRUE,TRUE,TRUE,,,,,,CLR,,,,,,,,VFR,,,,,,,,,,,,SPECI,3.0
KLRF 280656Z 00000KT 10SM CLR 08/08 A3000 RMK AO2A SLP161 T00830082 $,KLRF,2018-10-28T06:56:00Z,34.92,-92.15,8.3,8.2,0,0,,10.0,30.0,1016.1,,,TRUE,TRUE,,,,,,CLR,,,,,,,,VFR,,,,,,,,,,,,SPECI,95.0
KHRT 280656Z 00000KT 10SM CLR 10/10 A3011 RMK AO2A SLP198 T01020103 $,KHRT,2018-10-28T06:56:00Z,30.42,-86.67,10.2,10.3,0,0,,10.0,30.109253,1019.8,,,TRUE,TRUE,,,,,,CLR,,,,,,,,VFR,,,,,,,,,,,,SPECI,12.0
KHFF 280656Z AUTO 27005KT 10SM CLR 09/07 A2992 RMK AO2 SLP147 T00880070 $,KHFF,2018-10-28T06:56:00Z,35.02,-79.5,8.8,7.0,270,5,,10.0,29.920275,1014.7,,TRUE,TRUE,TRUE,,,,,,CLR,,,,,,,,VFR,,,,,,,,,,,,SPECI,115.0
KEND 280656Z AUTO 23008KT 5SM BR CLR 13/11 A2994 RMK AO2 VIS 1 7/8 RWY17R SLP134 T01330112 VISNO RWY35C $,KEND,2018-10-28T06:56:00Z,36.32,-97.92,13.3,11.2,230,8,,5.0,29.940945,1013.4,,TRUE,TRUE,TRUE,,,,,BR,CLR,,,,,,,,MVFR,,,,,,,,,,,,SPECI,398.0
KOFF 280656Z AUTO 33013G22KT 10SM CLR 13/07 A2991 RMK AO2 PK WND 33029/41 SLP130 T01340072 RVRNO $,KOFF,2018-10-28T06:56:00Z,41.12,-95.92,13.4,7.2,330,13,22,10.0,29.911417,1013.0,,TRUE,TRUE,TRUE,,,,,,CLR,,,,,,,,VFR,,,,,,,,,,,,METAR,319.0
KLFI 280656Z AUTO 24010KT 10SM CLR 12/11 A2978 RMK AO2 SLP091 T01150106 $,KLFI,2018-10-28T06:56:00Z,37.07,-76.37,11.5,10.6,240,10,,10.0,29.778543,1009.1,,TRUE,TRUE,TRUE,,,,,,CLR,,,,,,,,VFR,,,,,,,,,,,,METAR,3.0
KGUS 280656Z AUTO 20003KT 10SM OVC050 07/07 A2987 RMK AO2 SLP120 T00680068 $,KGUS,2018-10-28T06:56:00Z,40.63,-86.15,6.8,6.8,200,3,,10.0,29.870079,1012.0,,TRUE,TRUE,TRUE,,,,,,OVC,5000,,,,,,,VFR,,,,,,,,,,,,METAR,247.0
KDOV 280656Z AUTO 22005KT 10SM OVC060 09/07 A2974 RMK AO2 SLP074 T00850074 $,KDOV,2018-10-28T06:56:00Z,39.12,-75.47,8.5,7.4,220,5,,10.0,29.740158,1007.4,,TRUE,TRUE,TRUE,,,,,,OVC,6000,,,,,,,VFR,,,,,,,,,,,,METAR,9.0
KDAA 280656Z AUTO 00000KT 10SM OVC060 09/09 A2975 RMK AO2 RAE09DZB37E38RAB38E54 SLP078 P0001 T00910091 TSNO $,KDAA,2018-10-28T06:56:00Z,38.72,-77.17,9.1,9.1,0,0,,10.0,29.749016,1007.8,,TRUE,TRUE,TRUE,,TRUE,,,,OVC,6000,,,,,,,VFR,,,,,,0.01,,,,,,METAR,21.0
KCEF 280656Z AUTO 01007KT 8SM RA OVC005 05/04 A2964 RMK AO2 DZB00E17RAB17 CIG 004 RWY23 SLP044 P0003 T00470038,KCEF,2018-10-28T06:56:00Z,42.2,-72.52,4.7,3.8,10,7,,8.0,29.639763,1004.4,,TRUE,TRUE,,,,,,RA,OVC,500,,,,,,,IFR,,,,,,0.03,,,,,,METAR,75.0
KBLV 280656Z AUTO 16004KT 10SM OVC120 09/08 A2989 RMK AO2 SLP125 T00900076 $,KBLV,2018-10-28T06:56:00Z,38.53,-89.83,9.0,7.6,160,4,,10.0,29.890747,1012.5,,TRUE,TRUE,TRUE,,,,,,OVC,12000,,,,,,,VFR,,,,,,,,,,,,METAR,138.0
BGTL 280656Z AUTO 10011KT 9999 CLR M23/M25 A2959 RMK AO2 SLP011 T12271249 TSNO $,BGTL,2018-10-28T06:56:00Z,76.53,-68.7,-22.7,-24.9,100,11,,6.21,29.589567,1001.1,,TRUE,TRUE,TRUE,,TRUE,,,,CLR,,,,,,,,VFR,,,,,,,,,,,,METAR,77.0
KCOF 280656Z AUTO 33015G20KT 10SM CLR 18/13 A3006 RMK AO2 SLP184 T01780125 $,KCOF,2018-10-28T06:56:00Z,28.23,-80.6,17.8,12.5,330,15,20,10.0,30.059055,1018.4,,TRUE,TRUE,TRUE,,,,,,CLR,,,,,,,,VFR,,,,,,,,,,,,SPECI,3.0
RODN 280656Z AUTO 02015G19KT 10SM FEW042 23/13 A2993 RMK AO2 SLP141 T02320128 PWINO $,RODN,2018-10-28T06:56:00Z,26.35,127.77,23.2,12.8,20,15,19,10.0,29.929134,1014.1,,TRUE,TRUE,TRUE,,,,TRUE,,FEW,4200,,,,,,,VFR,,,,,,,,,,,,METAR,45.0
PHHI 280656Z AUTO 05004KT 10SM BKN018 OVC025 24/22 A3001 RMK AO2 SLP152 T02440219 $,PHHI,2018-10-28T06:56:00Z,21.48,-158.05,24.4,21.9,50,4,,10.0,30.008858,1015.2,,TRUE,TRUE,TRUE,,,,,,BKN,1800,OVC,2500,,,,,MVFR,,,,,,,,,,,,METAR,255.0
KFRI 280656Z AUTO 36006KT 10SM CLR 16/08 A2994 RMK AO2 SLP132 T01570080,KFRI,2018-10-28T06:56:00Z,39.03,-96.77,15.7,8.0,360,6,,10.0,29.940945,1013.2,,TRUE,TRUE,,,,,,,CLR,,,,,,,,VFR,,,,,,,,,,,,SPECI,325.0
KCBM 280656Z AUTO 00000KT 10SM CLR 08/08 A3007 RMK AO2 SLP185 T00840075 $,KCBM,2018-10-28T06:56:00Z,33.63,-88.45,8.4,7.5,0,0,,10.0,30.070866,1018.5,,TRUE,TRUE,TRUE,,,,,,CLR,,,,,,,,VFR,,,,,,,,,,,,SPECI,67.0
ETOU 280656Z AUTO 05009G20KT 9999 OVC100 05/00 A2985 RMK AO2 SLP115 T00540004 $,ETOU,2018-10-28T06:56:00Z,50.03,8.32,5.4,0.4,50,9,20,6.21,29.84941,1011.5,,TRUE,TRUE,TRUE,,,,,,OVC,10000,,,,,,,VFR,,,,,,,,,,,,METAR,141.0
KWRI 280656Z AUTO 23005KT 10SM BKN009 OVC018 08/08 A2969 RMK AO2 CIG 007V009 CIG 007 RWY06 CIG 008 RWY18 SLP054 T00810081 $,KWRI,2018-10-28T06:56:00Z,40.02,-74.58,8.1,8.1,230,5,,10.0,29.68996,1005.4,,TRUE,TRUE,TRUE,,,,,,BKN,900,OVC,1800,,,,,IFR,,,,,,,,,,,,SPECI,41.0
KWRB 280656Z 29004KT 10SM CLR 10/08 A3007 RMK AO2A SLP185 T00980082,KWRB,2018-10-28T06:56:00Z,32.62,-83.58,9.8,8.2,290,4,,10.0,30.070866,1018.5,,,TRUE,,,,,,,CLR,,,,,,,,VFR,,,,,,,,,,,,SPECI,90.0
KSKF 280656Z AUTO 00000KT 10SM CLR 15/14 A3010 RMK AO2 SLP188 T01480137 $,KSKF,2018-10-28T06:56:00Z,29.37,-98.57,14.8,13.7,0,0,,10.0,30.100393,1018.8,,TRUE,TRUE,TRUE,,,,,,CLR,,,,,,,,VFR,,,,,,,,,,,,SPECI,210.0
KXNO 280656Z AUTO 20004KT 10SM CLR 08/08 A2999 RMK AO2 SLP158 T00790078 $,KXNO,2018-10-28T06:56:00Z,33.62,-81.07,7.9,7.8,200,4,,10.0,29.991142,1015.8,,TRUE,TRUE,TRUE,,,,,,CLR,,,,,,,,VFR,,,,,,,,,,,,METAR,98.0
KXMR 280656Z AUTO 32010KT 10SM CLR 17/12 A3005 RMK AO2 SLP179 T01690122 $,KXMR,2018-10-28T06:56:00Z,28.47,-80.57,16.9,12.2,320,10,,10.0,30.050198,1017.9,,TRUE,TRUE,TRUE,,,,,,CLR,,,,,,,,VFR,,,,,,,,,,,,SPECI,3.0
KVAD 280656Z AUTO 00000KT 10SM CLR 10/09 A3009 RMK AO2 SLP192 T01010089 $,KVAD,2018-10-28T06:56:00Z,30.97,-83.2,10.1,8.9,0,0,,10.0,30.088583,1019.2,,TRUE,TRUE,TRUE,,,,,,CLR,,,,,,,,VFR,,,,,,,,,,,,SPECI,71.0
KTTS 280656Z AUTO 34007KT 10SM CLR 15/12 A3006 RMK AO2 SLP184 T01480121 $,KTTS,2018-10-28T06:56:00Z,28.62,-80.72,14.8,12.1,340,7,,10.0,30.059055,1018.4,,TRUE,TRUE,TRUE,,,,,,CLR,,,,,,,,VFR,,,,,,,,,,,,SPECI,3.0
KTIK 280656Z AUTO 18010KT 10SM CLR 13/10 A2998 RMK AO2 SLP151 T01300100 $,KTIK,2018-10-28T06:56:00Z,35.42,-97.37,13.0,10.0,180,10,,10.0,29.97933,1015.1,,TRUE,TRUE,TRUE,,,,,,CLR,,,,,,,,VFR,,,,,,,,,,,,SPECI,394.0
KTBN 280656Z AUTO 18005KT 10SM CLR 11/06 A2991 RMK AO2 SLP128 T01120055,KTBN,2018-10-28T06:56:00Z,37.72,-92.12,11.2,5.5,180,5,,10.0,29.911417,1012.8,,TRUE,TRUE,,,,,,,CLR,,,,,,,,VFR,,,,,,,,,,,,SPECI,353.0
KSVN 280656Z AUTO 27004KT 10SM CLR 11/08 A3002 RMK AO2 SLP169 T01050081 FZRANO $,KSVN,2018-10-28T06:56:00Z,32.02,-81.15,10.5,8.1,270,4,,10.0,30.02067,1016.9,,TRUE,TRUE,TRUE,,,TRUE,,,CLR,,,,,,,,VFR,,,,,,,,,,,,SPECI,13.0
KPOB 280656Z AUTO 28005KT 10SM CLR 09/07 A2991 RMK AO2 SLP132 T00890072 $,KPOB,2018-10-28T06:56:00Z,35.17,-79.02,8.9,7.2,280,5,,10.0,29.911417,1013.2,,TRUE,TRUE,TRUE,,,,,,CLR,,,,,,,,VFR,,,,,,,,,,,,SPECI,66.0
KMCF 280656Z AUTO 07004KT 10SM CLR 16/14 A3007 RMK AO2 SLP186 T01620137 FZRANO $,KMCF,2018-10-28T06:56:00Z,27.85,-82.52,16.2,13.7,70,4,,10.0,30.070866,1018.6,,TRUE,TRUE,TRUE,,,TRUE,,,CLR,,,,,,,,VFR,,,,,,,,,,,,SPECI,4.0
KHST 280656Z AUTO 32007KT 10SM CLR 21/17 A3004 RMK AO2 SLP176 T02120166 FZRANO VISNO RWY24 $,KHST,2018-10-28T06:56:00Z,25.47,-80.37,21.2,16.6,320,7,,10.0,30.041338,1017.6,,TRUE,TRUE,TRUE,,,TRUE,,,CLR,,,,,,,,VFR,,,,,,,,,,,,SPECI,2.0
KFBG 280656Z AUTO 27007KT 10SM CLR 09/07 A2990 RMK AO2 SLP128 T00940070 $,KFBG,2018-10-28T06:56:00Z,35.12,-78.92,9.4,7.0,270,7,,10.0,29.899607,1012.8,,TRUE,TRUE,TRUE,,,,,,CLR,,,,,,,,VFR,,,,,,,,,,,,SPECI,74.0
KDLF 280656Z AUTO 11004KT 10SM CLR 15/14 A3011 RMK AO2 SLP188 T01480138,KDLF,2018-10-28T06:56:00Z,29.37,-100.77,14.8,13.8,110,4,,10.0,30.109253,1018.8,,TRUE,TRUE,,,,,,,CLR,,,,,,,,VFR,,,,,,,,,,,,SPECI,330.0
KSZL 280656Z AUTO 21009KT 4SM HZ CLR 12/07 A2980 RMK AO2 SLP091 T01210072,KSZL,2018-10-28T06:56:00Z,38.72,-93.53,12.1,7.2,210,9,,4.0,29.799213,1009.1,,TRUE,TRUE,,,,,,HZ,CLR,,,,,,,,MVFR,,,,,,,,,,,,SPECI,265.0
KSSC 280656Z AUTO 23004KT 10SM CLR 09/07 A2997 RMK AO2 SLP150 T00880071 $,KSSC,2018-10-28T06:56:00Z,33.97,-80.47,8.8,7.1,230,4,,10.0,29.970472,1015.0,,TRUE,TRUE,TRUE,,,,,,CLR,,,,,,,,VFR,,,,,,,,,,,,SPECI,74.0
KRND 280656Z AUTO 24005KT 10SM CLR 18/15 A3012 RMK AO2 SLP194 T01810146 $,KRND,2018-10-28T06:56:00Z,29.52,-98.27,18.1,14.6,240,5,,10.0,30.121063,1019.4,,TRUE,TRUE,TRUE,,,,,,CLR,,,,,,,,VFR,,,,,,,,,,,,SPECI,232.0
KMMT 280656Z AUTO 24005KT 10SM CLR 08/08 A2997 RMK AO2 SLP151 T00840079 $,KMMT,2018-10-28T06:56:00Z,33.92,-80.78,8.4,7.9,240,5,,10.0,29.970472,1015.1,,TRUE,TRUE,TRUE,,,,,,CLR,,,,,,,,VFR,,,,,,,,,,,,SPECI,77.0
KMGE 280656Z AUTO 25003KT 10SM SCT045 08/07 A3004 RMK AO2 SLP174 T00760065 $,KMGE,2018-10-28T06:56:00Z,33.92,-84.52,7.6,6.5,250,3,,10.0,30.041338,1017.4,,TRUE,TRUE,TRUE,,,,,,SCT,4500,,,,,,,VFR,,,,,,,,,,,,SPECI,326.0
KLTS 280656Z AUTO 00000KT 10SM CLR 14/11 M RMK AO2 VIS 1 1/2 RWY17R SLPNO T01380110 $,KLTS,2018-10-28T06:56:00Z,34.67,-99.27,13.8,11.0,0,0,,10.0,,,,TRUE,TRUE,TRUE,,,,,,CLR,,,,,,,,VFR,,,,,,,,,,,,SPECI,420.0
KLSF 280656Z AUTO 12004KT 10SM CLR 06/06 A3009 RMK AO2 SLP195 T00640064,KLSF,2018-10-28T06:56:00Z,32.32,-84.97,6.4,6.4,120,4,,10.0,30.088583,1019.5,,TRUE,TRUE,,,,,,,CLR,,,,,,,,VFR,,,,,,,,,,,,SPECI,71.0
KLHW 280656Z AUTO 25006KT 10SM CLR 10/08 A3004 RMK AO2 SLP176 T01000081 $,KLHW,2018-10-28T06:56:00Z,31.87,-81.57,10.0,8.1,250,6,,10.0,30.041338,1017.6,,TRUE,TRUE,TRUE,,,,,,CLR,,,,,,,,VFR,,,,,,,,,,,,SPECI,14.0
KIAB 280656Z AUTO 23007KT 10SM CLR 14/09 A2990 RMK AO2 SLP121 T01370093 $,KIAB,2018-10-28T06:56:00Z,37.62,-97.27,13.7,9.3,230,7,,10.0,29.899607,1012.1,,TRUE,TRUE,TRUE,,,,,,CLR,,,,,,,,VFR,,,,,,,,,,,,SPECI,418.0
KFSI 280656Z AUTO 00000KT 9SM CLR 13/12 A3000 RMK AO2 SLP154 T01260120,KFSI,2018-10-28T06:56:00Z,34.65,-98.4,12.6,12.0,0,0,,9.0,30.0,1015.4,,TRUE,TRUE,,,,,,,CLR,,,,,,,,VFR,,,,,,,,,,,,SPECI,362.0
KEGI 280656Z AUTO 00000KT 10SM CLR 08/08 A3012 RMK AO2 SLP201 T00830080 $,KEGI,2018-10-28T06:56:00Z,30.63,-86.52,8.3,8.0,0,0,,10.0,30.121063,1020.1,,TRUE,TRUE,TRUE,,,,,,CLR,,,,,,,,VFR,,,,,,,,,,,,METAR,59.0
KDYS 280656Z AUTO 19009KT 10SM CLR 19/11 A3007 RMK AO2 SLP145 T01890112,KDYS,2018-10-28T06:56:00Z,32.42,-99.83,18.9,11.2,190,9,,10.0,30.070866,1014.5,,TRUE,TRUE,,,,,,,CLR,,,,,,,,VFR,,,,,,,,,,,,SPECI,545.0
KBIX 280656Z AUTO 00000KT 10SM CLR 17/15 A3011 RMK AO2 SLP199 T01690154 $,KBIX,2018-10-28T06:56:00Z,30.42,-88.92,16.9,15.4,0,0,,10.0,30.109253,1019.9,,TRUE,TRUE,TRUE,,,,,,CLR,,,,,,,,VFR,,,,,,,,,,,,SPECI,10.0
KBAD 280656Z AUTO 16003KT 9SM CLR 14/14 A3004 RMK AO2 SLP174 T01440144,KBAD,2018-10-28T06:56:00Z,32.5,-93.67,14.4,14.4,160,3,,9.0,30.041338,1017.4,,TRUE,TRUE,,,,,,,CLR,,,,,,,,VFR,,,,,,,,,,,,SPECI,51.0
TJSJ 280656Z 00000KT 10SM SCT023 SCT040 27/23 A2993 RMK AO2 SLP135 VCSH SW T02670228,TJSJ,2018-10-28T06:56:00Z,18.43,-66.02,26.7,22.8,0,0,,10.0,29.929134,1013.5,,,TRUE,,,,,,,SCT,2300,SCT,4000,,,,,VFR,,,,,,,,,,,,SPECI,21.0
KUKI 280656Z AUTO 00000KT 10SM FEW029 14/12 A3009 RMK AO2 SLP181 T01440117,KUKI,2018-10-28T06:56:00Z,39.12,-123.2,14.4,11.7,0,0,,10.0,30.088583,1018.1,,TRUE,TRUE,,,,,,,FEW,2900,,,,,,,VFR,,,,,,,,,,,,METAR,187.0
KTPH 280656Z AUTO 36009KT 10SM CLR 07/M07 A3022 RMK AO2 SLP193 T00721067,KTPH,2018-10-28T06:56:00Z,38.05,-117.08,7.2,-6.7,360,9,,10.0,30.221457,1019.3,,TRUE,TRUE,,,,,,,CLR,,,,,,,,VFR,,,,,,,,,,,,METAR,1652.0
KSFO 280656Z 32007KT 10SM OVC008 14/13 A3007 RMK AO2 SLP182 T01440133,KSFO,2018-10-28T06:56:00Z,37.62,-122.37,14.4,13.3,320,7,,10.0,30.070866,1018.2,,,TRUE,,,,,,,OVC,800,,,,,,,IFR,,,,,,,,,,,,METAR,3.0
KNUQ 280656Z AUTO 00000KT 10SM CLR 16/14 A3009 RMK AO2 SLP190 T01610144,KNUQ,2018-10-28T06:56:00Z,37.4,-122.05,16.1,14.4,0,0,,10.0,30.088583,1019.0,,TRUE,TRUE,,,,,,,CLR,,,,,,,,VFR,,,,,,,,,,,,METAR,12.0
KJXN 280656Z AUTO 27004KT 10SM OVC009 04/03 A2985 RMK AO2 SLP115 T00440033 $,KJXN,2018-10-28T06:56:00Z,42.27,-84.47,4.4,3.3,270,4,,10.0,29.84941,1011.5,,TRUE,TRUE,TRUE,,,,,,OVC,900,,,,,,,IFR,,,,,,,,,,,,METAR,305.0
ETAD 280656Z AUTO 04014G21KT 9999 SCT016 BKN110 03/01 A2981 RMK AO2 SLP098 T00300007 $,ETAD,2018-10-28T06:56:00Z,49.98,6.7,3.0,0.7,40,14,21,6.21,29.811024,1009.8,,TRUE,TRUE,TRUE,,,,,,SCT,1600,BKN,11000,,,,,VFR,,,,,,,,,,,,METAR,365.0
KNSE 280656Z AUTO 00000KT 7SM CLR 09/09 A3012 RMK AO2 SLP188 T00940094 $,KNSE,2018-10-28T06:56:00Z,30.73,-87.02,9.4,9.4,0,0,,7.0,30.121063,1018.8,,TRUE,TRUE,TRUE,,,,,,CLR,,,,,,,,VFR,,,,,,,,,,,,METAR,61.0
K79J 280656Z AUTO 00000KT 9SM CLR 10/08 A3012 RMK AO2 SLP197 T01000083,K79J,2018-10-28T06:56:00Z,31.32,-86.4,10.0,8.3,0,0,,9.0,30.121063,1019.7,,TRUE,TRUE,,,,,,,CLR,,,,,,,,VFR,,,,,,,,,,,,METAR,94.0
KNXP 280656Z 00000KT 10SM CLR 17/01 A3012 RMK AO2 SLP168 T01720006 $,KNXP,2018-10-28T06:56:00Z,34.28,-116.17,17.2,0.6,0,0,,10.0,30.121063,1016.8,,,TRUE,TRUE,,,,,,CLR,,,,,,,,VFR,,,,,,,,,,,,SPECI,626.0
KDRA 280656Z AUTO 00000KT 10SM CLR 14/M04 A3011 RMK AO2 SLP161 T01391044,KDRA,2018-10-28T06:56:00Z,36.62,-116.03,13.9,-4.4,0,0,,10.0,30.109253,1016.1,,TRUE,TRUE,,,,,,,CLR,,,,,,,,VFR,,,,,,,,,,,,METAR,1006.0
PAED 280656Z AUTO 00000KT 10SM CLR M01/M01 A2956 RMK AO2 SLP007 T10061006,PAED,2018-10-28T06:56:00Z,61.25,-149.8,-0.6,-0.6,0,0,,10.0,29.56004,1000.7,,TRUE,TRUE,,,,,,,CLR,,,,,,,,VFR,,,,,,,,,,,,METAR,59.0
KAQV 280656Z AUTO VRB03KT 10SM CLR 16/14 A3007 RMK AO2 SLP180 T01610144 $,KAQV,2018-10-28T06:56:00Z,31.4,-93.3,16.1,14.4,0,3,,10.0,30.070866,1018.0,,TRUE,TRUE,TRUE,,,,,,CLR,,,,,,,,VFR,,,,,,,,,,,,METAR,111.0
KADW 280656Z AUTO 22004KT 10SM BKN060 09/08 A2973 RMK AO2 RAB17E34DZB34E35 SLP075 P0000 T00890080 $,KADW,2018-10-28T06:56:00Z,38.82,-76.87,8.9,8.0,220,4,,10.0,29.731298,1007.5,,TRUE,TRUE,TRUE,,,,,,BKN,6000,,,,,,,VFR,,,,,,0.005,,,,,,METAR,86.0
KSDF 280656Z 20004KT 9SM CLR 07/05 A2996 RMK AO2 SLP147 T00720050,KSDF,2018-10-28T06:56:00Z,38.18,-85.73,7.2,5.0,200,4,,9.0,29.958662,1014.7,,,TRUE,,,,,,,CLR,,,,,,,,VFR,,,,,,,,,,,,SPECI,146.0
KSBP 280656Z AUTO 13006KT 10SM CLR 13/12 A3001 RMK AO2 SLP160 T01280117,KSBP,2018-10-28T06:56:00Z,35.23,-120.63,12.8,11.7,130,6,,10.0,30.008858,1016.0,,TRUE,TRUE,,,,,,,CLR,,,,,,,,VFR,,,,,,,,,,,,METAR,59.0
KRDM 280656Z AUTO 19009KT 10SM CLR 17/06 A2991 RMK AO2 SLP111 T01670061,KRDM,2018-10-28T06:56:00Z,44.25,-121.15,16.7,6.1,190,9,,10.0,29.911417,1011.1,,TRUE,TRUE,,,,,,,CLR,,,,,,,,VFR,,,,,,,,,,,,METAR,938.0
KFFO 280656Z 26003KT 10SM FEW035 03/02 A2989 RMK AO2A SLP130 T00300023,KFFO,2018-10-28T06:56:00Z,39.82,-84.03,3.0,2.3,260,3,,10.0,29.890747,1013.0,,,TRUE,,,,,,,FEW,3500,,,,,,,VFR,,,,,,,,,,,,METAR,251.0
KNDZ 280656Z AUTO 00000KT 10SM CLR 09/09 A3012 RMK AO2 SLP188 T00890089 $,KNDZ,2018-10-28T06:56:00Z,30.7,-87.02,8.9,8.9,0,0,,10.0,30.121063,1018.8,,TRUE,TRUE,TRUE,,,,,,CLR,,,,,,,,VFR,,,,,,,,,,,,SPECI,54.0
RKSG 280656Z 31018KT 6SM BR FEW029 SCT034 BKN050 BKN070 15/14 A2969 RMK AO2A SLP057 T01450137 $,RKSG,2018-10-28T06:56:00Z,36.97,127.02,14.5,13.7,310,18,,6.0,29.68996,1005.7,,,TRUE,TRUE,,,,,BR,FEW,2900,SCT,3400,BKN,5000,BKN,7000,VFR,,,,,,,,,,,,METAR,16.0
PAEI 280656Z 00000KT 1SM BR OVC003 M02/M03 A2965 RMK AO2A SLP051 T10191029 RVRNO $,PAEI,2018-10-28T06:56:00Z,64.67,-147.1,-1.9,-2.9,0,0,,1.0,29.648623,1005.1,,,TRUE,TRUE,,,,,BR,OVC,300,,,,,,,LIFR,,,,,,,,,,,,METAR,167.0
KQDG 280656Z AUTO 22004KT M M M 13/09 A2979 RMK AO2 SLP090 T01280092 PWINO TSNO $,KQDG,2018-10-28T06:56:00Z,,,12.8,9.2,220,4,,,29.790354,1009.0,,TRUE,TRUE,TRUE,,TRUE,,TRUE,,,,,,,,,,,,,,,,,,,,,,METAR,
ETIC 280656Z AUTO 00000KT 9999 -RA BKN010 03/03 A2979 RMK AO2 SLP104 P0003 T00260025 $,ETIC,2018-10-28T06:56:00Z,49.7,11.93,2.6,2.5,0,0,,6.21,29.790354,1010.4,,TRUE,TRUE,TRUE,,,,,-RA,BKN,1000,,,,,,,MVFR,,,,,,0.03,,,,,,METAR,415.0
MUGM 280656Z 35005KT 9999 FEW025 25/23 A2996 RMK SLP146 T02520234,MUGM,2018-10-28T06:56:00Z,19.9,-75.2,25.2,23.4,350,5,,6.21,29.958662,1014.6,,,,,,,,,,FEW,2500,,,,,,,VFR,,,,,,,,,,,,SPECI,17.0
KNJK 280656Z 10SM CLR 19/M01 A2995 RMK AO2 SLP156 T01941011 $,KNJK,2018-10-28T06:56:00Z,32.82,-115.67,19.4,-1.1,,,,10.0,29.949802,1015.6,,,TRUE,TRUE,,,,,,CLR,,,,,,,,VFR,,,,,,,,,,,,METAR,-13.0
KNXF 280656Z AUTO 00000KT 1/4SM -RA VV002 A3001 RMK AO2 RAB06 SLPNO PNO $,KNXF,2018-10-28T06:56:00Z,33.28,-117.45,,,0,0,,0.25,30.008858,,,TRUE,TRUE,TRUE,,,,,-RA,OVX,0,,,,,,,LIFR,,,,,,,,,,,200,SPECI,27.0
KHEF 280656Z AUTO 00000KT 10SM OVC060 08/08 A2976 RMK AO2 SLP090 T00830083 PNO $,KHEF,2018-10-28T06:56:00Z,38.72,-77.52,8.3,8.3,0,0,,10.0,29.760826,1009.0,,TRUE,TRUE,TRUE,,,,,,OVC,6000,,,,,,,VFR,,,,,,,,,,,,METAR,59.0
KHNB 280656Z AUTO 17003KT 7SM CLR 05/04 A2997 RMK AO2 SLP150 T00500039,KHNB,2018-10-28T06:56:00Z,38.25,-86.95,5.0,3.9,170,3,,7.0,29.970472,1015.0,,TRUE,TRUE,,,,,,,CLR,,,,,,,,VFR,,,,,,,,,,,,METAR,161.0
KHND 280656Z AUTO 19006KT 10SM CLR 16/01 A3010 RMK AO2 SLP178 T01560006 $,KHND,2018-10-28T06:56:00Z,35.98,-115.13,15.6,0.6,190,6,,10.0,30.100393,1017.8,,TRUE,TRUE,TRUE,,,,,,CLR,,,,,,,,VFR,,,,,,,,,,,,METAR,749.0
KHYS 280656Z AUTO 36008KT 10SM CLR 11/07 A3006 RMK AO2 SLP170 T01110067,KHYS,2018-10-28T06:56:00Z,38.85,-99.27,11.1,6.7,360,8,,10.0,30.059055,1017.0,,TRUE,TRUE,,,,,,,CLR,,,,,,,,VFR,,,,,,,,,,,,METAR,609.0
KILE 280656Z AUTO 23007KT 10SM CLR A3009 RMK AO2 SLPNO FZRANO $,KILE,2018-10-28T06:56:00Z,31.07,-97.67,,,230,7,,10.0,30.088583,,,TRUE,TRUE,TRUE,,,TRUE,,,CLR,,,,,,,,VFR,,,,,,,,,,,,METAR,258.0
KISM 280656Z AUTO 00000KT 10SM CLR 14/13 A3008 RMK AO2 SLP189 T01440128,KISM,2018-10-28T06:56:00Z,28.28,-81.43,14.4,12.8,0,0,,10.0,30.079725,1018.9,,TRUE,TRUE,,,,,,,CLR,,,,,,,,VFR,,,,,,,,,,,,METAR,25.0
KIWD 280656Z AUTO 12008KT 10SM OVC019 07/03 A2969 RMK AO2 SLP062 T00670028 PNO $,KIWD,2018-10-28T06:56:00Z,46.52,-90.12,6.7,2.8,120,8,,10.0,29.68996,1006.2,,TRUE,TRUE,TRUE,,,,,,OVC,1900,,,,,,,MVFR,,,,,,,,,,,,METAR,375.0
KJAC 280656Z AUTO 10003KT 10SM SCT085 04/01 A3020 RMK AO2 SLP214 T00390011 401560039,KJAC,2018-10-28T06:56:00Z,43.62,-110.73,3.9,1.1,100,3,,10.0,30.200787,1021.4,,TRUE,TRUE,,,,,,,SCT,8500,,,,,,,VFR,,,,15.6,3.9,,,,,,,METAR,1961.0
KJMS 280656Z AUTO 29010KT 10SM CLR 04/01 A2987 RMK AO2 SLP125 T00390011 $,KJMS,2018-10-28T06:56:00Z,46.93,-98.67,3.9,1.1,290,10,,10.0,29.870079,1012.5,,TRUE,TRUE,TRUE,,,,,,CLR,,,,,,,,VFR,,,,,,,,,,,,METAR,455.0
KLBL 280656Z AUTO 01017KT 10SM CLR 13/06 A3005 RMK AO2 SLP154 T01280061,KLBL,2018-10-28T06:56:00Z,37.03,-100.97,12.8,6.1,10,17,,10.0,30.050198,1015.4,,TRUE,TRUE,,,,,,,CLR,,,,,,,,VFR,,,,,,,,,,,,METAR,879.0
KLCI 280656Z AUTO 06017G24KT 10SM OVC010 03/01 A2969 RMK AO2 PK WND 06027/0604 SLP071 T00280011 $,KLCI,2018-10-28T06:56:00Z,43.57,-71.42,2.8,1.1,60,17,24,10.0,29.68996,1007.1,,TRUE,TRUE,TRUE,,,,,,OVC,1000,,,,,,,MVFR,,,,,,,,,,,,METAR,166.0
KLEW 280656Z AUTO 01014G19KT 5SM UP BR OVC007 02/01 A2974 RMK AO2 SLP087 P0000 T00170011 FZRANO,KLEW,2018-10-28T06:56:00Z,44.03,-70.27,1.7,1.1,10,14,19,5.0,29.740158,1008.7,,TRUE,TRUE,,,,TRUE,,BR UP,OVC,700,,,,,,,IFR,,,,,,0.005,,,,,,METAR,88.0
KLRD 280656Z AUTO 15010KT 10SM CLR 18/15 A3011 RMK AO2 SLP205 T01830150,KLRD,2018-10-28T06:56:00Z,27.55,-99.47,18.3,15.0,150,10,,10.0,30.109253,1020.5,,TRUE,TRUE,,,,,,,CLR,,,,,,,,VFR,,,,,,,,,,,,SPECI,155.0
KM19 280656Z AUTO 18006KT 10SM CLR 10/09 A3000 RMK AO2 SLP164 T01000094,KM19,2018-10-28T06:56:00Z,35.65,-91.17,10.0,9.4,180,6,,10.0,30.0,1016.4,,TRUE,TRUE,,,,,,,CLR,,,,,,,,VFR,,,,,,,,,,,,METAR,73.0
KMBL 280656Z AUTO 11004KT 10SM OVC031 05/03 A2983 RMK AO2 SLP126 T00500028,KMBL,2018-10-28T06:56:00Z,44.27,-86.25,5.0,2.8,110,4,,10.0,29.828741,1012.6,,TRUE,TRUE,,,,,,,OVC,3100,,,,,,,VFR,,,,,,,,,,,,METAR,189.0
KENV 280656Z AUTO 00000KT 10SM CLR 11/02 A3013 RMK AO2 SLP192 T01060017 402000067,KENV,2018-10-28T06:56:00Z,40.72,-114.02,10.6,1.7,0,0,,10.0,30.129921,1019.2,,TRUE,TRUE,,,,,,,CLR,,,,,,,,VFR,,,,20.0,6.7,,,,,,,SPECI,1292.0
KESC 280656Z AUTO 11006KT 10SM OVC015 06/03 A2983 RMK AO2 SLP127 T00560033,KESC,2018-10-28T06:56:00Z,45.75,-87.08,5.6,3.3,110,6,,10.0,29.828741,1012.7,,TRUE,TRUE,,,,,,,OVC,1500,,,,,,,MVFR,,,,,,,,,,,,METAR,187.0
KEUL 280656Z AUTO 11009KT 10SM CLR 12/08 A2997 RMK AO2 SLP144 T01170078 402000056,KEUL,2018-10-28T06:56:00Z,43.62,-116.62,11.7,7.8,110,9,,10.0,29.970472,1014.4,,TRUE,TRUE,,,,,,,CLR,,,,,,,,VFR,,,,20.0,5.6,,,,,,,SPECI,740.0
KEWK 280656Z AUTO 25007KT 10SM CLR 14/09 A2993 RMK AO2 SLP125 T01390094,KEWK,2018-10-28T06:56:00Z,38.03,-97.27,13.9,9.4,250,7,,10.0,29.929134,1012.5,,TRUE,TRUE,,,,,,,CLR,,,,,,,,VFR,,,,,,,,,,,,METAR,467.0
KFCI 280656Z AUTO VRB06KT 10SM FEW110 09/08 A2978 RMK AO2 SLP103 T00940078,KFCI,2018-10-28T06:56:00Z,37.4,-77.52,9.4,7.8,0,6,,10.0,29.778543,1010.3,,TRUE,TRUE,,,,,,,FEW,11000,,,,,,,VFR,,,,,,,,,,,,METAR,72.0
KFAM 280656Z AUTO 00000KT 10SM CLR 07/06 A2994 RMK AO2 SLP138 T00670061,KFAM,2018-10-28T06:56:00Z,37.77,-90.42,6.7,6.1,0,0,,10.0,29.940945,1013.8,,TRUE,TRUE,,,,,,,CLR,,,,,,,,VFR,,,,,,,,,,,,METAR,288.0
KFLP 280656Z AUTO 00000KT 10SM CLR 07/07 A2998 RMK AO2 SLP150 T00720067,KFLP,2018-10-28T06:56:00Z,36.28,-92.58,7.2,6.7,0,0,,10.0,29.97933,1015.0,,TRUE,TRUE,,,,,,,CLR,,,,,,,,VFR,,,,,,,,,,,,METAR,219.0
KFOD 280656Z AUTO 30011G18KT 10SM CLR 11/08 A2982 RMK AO2 SLP125 T01060078,KFOD,2018-10-28T06:56:00Z,42.53,-94.17,10.6,7.8,300,11,18,10.0,29.819881,1012.5,,TRUE,TRUE,,,,,,,CLR,,,,,,,,VFR,,,,,,,,,,,,SPECI,355.0
KFNL 280656Z AUTO 21005KT 10SM CLR 05/02 A3025 RMK AO2 SLP208 T00500022 402560022 PNO $,KFNL,2018-10-28T06:56:00Z,40.45,-105.02,5.0,2.2,210,5,,10.0,30.250984,1020.8,,TRUE,TRUE,TRUE,,,,,,CLR,,,,,,,,VFR,,,,25.6,2.2,,,,,,,SPECI,1529.0
KFRM 280656Z AUTO 30021G26KT 10SM CLR 08/04 A2978 RMK AO2 PK WND 31033/0602 SLP092 T00830039 PNO $,KFRM,2018-10-28T06:56:00Z,43.63,-94.42,8.3,3.9,300,21,26,10.0,29.778543,1009.2,,TRUE,TRUE,TRUE,,,,,,CLR,,,,,,,,VFR,,,,,,,,,,,,SPECI,354.0
KGAI 280656Z AUTO 25003KT 10SM -RA CLR 08/07 A2974 RMK AO2 SLP103 P0000 T00780072,KGAI,2018-10-28T06:56:00Z,39.17,-77.17,7.8,7.2,250,3,,10.0,29.740158,1010.3,,TRUE,TRUE,,,,,,-RA,CLR,,,,,,,,VFR,,,,,,0.005,,,,,,SPECI,165.0
KGDV 280656Z AUTO 29010KT 10SM CLR M02/M04 A3004 RMK AO2 SLP187 T10171044 401391017 FZRANO,KGDV,2018-10-28T06:56:00Z,47.12,-104.78,-1.7,-4.4,290,10,,10.0,30.041338,1018.7,,TRUE,TRUE,,,,TRUE,,,CLR,,,,,,,,VFR,,,,13.9,-1.7,,,,,,,SPECI,749.0
KGPZ 280656Z AUTO 03004KT 8SM -RA OVC005 06/05 A2966 RMK AO2 CIG 004V010 SLP055 P0004 T00560050,KGPZ,2018-10-28T06:56:00Z,47.22,-93.52,5.6,5.0,30,4,,8.0,29.660433,1005.5,,TRUE,TRUE,,,,,,-RA,OVC,500,,,,,,,IFR,,,,,,0.04,,,,,,SPECI,413.0
KGTU 280656Z AUTO 23006KT 10SM CLR 17/14 A3011 RMK AO2 SLP192 T01720139,KGTU,2018-10-28T06:56:00Z,30.68,-97.68,17.2,13.9,230,6,,10.0,30.109253,1019.2,,TRUE,TRUE,,,,,,,CLR,,,,,,,,VFR,,,,,,,,,,,,SPECI,240.0
KGUC 280656Z AUTO 05003KT 10SM CLR 01/M04 A3039 RMK AO2 SLP273 T00061039 FZRANO,KGUC,2018-10-28T06:56:00Z,38.52,-106.92,0.6,-3.9,50,3,,10.0,30.389763,1027.3,,TRUE,TRUE,,,,TRUE,,,CLR,,,,,,,,VFR,,,,,,,,,,,,SPECI,2339.0
KGXY 280656Z AUTO 00000KT 10SM CLR 04/M01 A3025 RMK AO2 SLP227 T00391006 402610000,KGXY,2018-10-28T06:56:00Z,40.42,-104.62,3.9,-0.6,0,0,,10.0,30.250984,1022.7,,TRUE,TRUE,,,,,,,CLR,,,,,,,,VFR,,,,26.1,,,,,,,,SPECI,1420.0
KHDN 280656Z AUTO 11005KT 10SM CLR 05/M01 A3029 RMK AO2 SLP223 T00501011,KHDN,2018-10-28T06:56:00Z,40.47,-107.22,5.0,-1.1,110,5,,10.0,30.28937,1022.3,,TRUE,TRUE,,,,,,,CLR,,,,,,,,VFR,,,,,,,,,,,,SPECI,2012.0
KCIU 280656Z AUTO 07004KT 10SM -RA SCT033 OVC055 01/01 A2987 RMK AO2 SNB43E53 SLP141 P0000 T00110006 FZRANO,KCIU,2018-10-28T06:56:00Z,46.25,-84.47,1.1,0.6,70,4,,10.0,29.870079,1014.1,,TRUE,TRUE,,,,TRUE,,-RA,SCT,3300,OVC,5500,,,,,VFR,,,,,,0.005,,,,,,METAR,244.0
KCGZ 280656Z AUTO 05005KT 10SM CLR 16/09 A3004 RMK AO2 SLP161 T01560089 403060128 $,KCGZ,2018-10-28T06:56:00Z,32.95,-111.77,15.6,8.9,50,5,,10.0,30.041338,1016.1,,TRUE,TRUE,TRUE,,,,,,CLR,,,,,,,,VFR,,,,30.6,12.8,,,,,,,SPECI,446.0
KCOD 280656Z AUTO 27003KT 10SM FEW070 SCT090 BKN110 06/01 A3016 RMK AO2 RAB14E27 SLP216 P0000 T00560011 401670050,KCOD,2018-10-28T06:56:00Z,44.52,-109.02,5.6,1.1,270,3,,10.0,30.159449,1021.6,,TRUE,TRUE,,,,,,,FEW,7000,SCT,9000,BKN,11000,,,VFR,,,,16.7,5.0,0.005,,,,,,SPECI,1553.0
KCVN 280656Z AUTO 26011KT 10SM CLR 12/06 A3012 RMK AO2 SLP172 T01220061 402440033,KCVN,2018-10-28T06:56:00Z,34.42,-103.07,12.2,6.1,260,11,,10.0,30.121063,1017.2,,TRUE,TRUE,,,,,,,CLR,,,,,,,,VFR,,,,24.4,3.3,,,,,,,SPECI,1284.0
KDIJ 280656Z AUTO 15007KT 10SM FEW085 07/02 A3021 RMK AO2 SLP207 T00670017 401330061,KDIJ,2018-10-28T06:56:00Z,43.75,-111.1,6.7,1.7,150,7,,10.0,30.209646,1020.7,,TRUE,TRUE,,,,,,,FEW,8500,,,,,,,VFR,,,,13.3,6.1,,,,,,,SPECI,1899.0
KDVL 280656Z AUTO 29014KT 10SM CLR 03/01 A2985 RMK AO2 SLP133 T00330006,KDVL,2018-10-28T06:56:00Z,48.12,-98.92,3.3,0.6,290,14,,10.0,29.84941,1013.3,,TRUE,TRUE,,,,,,,CLR,,,,,,,,VFR,,,,,,,,,,,,SPECI,443.0
KDYR 280656Z AUTO 00000KT 9SM CLR 09/08 A3001 RMK AO2 SLP178 T00890083 PNO $,KDYR,2018-10-28T06:56:00Z,36.0,-89.4,8.9,8.3,0,0,,9.0,30.008858,1017.8,,TRUE,TRUE,TRUE,,,,,,CLR,,,,,,,,VFR,,,,,,,,,,,,METAR,103.0
KEEN 280656Z AUTO 02008KT 10SM -RA OVC011 04/02 A2966 RMK AO2 RAB51 SLP065 P0000 T00390017 $,KEEN,2018-10-28T06:56:00Z,42.88,-72.27,3.9,1.7,20,8,,10.0,29.660433,1006.5,,TRUE,TRUE,TRUE,,,,,-RA,OVC,1100,,,,,,,MVFR,,,,,,0.005,,,,,,METAR,149.0
KEGE 280656Z AUTO 10006KT 10SM CLR 03/M02 A3033 RMK AO2 SLP263 T00281017,KEGE,2018-10-28T06:56:00Z,39.63,-106.92,2.8,-1.7,100,6,,10.0,30.33071,1026.3,,TRUE,TRUE,,,,,,,CLR,,,,,,,,VFR,,,,,,,,,,,,SPECI,1993.0
KEHR 280656Z AUTO 00000KT 10SM CLR 06/04 A2997 RMK AO2 SLP163 T00560039,KEHR,2018-10-28T06:56:00Z,37.82,-87.67,5.6,3.9,0,0,,10.0,29.970472,1016.3,,TRUE,TRUE,,,,,,,CLR,,,,,,,,VFR,,,,,,,,,,,,METAR,117.0
KMKT 280656Z AUTO 29023G28KT 10SM OVC019 08/04 A2971 RMK AO2 PK WND 30031/0626 SLP067 T00780044,KMKT,2018-10-28T06:56:00Z,44.22,-93.92,7.8,4.4,290,23,28,10.0,29.71063,1006.7,,TRUE,TRUE,,,,,,,OVC,1900,,,,,,,MVFR,,,,,,,,,,,,METAR,311.0
KMML 280656Z AUTO 29016KT 10SM CLR 07/03 A2982 RMK AO2 SLP105 T00670033,KMML,2018-10-28T06:56:00Z,44.45,-95.82,6.7,3.3,290,16,,10.0,29.819881,1010.5,,TRUE,TRUE,,,,,,,CLR,,,,,,,,VFR,,,,,,,,,,,,METAR,359.0
KMRF 280656Z AUTO 10SM 06/04 RMK AO2 SLPNO T00560044 402330050 $,KMRF,2018-10-28T06:56:00Z,30.37,-104.02,5.6,4.4,,,,10.0,,,,TRUE,TRUE,TRUE,,,,,,,,,,,,,,,,,,23.3,5.0,,,,,,,METAR,1481.0
KMTW 280656Z AUTO 09003KT 4SM BR BKN035 OVC055 05/04 A2980 RMK AO2 SLP115 T00500044,KMTW,2018-10-28T06:56:00Z,44.12,-87.67,5.0,4.4,90,3,,4.0,29.799213,1011.5,,TRUE,TRUE,,,,,,BR,BKN,3500,OVC,5500,,,,,MVFR,,,,,,,,,,,,METAR,198.0
KMVN 280656Z AUTO 00000KT 8SM SCT120 05/05 A2994 RMK AO2 SLP137 T00500050,KMVN,2018-10-28T06:56:00Z,38.32,-88.87,5.0,5.0,0,0,,8.0,29.940945,1013.7,,TRUE,TRUE,,,,,,,SCT,12000,,,,,,,VFR,,,,,,,,,,,,METAR,146.0
KMYR 280656Z AUTO 26007KT 10SM FEW041 12/09 A2996 RMK AO2 SLP147 T01170094,KMYR,2018-10-28T06:56:00Z,33.67,-78.92,11.7,9.4,260,7,,10.0,29.958662,1014.7,,TRUE,TRUE,,,,,,,FEW,4100,,,,,,,VFR,,,,,,,,,,,,METAR,8.0
KOAJ 280656Z AUTO 25003KT 10SM CLR 12/12 A2990 RMK AO2 SLP128 T01220117,KOAJ,2018-10-28T06:56:00Z,34.82,-77.62,12.2,11.7,250,3,,10.0,29.899607,1012.8,,TRUE,TRUE,,,,,,,CLR,,,,,,,,VFR,,,,,,,,,,,,METAR,29.0
KOCH 280656Z AUTO 00000KT 10SM 14/14 A3008 RMK AO2 SLP187 T01440139 $,KOCH,2018-10-28T06:56:00Z,31.57,-94.72,14.4,13.9,0,0,,10.0,30.079725,1018.7,,TRUE,TRUE,TRUE,,,,,,,,,,,,,,,,,,,,,,,,,,METAR,108.0
KCWI 280656Z AUTO 17006KT 8SM -RA BKN070 OVC080 08/07 A2977 RMK AO2 SLP110 P0001 T00830072,KCWI,2018-10-28T06:56:00Z,41.82,-90.32,8.3,7.2,170,6,,8.0,29.769686,1011.0,,TRUE,TRUE,,,,,,-RA,BKN,7000,OVC,8000,,,,,VFR,,,,,,0.01,,,,,,METAR,216.0
KOKK 280656Z AUTO 21004KT 10SM OVC050 07/05 A2990 RMK AO2 SLP127 T00720050,KOKK,2018-10-28T06:56:00Z,40.53,-86.07,7.2,5.0,210,4,,10.0,29.899607,1012.7,,TRUE,TRUE,,,,,,,OVC,5000,,,,,,,VFR,,,,,,,,,,,,METAR,253.0
KOLU 280656Z AUTO 33021G26KT 10SM CLR 11/04 A3000 RMK AO2 PK WND 33026/0654 SLP159 T01060039,KOLU,2018-10-28T06:56:00Z,41.45,-97.32,10.6,3.9,330,21,26,10.0,30.0,1015.9,,TRUE,TRUE,,,,,,,CLR,,,,,,,,VFR,,,,,,,,,,,,METAR,440.0
KOWB 280656Z AUTO 14004KT 10SM CLR 06/04 A2998 RMK AO2 SLP169 T00560044,KOWB,2018-10-28T06:56:00Z,37.72,-87.17,5.6,4.4,140,4,,10.0,29.97933,1016.9,,TRUE,TRUE,,,,,,,CLR,,,,,,,,VFR,,,,,,,,,,,,METAR,124.0
KOTG 280656Z AUTO 30017G24KT 10SM CLR 06/04 A2985 RMK AO2 SLP115 T00610039,KOTG,2018-10-28T06:56:00Z,43.63,-95.57,6.1,3.9,300,17,24,10.0,29.84941,1011.5,,TRUE,TRUE,,,,,,,CLR,,,,,,,,VFR,,,,,,,,,,,,METAR,480.0
KSKX 280656Z AUTO 09005KT 10SM CLR 02/M01 A3037 RMK AO2 SLPNO T00221011 401890022 FZRANO $,KSKX,2018-10-28T06:56:00Z,36.45,-105.67,2.2,-1.1,90,5,,10.0,30.369095,,,TRUE,TRUE,TRUE,,,TRUE,,,CLR,,,,,,,,VFR,,,,18.9,2.2,,,,,,,SPECI,2161.0
KSLG 280656Z AUTO 19007KT 10SM CLR 12/08 A2998 RMK AO2 SLP147 T01220078,KSLG,2018-10-28T06:56:00Z,36.2,-94.47,12.2,7.8,190,7,,10.0,29.97933,1014.7,,TRUE,TRUE,,,,,,,CLR,,,,,,,,VFR,,,,,,,,,,,,METAR,300.0
KSMN 280656Z AUTO 00000KT 10SM CLR 04/03 A3011 RMK AO2 SLP203 T00390028 401500028,KSMN,2018-10-28T06:56:00Z,45.12,-113.87,3.9,2.8,0,0,,10.0,30.109253,1020.3,,TRUE,TRUE,,,,,,,CLR,,,,,,,,VFR,,,,15.0,2.8,,,,,,,SPECI,1233.0
KSOP 280656Z AUTO 24003KT 10SM CLR 08/08 A2992 RMK AO2 SLP152 T00780078,KSOP,2018-10-28T06:56:00Z,35.22,-79.4,7.8,7.8,240,3,,10.0,29.920275,1015.2,,TRUE,TRUE,,,,,,,CLR,,,,,,,,VFR,,,,,,,,,,,,METAR,141.0
KSQI 280656Z AUTO 16003KT 10SM -RA FEW035 BKN055 08/06 A2981 RMK AO2 RAB11 SLP120 T00780061 PNO $,KSQI,2018-10-28T06:56:00Z,41.75,-89.67,7.8,6.1,160,3,,10.0,29.811024,1012.0,,TRUE,TRUE,TRUE,,,,,-RA,FEW,3500,BKN,5500,,,,,VFR,,,,,,,,,,,,METAR,197.0
KSUE 280656Z AUTO 10003KT 10SM OVC060 06/05 A2980 RMK AO2 SLP118 T00610050,KSUE,2018-10-28T06:56:00Z,44.85,-87.42,6.1,5.0,100,3,,10.0,29.799213,1011.8,,TRUE,TRUE,,,,,,,OVC,6000,,,,,,,VFR,,,,,,,,,,,,METAR,221.0
KUDG 280656Z AUTO 26004KT 10SM CLR 08/07 A2995 RMK AO2 SLP149 T00830072,KUDG,2018-10-28T06:56:00Z,34.45,-79.88,8.3,7.2,260,4,,10.0,29.949802,1014.9,,TRUE,TRUE,,,,,,,CLR,,,,,,,,VFR,,,,,,,,,,,,METAR,59.0
KTVF 280656Z AUTO 28005KT 10SM SCT031 03/03 A2979 RMK AO2 SLP099 T00330028,KTVF,2018-10-28T06:56:00Z,48.07,-96.17,3.3,2.8,280,5,,10.0,29.790354,1009.9,,TRUE,TRUE,,,,,,,SCT,3100,,,,,,,VFR,,,,,,,,,,,,METAR,340.0
K1M4 280656Z AUTO 00000KT 8SM CLR 08/07 A3008 RMK AO2 SLP211 T00780072,K1M4,2018-10-28T06:56:00Z,34.28,-87.6,7.8,7.2,0,0,,8.0,30.079725,1021.1,,TRUE,TRUE,,,,,,,CLR,,,,,,,,VFR,,,,,,,,,,,,METAR,284.0
PABV 280656Z AUTO 13005KT 10SM CLR M01/M02 A2958 RMK AO2 SLP025 T10061022 FZRANO,PABV,2018-10-28T06:56:00Z,61.42,-149.52,-0.6,-2.2,130,5,,10.0,29.58071,1002.5,,TRUE,TRUE,,,,TRUE,,,CLR,,,,,,,,VFR,,,,,,,,,,,,METAR,29.0
PAAK 280656Z AUTO 08013KT 10SM OVC037 05/M01 A3011 RMK AO2 SLP198 P0002 T00501011,PAAK,2018-10-28T06:56:00Z,52.22,-174.2,5.0,-1.1,80,13,,10.0,30.109253,1019.8,,TRUE,TRUE,,,,,,,OVC,3700,,,,,,,VFR,,,,,,0.02,,,,,,METAR,17.0
KYKN 280656Z AUTO 30016KT 10SM CLR 08/03 A2998 RMK AO2 SLP164 T00780033,KYKN,2018-10-28T06:56:00Z,42.92,-97.37,7.8,3.3,300,16,,10.0,29.97933,1016.4,,TRUE,TRUE,,,,,,,CLR,,,,,,,,VFR,,,,,,,,,,,,METAR,398.0
KY50 280656Z AUTO 12005KT 9SM OVC037 07/04 A2975 RMK AO2 SLP103 T00670044,KY50,2018-10-28T06:56:00Z,44.03,-89.3,6.7,4.4,120,5,,9.0,29.749016,1010.3,,TRUE,TRUE,,,,,,,OVC,3700,,,,,,,VFR,,,,,,,,,,,,SPECI,262.0
KWVL 280656Z AUTO 04012G22KT 8SM UP OVC007 02/01 A2977 RMK AO2 SLP113 P0000 T00170011 FZRANO $,KWVL,2018-10-28T06:56:00Z,44.52,-69.67,1.7,1.1,40,12,22,8.0,29.769686,1011.3,,TRUE,TRUE,TRUE,,,TRUE,,UP,OVC,700,,,,,,,IFR,,,,,,0.005,,,,,,METAR,101.0
KVIS 280656Z AUTO 11004KT 7SM CLR 15/11 A3003 RMK AO2 SLP174 T01500111,KVIS,2018-10-28T06:56:00Z,36.32,-119.4,15.0,11.1,110,4,,7.0,30.029528,1017.4,,TRUE,TRUE,,,,,,,CLR,,,,,,,,VFR,,,,,,,,,,,,SPECI,89.0
KVBT 280656Z AUTO 19004KT 10SM CLR 11/07 A3000 RMK AO2 SLP155 T01110072,KVBT,2018-10-28T06:56:00Z,36.35,-94.22,11.1,7.2,190,4,,10.0,30.0,1015.5,,TRUE,TRUE,,,,,,,CLR,,,,,,,,VFR,,,,,,,,,,,,METAR,395.0
K7N0 280656Z AUTO VRB03KT 10SM CLR 18/14 A3013 RMK AO2 SLP203 T01830139,K7N0,2018-10-28T06:56:00Z,29.95,-90.07,18.3,13.9,0,3,,10.0,30.129921,1020.3,,TRUE,TRUE,,,,,,,CLR,,,,,,,,VFR,,,,,,,,,,,,METAR,0.0
KAIZ 280656Z AUTO 18003KT 10SM CLR 08/07 A2989 RMK AO2 SLP120 T00830067,KAIZ,2018-10-28T06:56:00Z,38.1,-92.53,8.3,6.7,180,3,,10.0,29.890747,1012.0,,TRUE,TRUE,,,,,,,CLR,,,,,,,,VFR,,,,,,,,,,,,METAR,265.0
KARG 280656Z AUTO 20004KT 10SM CLR 08/07 A2999 RMK AO2 SLP155 T00830072,KARG,2018-10-28T06:56:00Z,36.12,-90.92,8.3,7.2,200,4,,10.0,29.991142,1015.5,,TRUE,TRUE,,,,,,,CLR,,,,,,,,VFR,,,,,,,,,,,,METAR,83.0
KAJO 280656Z AUTO 25003KT 10SM CLR 17/14 A3002 RMK AO2 SLP169 T01670144 $,KAJO,2018-10-28T06:56:00Z,33.9,-117.6,16.7,14.4,250,3,,10.0,30.02067,1016.9,,TRUE,TRUE,TRUE,,,,,,CLR,,,,,,,,VFR,,,,,,,,,,,,SPECI,163.0
KBMI 280656Z AUTO 19009KT 10SM BKN110 07/06 A2985 RMK AO2 SLP137 T00720056,KBMI,2018-10-28T06:56:00Z,40.47,-88.92,7.2,5.6,190,9,,10.0,29.84941,1013.7,,TRUE,TRUE,,,,,,,BKN,11000,,,,,,,VFR,,,,,,,,,,,,METAR,267.0
KBKX 280656Z AUTO 29017G21KT 10SM CLR 06/03 A2988 RMK AO2 SLP136 T00560028,KBKX,2018-10-28T06:56:00Z,44.28,-96.82,5.6,2.8,290,17,21,10.0,29.878937,1013.6,,TRUE,TRUE,,,,,,,CLR,,,,,,,,VFR,,,,,,,,,,,,METAR,502.0
KBID 280656Z AUTO 21018G22KT 10SM A2962 RMK AO2 RAB12E22 SLPNO P0000 FZRANO $,KBID,2018-10-28T06:56:00Z,41.17,-71.58,,,210,18,22,10.0,29.619095,,,TRUE,TRUE,TRUE,,,TRUE,,,,,,,,,,,,,,,,,0.005,,,,,,METAR,33.0
KBHB 280656Z AUTO 05013G23KT 9SM -RA OVC006 05/04 A2975 RMK AO2 PK WND 04027/0640 CIG 005V012 SLP079 P0001 T00500039,KBHB,2018-10-28T06:56:00Z,44.45,-68.37,5.0,3.9,50,13,23,9.0,29.749016,1007.9,,TRUE,TRUE,,,,,,-RA,OVC,600,,,,,,,IFR,,,,,,0.01,,,,,,SPECI,26.0
KASH 280656Z AUTO 01005KT 6SM -RA BR OVC009 04/04 A2968 RMK AO2 SLP063 P0000 T00390039,KASH,2018-10-28T06:56:00Z,42.78,-71.52,3.9,3.9,10,5,,6.0,29.681103,1006.3,,TRUE,TRUE,,,,,,-RA BR,OVC,900,,,,,,,IFR,,,,,,0.005,,,,,,METAR,61.0
KPRX 280656Z AUTO 20003KT 10SM CLR 14/13 A3002 RMK AO2 SLP177 T01440128,KPRX,2018-10-28T06:56:00Z,33.62,-95.45,14.4,12.8,200,3,,10.0,30.02067,1017.7,,TRUE,TRUE,,,,,,,CLR,,,,,,,,VFR,,,,,,,,,,,,SPECI,167.0
KPTN 280656Z AUTO 00000KT 10SM CLR 14/14 A3012 RMK AO2 SLP202 T01440139,KPTN,2018-10-28T06:56:00Z,29.72,-91.32,14.4,13.9,0,0,,10.0,30.121063,1020.2,,TRUE,TRUE,,,,,,,CLR,,,,,,,,VFR,,,,,,,,,,,,METAR,3.0
KPTV 280656Z AUTO 10006KT 6SM HZ CLR 16/09 A3003 RMK AO2 SLP178 T01610089 402940111,KPTV,2018-10-28T06:56:00Z,36.02,-119.07,16.1,8.9,100,6,,6.0,30.029528,1017.8,,TRUE,TRUE,,,,,,HZ,CLR,,,,,,,,VFR,,,,29.4,11.1,,,,,,,SPECI,135.0
KPVG 280656Z AUTO 24005KT 10SM CLR 10/09 A2981 RMK AO2 SLP095 T01000094,KPVG,2018-10-28T06:56:00Z,36.78,-76.45,10.0,9.4,240,5,,10.0,29.811024,1009.5,,TRUE,TRUE,,,,,,,CLR,,,,,,,,VFR,,,,,,,,,,,,METAR,7.0
KPVU 280656Z AUTO 10004KT 10SM CLR 07/03 A3019 RMK AO2 SLP200 T00720033 402170022,KPVU,2018-10-28T06:56:00Z,40.22,-111.72,7.2,3.3,100,4,,10.0,30.188976,1020.0,,TRUE,TRUE,,,,,,,CLR,,,,,,,,VFR,,,,21.7,2.2,,,,,,,SPECI,1369.0
KPQI 280656Z AUTO 06014KT 5SM RA BR OVC012 01/M01 A3005 RMK AO2 UPE16RAB16 SLP221 P0007 T00061011 FZRANO,KPQI,2018-10-28T06:56:00Z,46.67,-68.03,0.6,-1.1,60,14,,5.0,30.050198,1022.1,,TRUE,TRUE,,,,TRUE,,RA BR,OVC,1200,,,,,,,MVFR,,,,,,0.07,,,,,,METAR,146.0
KRKD 280656Z AUTO 04016G24KT 7SM -RA OVC006 06/04 A2970 RMK AO2 PK WND 04029/0610 RAB29 SLP060 P0000 T00560044,KRKD,2018-10-28T06:56:00Z,44.07,-69.08,5.6,4.4,40,16,24,7.0,29.698818,1006.0,,TRUE,TRUE,,,,,,-RA,OVC,600,,,,,,,IFR,,,,,,0.005,,,,,,METAR,17.0
KPWG 280656Z AUTO 22005KT 10SM CLR 17/14 A3006 RMK AO2 SLP188 T01720139,KPWG,2018-10-28T06:56:00Z,31.47,-97.32,17.2,13.9,220,5,,10.0,30.059055,1018.8,,TRUE,TRUE,,,,,,,CLR,,,,,,,,VFR,,,,,,,,,,,,SPECI,180.0
KRUT 280656Z AUTO 16012KT 10SM OVC019 04/02 A2963 RMK AO2 SLP056 T00440017 $,KRUT,2018-10-28T06:56:00Z,43.52,-72.95,4.4,1.7,160,12,,10.0,29.630905,1005.6,,TRUE,TRUE,TRUE,,,,,,OVC,1900,,,,,,,MVFR,,,,,,,,,,,,METAR,240.0
KSDY 280656Z AUTO 29008KT 10SM CLR 02/M01 A3002 RMK AO2 SLP183 T00171011 401500017 FZRANO,KSDY,2018-10-28T06:56:00Z,47.7,-104.2,1.7,-1.1,290,8,,10.0,30.02067,1018.3,,TRUE,TRUE,,,,TRUE,,,CLR,,,,,,,,VFR,,,,15.0,1.7,,,,,,,SPECI,605.0
KSFM 280656Z AUTO 01014G21KT 10SM OVC008 03/02 A2970 RMK AO2 SLP064 T00280017,KSFM,2018-10-28T06:56:00Z,43.38,-70.72,2.8,1.7,10,14,21,10.0,29.698818,1006.4,,TRUE,TRUE,,,,,,,OVC,800,,,,,,,IFR,,,,,,,,,,,,METAR,74.0
KSFZ 280656Z AUTO 02009KT 5SM -RA BR OVC004 06/05 A2964 RMK AO2 SLP986 P0000 T00560050,KSFZ,2018-10-28T06:56:00Z,41.92,-71.5,5.6,5.0,20,9,,5.0,29.639763,998.6,,TRUE,TRUE,,,,,,-RA BR,OVC,400,,,,,,,LIFR,,,,,,0.005,,,,,,METAR,134.0
KSGH 280656Z AUTO 27004KT 7SM CLR 04/04 A2989 RMK AO2 SLP130 T00390039 $,KSGH,2018-10-28T06:56:00Z,39.83,-83.83,3.9,3.9,270,4,,7.0,29.890747,1013.0,,TRUE,TRUE,TRUE,,,,,,CLR,,,,,,,,VFR,,,,,,,,,,,,SPECI,321.0
KSGJ 280656Z AUTO 30005KT 10SM CLR 13/10 A3010 RMK AO2 SLP190 T01280100,KSGJ,2018-10-28T06:56:00Z,29.97,-81.32,12.8,10.0,300,5,,10.0,30.100393,1019.0,,TRUE,TRUE,,,,,,,CLR,,,,,,,,VFR,,,,,,,,,,,,METAR,3.0
KSGU 280656Z AUTO 15004KT 10SM CLR 14/02 A3015 RMK AO2 SLP192 T01390022 402500094,KSGU,2018-10-28T06:56:00Z,37.07,-113.52,13.9,2.2,150,4,,10.0,30.15059,1019.2,,TRUE,TRUE,,,,,,,CLR,,,,,,,,VFR,,,,25.0,9.4,,,,,,,SPECI,896.0
KSGT 280656Z AUTO 20005KT 10SM CLR 12/12 A3002 RMK AO2 SLP165 T01220117,KSGT,2018-10-28T06:56:00Z,34.6,-91.57,12.2,11.7,200,5,,10.0,30.02067,1016.5,,TRUE,TRUE,,,,,,,CLR,,,,,,,,VFR,,,,,,,,,,,,METAR,68.0
PADK 280656Z AUTO 06010KT 10SM OVC036 05/01 A3008 RMK AO2 SLP187 T00500011,PADK,2018-10-28T06:56:00Z,51.88,-176.65,5.0,1.1,60,10,,10.0,30.079725,1018.7,,TRUE,TRUE,,,,,,,OVC,3600,,,,,,,VFR,,,,,,,,,,,,METAR,4.0
PAFM 280656Z AUTO 00000KT 10SM SCT043 BKN050 M07/M09 A2975 RMK AO2 SLP088 T10671089 FZRANO,PAFM,2018-10-28T06:56:00Z,67.1,-157.85,-6.7,-8.9,0,0,,10.0,29.749016,1008.8,,TRUE,TRUE,,,,TRUE,,,SCT,4300,BKN,5000,,,,,VFR,,,,,,,,,,,,METAR,88.0
PAGN 280656Z AUTO VRB03KT 10SM CLR 04/03 A2949 RMK AO2 SLP974 T00440033,PAGN,2018-10-28T06:56:00Z,57.5,-134.58,4.4,3.3,0,3,,10.0,29.489174,997.4,,TRUE,TRUE,,,,,,,CLR,,,,,,,,VFR,,,,,,,,,,,,METAR,2.0
PAII 280656Z AUTO 36015G22KT 2 1/2SM -SN BR OVC008 00/M01 A2969 RMK AO2 SLP056 P0000 T00001011 FZRANO,PAII,2018-10-28T06:56:00Z,58.18,-157.38,0.0,-1.1,360,15,22,2.5,29.68996,1005.6,,TRUE,TRUE,,,,TRUE,,-SN BR,OVC,800,,,,,,,IFR,,,,,,0.005,,,,,,METAR,30.0
PAKK 280656Z AUTO 30007KT 9SM -SN CLR M06/M07 A2985 RMK AO2 SNB19 SLP123 P0000 T10561067 FZRANO,PAKK,2018-10-28T06:56:00Z,64.93,-161.15,-5.6,-6.7,300,7,,9.0,29.84941,1012.3,,TRUE,TRUE,,,,TRUE,,-SN,CLR,,,,,,,,VFR,,,,,,0.005,,,,,,METAR,47.0
PANA 280656Z AUTO 35006KT 10SM CLR M04/M06 A2997 RMK AO2 SLP148 T10391056 FZRANO,PANA,2018-10-28T06:56:00Z,60.68,-161.98,-3.9,-5.6,350,6,,10.0,29.970472,1014.8,,TRUE,TRUE,,,,TRUE,,,CLR,,,,,,,,VFR,,,,,,,,,,,,METAR,5.0
PANI 280656Z AUTO 34006KT 10SM FEW035 M03/M07 A2991 RMK AO2 SLP098 T10281072 FZRANO,PANI,2018-10-28T06:56:00Z,61.58,-159.53,-2.8,-7.2,340,6,,10.0,29.911417,1009.8,,TRUE,TRUE,,,,TRUE,,,FEW,3500,,,,,,,VFR,,,,,,,,,,,,METAR,26.0
PANV 280656Z AUTO 29007KT 10SM CLR M05/M06 A2989 RMK AO2 SLP144 T10501061 FZRANO,PANV,2018-10-28T06:56:00Z,62.65,-160.18,-5.0,-6.1,290,7,,10.0,29.890747,1014.4,,TRUE,TRUE,,,,TRUE,,,CLR,,,,,,,,VFR,,,,,,,,,,,,METAR,99.0
PAPN 280656Z AUTO 36014G20KT 7SM -SN OVC008 00/M01 A2968 RMK AO2 RAE03SNB03 CIG 006V011 SLP054 P0000 T00001006 FZRANO,PAPN,2018-10-28T06:56:00Z,57.58,-157.57,0.0,-0.6,360,14,20,7.0,29.681103,1005.4,,TRUE,TRUE,,,,TRUE,,-SN,OVC,800,,,,,,,IFR,,,,,,0.005,,,,,,METAR,18.0
PAQH 280656Z AUTO 32013KT 10SM CLR M03/M04 A2995 RMK AO2 SLP143 T10281044 FZRANO,PAQH,2018-10-28T06:56:00Z,59.75,-161.85,-2.8,-4.4,320,13,,10.0,29.949802,1014.3,,TRUE,TRUE,,,,TRUE,,,CLR,,,,,,,,VFR,,,,,,,,,,,,METAR,13.0
PASL 280656Z AUTO 33007KT 300V010 10SM FEW031 SCT090 OVC110 M03/M07 A2987 RMK AO2 SLP113 T10281072 FZRANO,PASL,2018-10-28T06:56:00Z,61.72,-157.15,-2.8,-7.2,330,7,,10.0,29.870079,1011.3,,TRUE,TRUE,,,,TRUE,,,FEW,3100,SCT,9000,OVC,11000,,,VFR,,,,,,,,,,,,METAR,55.0
PFCL 280656Z AUTO 01027G30KT 10SM BKN046 OVC055 M01/M04 A2976 RMK AO2 PK WND 36032/0637 SLP072 T10061039 FZRANO TSNO,PFCL,2018-10-28T06:56:00Z,58.83,-158.53,-0.6,-3.9,10,27,30,10.0,29.760826,1007.2,,TRUE,TRUE,,,TRUE,TRUE,,,BKN,4600,OVC,5500,,,,,VFR,,,,,,,,,,,,METAR,24.0
PFEL 280656Z AUTO VRB04KT 10SM CLR M04/M08 A2992 RMK AO2 SLP134 T10391078 FZRANO,PFEL,2018-10-28T06:56:00Z,64.62,-162.27,-3.9,-7.8,0,4,,10.0,29.920275,1013.4,,TRUE,TRUE,,,,TRUE,,,CLR,,,,,,,,VFR,,,,,,,,,,,,METAR,49.0
PFKW 280656Z AUTO 34007KT 10SM CLR M04/M06 A2996 RMK AO2 SLP144 T10391056 FZRANO,PFKW,2018-10-28T06:56:00Z,60.8,-161.43,-3.9,-5.6,340,7,,10.0,29.958662,1014.4,,TRUE,TRUE,,,,TRUE,,,CLR,,,,,,,,VFR,,,,,,,,,,,,METAR,8.0
PFNO 280656Z AUTO 31009KT 10SM CLR M07/M09 A2984 RMK AO2 SLP104 T10671094 FZRANO,PFNO,2018-10-28T06:56:00Z,66.82,-161.02,-6.7,-9.4,310,9,,10.0,29.840551,1010.4,,TRUE,TRUE,,,,TRUE,,,CLR,,,,,,,,VFR,,,,,,,,,,,,METAR,17.0
PFWS 280656Z AUTO 01024G33KT 6SM -SN BR BKN012 OVC025 M01/M02 A2970 RMK AO2 PK WND 36034/0627 SLP064 P0000 T10061017 FZRANO,PFWS,2018-10-28T06:56:00Z,58.7,-157.0,-0.6,-1.7,10,24,33,6.0,29.698818,1006.4,,TRUE,TRUE,,,,TRUE,,-SN BR,BKN,1200,OVC,2500,,,,,MVFR,,,,,,0.005,,,,,,METAR,49.0
PPIT 280656Z AUTO 34013KT 10SM CLR M02/M03 A2998 RMK AO2 SLP151 T10221033 FZRANO TSNO,PPIT,2018-10-28T06:56:00Z,60.9,-162.43,-2.2,-3.3,340,13,,10.0,29.97933,1015.1,,TRUE,TRUE,,,TRUE,TRUE,,,CLR,,,,,,,,VFR,,,,,,,,,,,,METAR,4.0
PAMB 280656Z AUTO 36004KT 10SM OVC050 M01/M01 A2978 RMK AO2 SLP090 T10061011 FZRANO $,PAMB,2018-10-28T06:56:00Z,58.98,-159.05,-0.6,-1.1,360,4,,10.0,29.778543,1009.0,,TRUE,TRUE,TRUE,,,TRUE,,,OVC,5000,,,,,,,VFR,,,,,,,,,,,,METAR,16.0
PAMH 280656Z AUTO 00000KT 4SM -SN BR OVC016 M03/M04 A2970 RMK AO2 SLP812 P0001 T10281039 FZRANO,PAMH,2018-10-28T06:56:00Z,63.9,-152.32,-2.8,-3.9,0,0,,4.0,29.698818,981.2,,TRUE,TRUE,,,,TRUE,,-SN BR,OVC,1600,,,,,,,MVFR,,,,,,0.01,,,,,,METAR,214.0
PAMK 280656Z AUTO 34017G23KT 10SM SCT040 M01/M07 A2994 RMK AO2 SLP143 T10061072 FZRANO,PAMK,2018-10-28T06:56:00Z,63.48,-162.12,-0.6,-7.2,340,17,23,10.0,29.940945,1014.3,,TRUE,TRUE,,,,TRUE,,,SCT,4000,,,,,,,VFR,,,,,,,,,,,,METAR,28.0
PAMM 280656Z AUTO 09020G31KT 10SM BKN110 13/M02 A2933 RMK AO2 PK WND 08032/0607 SLP923 T01281017,PAMM,2018-10-28T06:56:00Z,55.13,-131.58,12.8,-1.7,90,20,31,10.0,29.329725,992.3,,TRUE,TRUE,,,,,,,BKN,11000,,,,,,,VFR,,,,,,,,,,,,METAR,1.0
PANW 280656Z AUTO 36020G27KT 9SM -SN OVC055 M02/M03 A2973 RMK AO2 PK WND 01028/0640 SLP084 P0000 T10221033 FZRANO,PANW,2018-10-28T06:56:00Z,59.45,-157.37,-2.2,-3.3,360,20,27,9.0,29.731298,1008.4,,TRUE,TRUE,,,,TRUE,,-SN,OVC,5500,,,,,,,VFR,,,,,,0.005,,,,,,METAR,92.0
PAOU 280656Z AUTO 35025G30KT 8SM OVC037 04/M02 A2983 RMK AO2 PK WND 35031/0637 SLP101 T00441022,PAOU,2018-10-28T06:56:00Z,56.0,-161.17,4.4,-2.2,350,25,30,8.0,29.828741,1010.1,,TRUE,TRUE,,,,,,,OVC,3700,,,,,,,VFR,,,,,,,,,,,,METAR,4.0
PAPG 280656Z AUTO VRB03KT 10SM CLR 02/01 A2944 RMK AO2 SLP973 T00220011 FZRANO,PAPG,2018-10-28T06:56:00Z,56.82,-132.97,2.2,1.1,0,3,,10.0,29.438976,997.3,,TRUE,TRUE,,,,TRUE,,,CLR,,,,,,,,VFR,,,,,,,,,,,,METAR,15.0
PAPM 280656Z AUTO 34024G28KT 10SM CLR M01/M04 A2992 RMK AO2 PK WND 35029/0649 SLP133 T10061039 FZRANO,PAPM,2018-10-28T06:56:00Z,59.02,-161.82,-0.6,-3.9,340,24,28,10.0,29.920275,1013.3,,TRUE,TRUE,,,,TRUE,,,CLR,,,,,,,,VFR,,,,,,,,,,,,METAR,5.0
PARS 280656Z AUTO 00000KT 10SM CLR M03/M07 A2995 RMK AO2 SLP147 T10331067 FZRANO $,PARS,2018-10-28T06:56:00Z,61.77,-161.32,-3.3,-6.7,0,0,,10.0,29.949802,1014.7,,TRUE,TRUE,TRUE,,,TRUE,,,CLR,,,,,,,,VFR,,,,,,,,,,,,METAR,16.0
PASA 280656Z AUTO 32006KT 10SM -SN OVC032 M02/M07 A3012 RMK AO2 SNB05 SLP202 P0000 T10171072 FZRANO $,PASA,2018-10-28T06:56:00Z,63.68,-170.5,-1.7,-7.2,320,6,,10.0,30.121063,1020.2,,TRUE,TRUE,TRUE,,,TRUE,,-SN,OVC,3200,,,,,,,VFR,,,,,,0.005,,,,,,METAR,16.0
PASD 280656Z AUTO 32022KT 10SM BKN035 04/M02 A2975 RMK AO2 PK WND 32032/0618 SLP075 T00441017,PASD,2018-10-28T06:56:00Z,55.33,-160.5,4.4,-1.7,320,22,,10.0,29.749016,1007.5,,TRUE,TRUE,,,,,,,BKN,3500,,,,,,,VFR,,,,,,,,,,,,METAR,7.0
PASH 280656Z AUTO 33020KT 10SM SCT047 M01/M05 A2997 RMK AO2 PK WND 32026/0634 UPB13E17SNB17E30 SLP149 P0000 T10061050 FZRANO,PASH,2018-10-28T06:56:00Z,66.27,-166.08,-0.6,-5.0,330,20,,10.0,29.970472,1014.9,,TRUE,TRUE,,,,TRUE,,,SCT,4700,,,,,,,VFR,,,,,,0.005,,,,,,METAR,2.0
PASK 280656Z AUTO 30008KT 10SM FEW085 M06/M09 A2982 RMK AO2 SLP095 T10611089 FZRANO $,PASK,2018-10-28T06:56:00Z,66.6,-160.0,-6.1,-8.9,300,8,,10.0,29.819881,1009.5,,TRUE,TRUE,TRUE,,,TRUE,,,FEW,8500,,,,,,,VFR,,,,,,,,,,,,METAR,8.0
PASX 280656Z AUTO 00000KT 10SM CLR M02/M02 A2957 RMK AO2 SLP022 T10171022 FZRANO,PASX,2018-10-28T06:56:00Z,60.48,-151.03,-1.7,-2.2,0,0,,10.0,29.568897,1002.2,,TRUE,TRUE,,,,TRUE,,,CLR,,,,,,,,VFR,,,,,,,,,,,,METAR,32.0
PATE 280656Z AUTO 30006KT 10SM FEW043 M05/M06 A3000 RMK AO2 SLP166 T10501061 FZRANO,PATE,2018-10-28T06:56:00Z,65.23,-166.33,-5.0,-6.1,300,6,,10.0,30.0,1016.6,,TRUE,TRUE,,,,TRUE,,,FEW,4300,,,,,,,VFR,,,,,,,,,,,,METAR,90.0
PATG 280656Z AUTO 34013KT 10SM CLR M01/M07 A2983 RMK AO2 SLP198 T10111067 FZRANO,PATG,2018-10-28T06:56:00Z,59.05,-160.38,-1.1,-6.7,340,13,,10.0,29.828741,1019.8,,TRUE,TRUE,,,,TRUE,,,CLR,,,,,,,,VFR,,,,,,,,,,,,METAR,4.0
PAUN 280656Z AUTO 36008KT 9SM FEW017 BKN040 OVC047 M02/M06 A2991 RMK AO2 SNE56 SLP133 P0001 T10221056 FZRANO,PAUN,2018-10-28T06:56:00Z,63.88,-160.8,-2.2,-5.6,360,8,,9.0,29.911417,1013.3,,TRUE,TRUE,,,,TRUE,,,FEW,1700,BKN,4000,OVC,4700,,,VFR,,,,,,0.01,,,,,,METAR,6.0
PABL 280656Z AUTO 30008KT 10SM CLR M07/M09 A2986 RMK AO2 SLP114 T10721089 FZRANO,PABL,2018-10-28T06:56:00Z,65.98,-161.15,-7.2,-8.9,300,8,,10.0,29.861221,1011.4,,TRUE,TRUE,,,,TRUE,,,CLR,,,,,,,,VFR,,,,,,,,,,,,METAR,7.0
PADL 280656Z AUTO 01022G27KT 10SM SCT050 OVC060 M01/M05 A2975 RMK AO2 PK WND 02029/0617 SLP081 T10061050 FZRANO,PADL,2018-10-28T06:56:00Z,59.05,-158.5,-0.6,-5.0,10,22,27,10.0,29.749016,1008.1,,TRUE,TRUE,,,,TRUE,,,SCT,5000,OVC,6000,,,,,VFR,,,,,,,,,,,,METAR,26.0
PAGA 280656Z AUTO 27007KT 10SM OVC042 M06/M09 A2981 RMK AO2 SLP098 T10611089 FZRANO,PAGA,2018-10-28T06:56:00Z,64.73,-156.93,-6.1,-8.9,270,7,,10.0,29.811024,1009.8,,TRUE,TRUE,,,,TRUE,,,OVC,4200,,,,,,,VFR,,,,,,,,,,,,SPECI,46.0
PAGH 280656Z AUTO 25007KT 10SM CLR M07/M08 A2972 RMK AO2 SNE31 SLP073 P0000 T10721083 FZRANO,PAGH,2018-10-28T06:56:00Z,66.88,-157.17,-7.2,-8.3,250,7,,10.0,29.719488,1007.3,,TRUE,TRUE,,,,TRUE,,,CLR,,,,,,,,VFR,,,,,,0.005,,,,,,METAR,60.0
PAGM 280656Z AUTO 16005KT 10SM CLR M04/M07 A3013 RMK AO2 SLP211 T10391067 FZRANO PNO $,PAGM,2018-10-28T06:56:00Z,63.77,-171.73,-3.9,-6.7,160,5,,10.0,30.129921,1021.1,,TRUE,TRUE,TRUE,,,TRUE,,,CLR,,,,,,,,VFR,,,,,,,,,,,,METAR,8.0
PAKF 280656Z AUTO 33014G23KT 10SM OVC047 04/M04 A2992 RMK AO2 PK WND 35029/0613 SLP132 T00441039,PAKF,2018-10-28T06:56:00Z,54.85,-163.42,4.4,-3.9,330,14,23,10.0,29.920275,1013.2,,TRUE,TRUE,,,,,,,OVC,4700,,,,,,,VFR,,,,,,,,,,,,METAR,6.0
PAKH 280656Z AUTO 35009KT 10SM CLR 07/02 A2948 RMK AO2 SLP984 T00720017 $,PAKH,2018-10-28T06:56:00Z,56.93,-154.18,7.2,1.7,350,9,,10.0,29.480314,998.4,,TRUE,TRUE,TRUE,,,,,,CLR,,,,,,,,VFR,,,,,,,,,,,,METAR,14.0
PAKI 280656Z AUTO 34010KT 10SM CLR M03/M04 A3002 RMK AO2 SLP168 T10281039 FZRANO PNO $,PAKI,2018-10-28T06:56:00Z,59.93,-164.03,-2.8,-3.9,340,10,,10.0,30.02067,1016.8,,TRUE,TRUE,TRUE,,,TRUE,,,CLR,,,,,,,,VFR,,,,,,,,,,,,METAR,4.0
PALG 280656Z AUTO 00000KT 10SM CLR M04/M07 A2993 RMK AO2 SLP140 T10391072 FZRANO $,PALG,2018-10-28T06:56:00Z,61.53,-160.33,-3.9,-7.2,0,0,,10.0,29.929134,1014.0,,TRUE,TRUE,TRUE,,,TRUE,,,CLR,,,,,,,,VFR,,,,,,,,,,,,METAR,17.0
PHNY 280656Z AUTO 01004KT 10SM CLR 22/21 A3006 RMK AO2 SLP158 T02220206,PHNY,2018-10-28T06:56:00Z,20.77,-156.93,22.2,20.6,10,4,,10.0,30.059055,1015.8,,TRUE,TRUE,,,,,,,CLR,,,,,,,,VFR,,,,,,,,,,,,METAR,399.0
PMDY 280656Z AUTO 27008KT 10SM SCT016 24/22 A2994 RMK AO2 SLP139 T02440222,PMDY,2018-10-28T06:56:00Z,28.22,-177.37,24.4,22.2,270,8,,10.0,29.940945,1013.9,,TRUE,TRUE,,,,,,,SCT,1600,,,,,,,VFR,,,,,,,,,,,,METAR,4.0
PAVA 280656Z AUTO 31003KT 10SM FEW075 M03/M03 A3005 RMK AO2 SNE16 SLP264 T10281033 FZRANO PNO $,PAVA,2018-10-28T06:56:00Z,61.53,-165.6,-2.8,-3.3,310,3,,10.0,30.050198,1026.4,,TRUE,TRUE,TRUE,,,TRUE,,,FEW,7500,,,,,,,VFR,,,,,,,,,,,,METAR,23.0
PAVC 280656Z AUTO 26008KT 180V330 10SM OVC041 03/M04 A2987 RMK AO2 PK WND 31026/0646 SLP120 T00331044,PAVC,2018-10-28T06:56:00Z,55.12,-162.27,3.3,-4.4,260,8,,10.0,29.870079,1012.0,,TRUE,TRUE,,,,,,,OVC,4100,,,,,,,VFR,,,,,,,,,,,,METAR,47.0
PAVD 280656Z AUTO 00000KT 10SM BKN045 OVC055 04/02 A2962 RMK AO2 SLP055 T00390022,PAVD,2018-10-28T06:56:00Z,61.13,-146.25,3.9,2.2,0,0,,10.0,29.619095,1005.5,,TRUE,TRUE,,,,,,,BKN,4500,OVC,5500,,,,,VFR,,,,,,,,,,,,METAR,37.0
PAWG 280656Z AUTO 11009KT 10SM CLR 07/04 A2941 RMK AO2 SLP959 T00670039 TSNO PNO $,PAWG,2018-10-28T06:56:00Z,56.48,-132.37,6.7,3.9,110,9,,10.0,29.409449,995.9,,TRUE,TRUE,TRUE,,TRUE,,,,CLR,,,,,,,,VFR,,,,,,,,,,,,METAR,11.0
PAWM 280656Z AUTO 33012KT 10SM CLR M05/M07 A2994 RMK AO2 SLP146 T10501067 FZRANO,PAWM,2018-10-28T06:56:00Z,64.68,-163.42,-5.0,-6.7,330,12,,10.0,29.940945,1014.6,,TRUE,TRUE,,,,TRUE,,,CLR,,,,,,,,VFR,,,,,,,,,,,,METAR,82.0
PAWN 280656Z AUTO 31007KT 10SM BKN100 BKN120 M08/M09 A2989 RMK AO2 SLP136 T10781094 FZRANO,PAWN,2018-10-28T06:56:00Z,67.57,-162.98,-7.8,-9.4,310,7,,10.0,29.890747,1013.6,,TRUE,TRUE,,,,TRUE,,,BKN,10000,BKN,12000,,,,,VFR,,,,,,,,,,,,METAR,30.0
PAWS 280656Z AUTO 00000KT 10SM CLR M01/M03 A2958 RMK AO2 SLP032 T10111028 FZRANO,PAWS,2018-10-28T06:56:00Z,61.57,-149.53,-1.1,-2.8,0,0,,10.0,29.58071,1003.2,,TRUE,TRUE,,,,TRUE,,,CLR,,,,,,,,VFR,,,,,,,,,,,,METAR,107.0
PPIZ 280656Z AUTO 01013KT 10SM FEW025 BKN031 OVC100 M05/M07 A2988 RMK AO2 SNE28 SLP123 P0000 T10501067 FZRANO,PPIZ,2018-10-28T06:56:00Z,69.73,-163.0,-5.0,-6.7,10,13,,10.0,29.878937,1012.3,,TRUE,TRUE,,,,TRUE,,,FEW,2500,BKN,3100,OVC,10000,,,VFR,,,,,,0.005,,,,,,SPECI,8.0
KAUO 280656Z AUTO VRB05KT 10SM CLR 11/09 A3009 RMK AO2 SLP215 T01110089,KAUO,2018-10-28T06:56:00Z,32.62,-85.42,11.1,8.9,0,5,,10.0,30.088583,1021.5,,TRUE,TRUE,,,,,,,CLR,,,,,,,,VFR,,,,,,,,,,,,METAR,236.0
KCOE 280656Z AUTO 02010KT 10SM -RA SCT050 BKN055 OVC070 07/05 A2993 RMK AO2 SLP157 T00670050 PNO $,KCOE,2018-10-28T06:56:00Z,47.77,-116.82,6.7,5.0,20,10,,10.0,29.929134,1015.7,,TRUE,TRUE,TRUE,,,,,-RA,SCT,5000,BKN,5500,OVC,7000,,,VFR,,,,,,,,,,,,SPECI,707.0
KCVO 280656Z AUTO 26008KT 9SM -RA BKN047 OVC060 15/13 A2987 RMK AO2 PK WND 23029/0626 WSHFT 0613 SLP114 P0013 T01500128,KCVO,2018-10-28T06:56:00Z,44.5,-123.27,15.0,12.8,260,8,,9.0,29.870079,1011.4,,TRUE,TRUE,,,,,,-RA,BKN,4700,OVC,6000,,,,,VFR,,,,,,0.13,,,,,,SPECI,75.0
KEKY 280656Z AUTO 22003KT 10SM CLR 09/09 A3009 RMK AO2 SLP211 T00940089,KEKY,2018-10-28T06:56:00Z,33.32,-86.93,9.4,8.9,220,3,,10.0,30.088583,1021.1,,TRUE,TRUE,,,,,,,CLR,,,,,,,,VFR,,,,,,,,,,,,METAR,213.0
KGAD 280656Z AUTO 00000KT 10SM CLR 06/06 A3008 RMK AO2 SLP192 T00560056,KGAD,2018-10-28T06:56:00Z,33.97,-86.07,5.6,5.6,0,0,,10.0,30.079725,1019.2,,TRUE,TRUE,,,,,,,CLR,,,,,,,,VFR,,,,,,,,,,,,METAR,173.0
KGTR 280656Z AUTO 16005KT 10SM CLR 11/10 A3007 RMK AO2 SLP184 T01060100,KGTR,2018-10-28T06:56:00Z,33.45,-88.57,10.6,10.0,160,5,,10.0,30.070866,1018.4,,TRUE,TRUE,,,,,,,CLR,,,,,,,,VFR,,,,,,,,,,,,METAR,80.0
KHEZ 280656Z AUTO 20005KT 10SM CLR 15/13 A3010 RMK AO2 SLP197 T01500133,KHEZ,2018-10-28T06:56:00Z,31.62,-91.3,15.0,13.3,200,5,,10.0,30.100393,1019.7,,TRUE,TRUE,,,,,,,CLR,,,,,,,,VFR,,,,,,,,,,,,METAR,83.0
KLGD 280656Z AUTO 17014G22KT 10SM FEW095 14/08 A2993 RMK AO2 SLP271 T01440078,KLGD,2018-10-28T06:56:00Z,45.27,-118.0,14.4,7.8,170,14,22,10.0,29.929134,1027.1,,TRUE,TRUE,,,,,,,FEW,9500,,,,,,,VFR,,,,,,,,,,,,SPECI,827.0
KLZU 280656Z AUTO 28004KT 10SM BKN045 09/07 A3003 RMK AO2 SLP178 T00890072,KLZU,2018-10-28T06:56:00Z,33.98,-83.97,8.9,7.2,280,4,,10.0,30.029528,1017.8,,TRUE,TRUE,,,,,,,BKN,4500,,,,,,,VFR,,,,,,,,,,,,METAR,323.0
KMKY 280656Z AUTO 03004KT 10SM CLR 20/17 A3007 RMK AO2 SLP182 T02000172,KMKY,2018-10-28T06:56:00Z,26.0,-81.67,20.0,17.2,30,4,,10.0,30.070866,1018.2,,TRUE,TRUE,,,,,,,CLR,,,,,,,,VFR,,,,,,,,,,,,METAR,2.0
KOTH 280656Z AUTO 17007KT 10SM -RA BKN026 OVC060 14/13 A2996 RMK AO2 SLPNO P0006 T01390128,KOTH,2018-10-28T06:56:00Z,43.42,-124.25,13.9,12.8,170,7,,10.0,29.958662,,,TRUE,TRUE,,,,,,-RA,BKN,2600,OVC,6000,,,,,MVFR,,,,,,0.06,,,,,,SPECI,4.0
KPIB 280656Z AUTO 00000KT 10SM CLR 11/10 A3012 RMK AO2 SLP197 T01060100,KPIB,2018-10-28T06:56:00Z,31.47,-89.32,10.6,10.0,0,0,,10.0,30.121063,1019.7,,TRUE,TRUE,,,,,,,CLR,,,,,,,,VFR,,,,,,,,,,,,METAR,91.0
KPWT 280656Z AUTO 20008KT 10SM -RA OVC002 11/10 A2975 RMK AO2 SLP094 P0001 T01060100,KPWT,2018-10-28T06:56:00Z,47.5,-122.75,10.6,10.0,200,8,,10.0,29.749016,1009.4,,TRUE,TRUE,,,,,,-RA,OVC,200,,,,,,,LIFR,,,,,,0.01,,,,,,SPECI,147.0
KUCP 280656Z AUTO 29005KT 10SM -RA BKN008 OVC013 07/06 A2976 RMK AO2 CIG 006V010 SLP095 P0000 T00670061,KUCP,2018-10-28T06:56:00Z,41.03,-80.42,6.7,6.1,290,5,,10.0,29.760826,1009.5,,TRUE,TRUE,,,,,,-RA,BKN,800,OVC,1300,,,,,IFR,,,,,,0.005,,,,,,SPECI,327.0
KGNA 280656Z AUTO 11005KT 07/05 A2973 RMK AO1 SLP072 P0001 T00720050,KGNA,2018-10-28T06:56:00Z,47.75,-90.35,7.2,5.0,110,5,,,29.731298,1007.2,,TRUE,TRUE,,,,,,,,,,,,,,,,,,,,,0.01,,,,,,SPECI,185.0
KNBT 280656Z AUTO 25008KT 10SM A2986 RMK AO2 SLP117 PNO,KNBT,2018-10-28T06:56:00Z,35.02,-76.47,,,250,8,,10.0,29.861221,1011.7,,TRUE,TRUE,,,,,,,,,,,,,,,,,,,,,,,,,,,METAR,5.0
KABH 280656Z AUTO 01010KT CLR A3025 RMK AO2 SLPNO $,KABH,2018-10-28T06:56:00Z,38.75,-104.3,,,10,10,,,30.250984,,,TRUE,TRUE,TRUE,,,,,,CLR,,,,,,,,,,,,,,,,,,,,SPECI,1840.0
KALK 280656Z AUTO 24005KT 10SM CLR 12/04 A3023 RMK AO2 SLP159 T01170039 402670089,KALK,2018-10-28T06:56:00Z,31.6,-110.43,11.7,3.9,240,5,,10.0,30.230314,1015.9,,TRUE,TRUE,,,,,,,CLR,,,,,,,,VFR,,,,26.7,8.9,,,,,,,SPECI,1453.0
KNRS 280656Z AUTO 07004KT 5SM BR CLR 13/12 A3000 RMK AO2 SLP158 T01280122 $,KNRS,2018-10-28T06:56:00Z,32.57,-117.12,12.8,12.2,70,4,,5.0,30.0,1015.8,,TRUE,TRUE,TRUE,,,,,BR,CLR,,,,,,,,MVFR,,,,,,,,,,,,METAR,7.0
PHBK 280656Z AUTO 13003KT 10SM CLR 25/21 A2998 RMK AO2 SLP153 T02500211,PHBK,2018-10-28T06:56:00Z,22.03,-159.78,25.0,21.1,130,3,,10.0,29.97933,1015.3,,TRUE,TRUE,,,,,,,CLR,,,,,,,,VFR,,,,,,,,,,,,METAR,8.0
KNID 280656Z AUTO 23007KT 10SM CLR 14/M04 A3004 RMK AO2 SLP161 T01441044 $,KNID,2018-10-28T06:56:00Z,35.67,-117.67,14.4,-4.4,230,7,,10.0,30.041338,1016.1,,TRUE,TRUE,TRUE,,,,,,CLR,,,,,,,,VFR,,,,,,,,,,,,METAR,696.0
K8D3 280656Z AUTO 31017KT 06/02 A2982 RMK AO1 PK WND 30029/0624 SLP102 T00610022,K8D3,2018-10-28T06:56:00Z,45.67,-96.98,6.1,2.2,310,17,,,29.819881,1010.2,,TRUE,TRUE,,,,,,,,,,,,,,,,,,,,,,,,,,,SPECI,354.0
KNTU 280656Z 23008KT 10SM FEW015 11/10 A2979 RMK AO2 SLP089 T01060100 $,KNTU,2018-10-28T06:56:00Z,36.82,-76.02,10.6,10.0,230,8,,10.0,29.790354,1008.9,,,TRUE,TRUE,,,,,,FEW,1500,,,,,,,VFR,,,,,,,,,,,,METAR,7.0
KD07 280656Z AUTO 26006KT 04/M02 A3003 RMK AO1 SLP181 T00391022 401440033,KD07,2018-10-28T06:56:00Z,45.03,-102.02,3.9,-2.2,260,6,,,30.029528,1018.1,,TRUE,TRUE,,,,,,,,,,,,,,,,,,,14.4,3.3,,,,,,,SPECI,784.0
KNYG 280656Z AUTO 25003KT 10SM OVC055 11/10 A2977 RMK AO2 SLP081 T01060100,KNYG,2018-10-28T06:56:00Z,38.5,-77.28,10.6,10.0,250,3,,10.0,29.769686,1008.1,,TRUE,TRUE,,,,,,,OVC,5500,,,,,,,VFR,,,,,,,,,,,,SPECI,4.0
KNBC 280656Z AUTO 26011KT 10SM CLR 13/11 A3003 RMK AO2 SLP169 T01280106,KNBC,2018-10-28T06:56:00Z,32.47,-80.72,12.8,10.6,260,11,,10.0,30.029528,1016.9,,TRUE,TRUE,,,,,,,CLR,,,,,,,,VFR,,,,,,,,,,,,SPECI,12.0
KNGP 280656Z AUTO 19003KT 9SM CLR 21/21 A3012 RMK AO2 SLP198 T02110206 $,KNGP,2018-10-28T06:56:00Z,27.68,-97.27,21.1,20.6,190,3,,9.0,30.121063,1019.8,,TRUE,TRUE,TRUE,,,,,,CLR,,,,,,,,VFR,,,,,,,,,,,,METAR,6.0
KSPD 280656Z AUTO 01012KT 10/05 A3015 RMK AO1 SLP164 T01000050 402560022,KSPD,2018-10-28T06:56:00Z,37.28,-102.62,10.0,5.0,10,12,,,30.15059,1016.4,,TRUE,TRUE,,,,,,,,,,,,,,,,,,,25.6,2.2,,,,,,,SPECI,1335.0
KP60 280656Z AUTO 00000KT 02/01 A3025 RMK AO1 SLP219 T00170011 400780000,KP60,2018-10-28T06:56:00Z,44.55,-110.42,1.7,1.1,0,0,,,30.250984,1021.9,,TRUE,TRUE,,,,,,,,,,,,,,,,,,,7.8,,,,,,,,SPECI,2388.0
KGNR 280656Z AUTO 08017G30KT 02/01 A2976 RMK AO1 PK WND 08030/0655 SLP094 P0001 T00220006 $,KGNR,2018-10-28T06:56:00Z,45.47,-69.55,2.2,0.6,80,17,30,,29.760826,1009.4,,TRUE,TRUE,TRUE,,,,,,,,,,,,,,,,,,,,0.01,,,,,,METAR,427.0
KMQE 280656Z AUTO 00000KT 06/06 A2963 RMK AO1 SLP045 P0001 T00560056,KMQE,2018-10-28T06:56:00Z,42.22,-71.12,5.6,5.6,0,0,,,29.630905,1004.5,,TRUE,TRUE,,,,,,,,,,,,,,,,,,,,,0.01,,,,,,SPECI,199.0
KNUW 280656Z 12012KT 10SM SCT020 BKN030 OVC040 14/11 A2971 RMK AO2 PK WND 13028/0622 SLP061 T01390106 $,KNUW,2018-10-28T06:56:00Z,48.35,-122.65,13.9,10.6,120,12,,10.0,29.71063,1006.1,,,TRUE,TRUE,,,,,,SCT,2000,BKN,3000,OVC,4000,,,MVFR,,,,,,,,,,,,METAR,14.0
KNUC 280656Z AUTO 25005KT OVC002 15/15 A3002 RMK AO2 SLP164 T01500150 $,KNUC,2018-10-28T06:56:00Z,33.02,-118.57,15.0,15.0,250,5,,,30.02067,1016.4,,TRUE,TRUE,TRUE,,,,,,OVC,200,,,,,,,,,,,,,,,,,,,METAR,55.0
KMHS 280656Z AUTO 10004KT 10SM CLR 14/06 A3007 RMK AO2 SLP177 T01390056,KMHS,2018-10-28T06:56:00Z,41.32,-122.32,13.9,5.6,100,4,,10.0,30.070866,1017.7,,TRUE,TRUE,,,,,,,CLR,,,,,,,,VFR,,,,,,,,,,,,METAR,1078.0
KNFL 280656Z AUTO 17005KT 10SM CLR 10/02 A3008 RMK AO2 SLP154 T01000017,KNFL,2018-10-28T06:56:00Z,39.42,-118.7,10.0,1.7,170,5,,10.0,30.079725,1015.4,,TRUE,TRUE,,,,,,,CLR,,,,,,,,VFR,,,,,,,,,,,,METAR,1199.0
KPRN 280656Z AUTO 25004KT CLR 11/08 A3011 RMK AO2 SLP194 T01060083 $,KPRN,2018-10-28T06:56:00Z,31.85,-86.62,10.6,8.3,250,4,,,30.109253,1019.4,,TRUE,TRUE,TRUE,,,,,,CLR,,,,,,,,,,,,,,,,,,,,SPECI,138.0
KP53 280656Z AUTO VRB04KT 03/01 A2983 RMK AO1 SLP107 T00330011,KP53,2018-10-28T06:56:00Z,46.42,-86.65,3.3,1.1,0,4,,,29.828741,1010.7,,TRUE,TRUE,,,,,,,,,,,,,,,,,,,,,,,,,,,METAR,187.0
KP28 280656Z AUTO 34006G17KT 11/08 A2996 RMK AO1 SLP138 T01060078,KP28,2018-10-28T06:56:00Z,37.28,-98.55,10.6,7.8,340,6,17,,29.958662,1013.8,,TRUE,TRUE,,,,,,,,,,,,,,,,,,,,,,,,,,,SPECI,469.0
KBVX 280656Z AUTO 00000KT 10SM CLR 09/08 A2999 RMK AO2 SLP156 T00890083 TSNO,KBVX,2018-10-28T06:56:00Z,35.73,-91.65,8.9,8.3,0,0,,10.0,29.991142,1015.6,,TRUE,TRUE,,,TRUE,,,,CLR,,,,,,,,VFR,,,,,,,,,,,,METAR,141.0
KBZN 280656Z 00000KT 10SM CLR 00/M03 A3011 RMK AO2 SLP206 T00001028 401500000,KBZN,2018-10-28T06:56:00Z,45.78,-111.17,0.0,-2.8,0,0,,10.0,30.109253,1020.6,,,TRUE,,,,,,,CLR,,,,,,,,VFR,,,,15.0,,,,,,,,SPECI,1361.0
KCAE 280656Z 25004KT 10SM CLR 09/08 A2997 RMK AO2 SLP148 T00940083,KCAE,2018-10-28T06:56:00Z,33.93,-81.12,9.4,8.3,250,4,,10.0,29.970472,1014.8,,,TRUE,,,,,,,CLR,,,,,,,,VFR,,,,,,,,,,,,SPECI,70.0
KCHS 280656Z 27007KT 10SM CLR 12/09 A3000 RMK AO2 SLP157 T01170094,KCHS,2018-10-28T06:56:00Z,32.9,-80.03,11.7,9.4,270,7,,10.0,30.0,1015.7,,,TRUE,,,,,,,CLR,,,,,,,,VFR,,,,,,,,,,,,METAR,13.0
KCTB 280656Z AUTO 03007KT 10SM CLR 01/M04 A3002 RMK AO2 SLP175 T00061039 401390000,KCTB,2018-10-28T06:56:00Z,48.6,-112.37,0.6,-3.9,30,7,,10.0,30.02067,1017.5,,TRUE,TRUE,,,,,,,CLR,,,,,,,,VFR,,,,13.9,,,,,,,,SPECI,1175.0
KCXY 280656Z AUTO 00000KT 10SM -RA FEW075 FEW090 OVC110 07/06 A2972 RMK AO2 RAB37 SLP065 P0000 T00720061,KCXY,2018-10-28T06:56:00Z,40.22,-76.85,7.2,6.1,0,0,,10.0,29.719488,1006.5,,TRUE,TRUE,,,,,,-RA,FEW,7500,FEW,9000,OVC,11000,,,VFR,,,,,,0.005,,,,,,SPECI,106.0
KDIK 280656Z AUTO 26007KT 10SM SCT090 01/M04 A2998 RMK AO2 SLP160 T00111044 401560006,KDIK,2018-10-28T06:56:00Z,46.8,-102.8,1.1,-4.4,260,7,,10.0,29.97933,1016.0,,TRUE,TRUE,,,,,,,SCT,9000,,,,,,,VFR,,,,15.6,0.6,,,,,,,SPECI,788.0
KDAY 280656Z 24007KT 6SM BR FEW045 FEW120 03/03 A2990 RMK AO2 SLP131 T00280028,KDAY,2018-10-28T06:56:00Z,39.9,-84.22,2.8,2.8,240,7,,6.0,29.899607,1013.1,,,TRUE,,,,,,BR,FEW,4500,FEW,12000,,,,,VFR,,,,,,,,,,,,SPECI,305.0
KART 280656Z AUTO 06008KT 10SM OVC009 01/01 A2971 RMK AO2 UPB33E46RAB46E55 SLP063 P0000 T00110011,KART,2018-10-28T06:56:00Z,43.98,-76.03,1.1,1.1,60,8,,10.0,29.71063,1006.3,,TRUE,TRUE,,,,,,,OVC,900,,,,,,,IFR,,,,,,0.005,,,,,,SPECI,100.0
KDUG 280656Z AUTO 36004KT 10SM CLR 09/08 A3019 RMK AO2 SLP176 T00940078 402670061,KDUG,2018-10-28T06:56:00Z,31.47,-109.58,9.4,7.8,360,4,,10.0,30.188976,1017.6,,TRUE,TRUE,,,,,,,CLR,,,,,,,,VFR,,,,26.7,6.1,,,,,,,SPECI,1265.0
KBFW 280656Z AUTO 08003KT 4SM -RA OVC013 07/07 A2966 RMK AO2,KBFW,2018-10-28T06:56:00Z,47.25,-91.4,7.0,7.0,80,3,,4.0,29.660433,,,TRUE,TRUE,,,,,,-RA,OVC,1300,,,,,,,MVFR,,,,,,,,,,,,SPECI,331.0
KBED 280656Z AUTO 01006KT 6SM BR OVC007 05/03 A2965 RMK AO2 RAE07 SLP055 P0000 T00500033,KBED,2018-10-28T06:56:00Z,42.47,-71.3,5.0,3.3,10,6,,6.0,29.648623,1005.5,,TRUE,TRUE,,,,,,BR,OVC,700,,,,,,,IFR,,,,,,0.005,,,,,,SPECI,50.0
KEED 280656Z AUTO 25006KT 10SM CLR 21/M01 A3000 RMK AO2 SLP136 T02061011,KEED,2018-10-28T06:56:00Z,34.77,-114.62,20.6,-1.1,250,6,,10.0,30.0,1013.6,,TRUE,TRUE,,,,,,,CLR,,,,,,,,VFR,,,,,,,,,,,,SPECI,302.0
KFSD 280656Z AUTO 29010KT 10SM CLR 07/04 A2991 RMK AO2 SLP132 T00720044,KFSD,2018-10-28T06:56:00Z,43.58,-96.75,7.2,4.4,290,10,,10.0,29.911417,1013.2,,TRUE,TRUE,,,,,,,CLR,,,,,,,,VFR,,,,,,,,,,,,SPECI,436.0
KGRD 280656Z AUTO 24005KT 10SM CLR 07/07 A3000 RMK AO2 SLP157 T00720067,KGRD,2018-10-28T06:56:00Z,34.25,-82.15,7.2,6.7,240,5,,10.0,30.0,1015.7,,TRUE,TRUE,,,,,,,CLR,,,,,,,,VFR,,,,,,,,,,,,SPECI,185.0
KLAS 280656Z 21004KT 10SM FEW250 19/01 A3005 RMK AO2 SLP160 T01890011,KLAS,2018-10-28T06:56:00Z,36.07,-115.17,18.9,1.1,210,4,,10.0,30.050198,1016.0,,,TRUE,,,,,,,FEW,25000,,,,,,,VFR,,,,,,,,,,,,SPECI,636.0
KLNR 280656Z AUTO 10006KT 4SM -RA BR BKN055 OVC070 07/06 A2973 RMK AO2 SLP065 P0008 T00670056,KLNR,2018-10-28T06:56:00Z,43.22,-90.18,6.7,5.6,100,6,,4.0,29.731298,1006.5,,TRUE,TRUE,,,,,,-RA BR,BKN,5500,OVC,7000,,,,,MVFR,,,,,,0.08,,,,,,SPECI,217.0
KLWS 280656Z AUTO 09007KT 10SM SCT110 13/07 A2988 RMK AO2 SLP116 T01280067,KLWS,2018-10-28T06:56:00Z,46.37,-117.02,12.8,6.7,90,7,,10.0,29.878937,1011.6,,TRUE,TRUE,,,,,,,SCT,11000,,,,,,,VFR,,,,,,,,,,,,SPECI,438.0
KMDT 280656Z 00000KT 10SM -RA FEW012 BKN090 OVC120 07/06 A2971 RMK AO2 RAB06E20B45 SLP063 P0000 T00720056,KMDT,2018-10-28T06:56:00Z,40.2,-76.77,7.2,5.6,0,0,,10.0,29.71063,1006.3,,,TRUE,,,,,,-RA,FEW,1200,BKN,9000,OVC,12000,,,VFR,,,,,,0.005,,,,,,SPECI,95.0
KMOB 280656Z AUTO 00000KT 10SM CLR 12/11 A3013 RMK AO2 SLP200 T01170106,KMOB,2018-10-28T06:56:00Z,30.68,-88.25,11.7,10.6,0,0,,10.0,30.129921,1020.0,,TRUE,TRUE,,,,,,,CLR,,,,,,,,VFR,,,,,,,,,,,,SPECI,63.0
KOFK 280656Z AUTO 31012G20KT 10SM CLR 09/03 A3000 RMK AO2 PK WND 31026/0621 SLP157 T00890033,KOFK,2018-10-28T06:56:00Z,41.98,-97.43,8.9,3.3,310,12,20,10.0,30.0,1015.7,,TRUE,TRUE,,,,,,,CLR,,,,,,,,VFR,,,,,,,,,,,,SPECI,470.0
KSHV 280656Z 20006KT 10SM CLR 17/17 A3004 RMK AO2 SLP170 T01720167 $,KSHV,2018-10-28T06:56:00Z,32.45,-93.83,17.2,16.7,200,6,,10.0,30.041338,1017.0,,,TRUE,TRUE,,,,,,CLR,,,,,,,,VFR,,,,,,,,,,,,SPECI,83.0
KSLE 280656Z 23011KT 5SM RA BR BKN043 OVC060 16/13 A2982 RMK AO2 WSHFT 0630 SLP099 P0019 T01560133,KSLE,2018-10-28T06:56:00Z,44.9,-123.0,15.6,13.3,230,11,,5.0,29.819881,1009.9,,,TRUE,,,,,,RA BR,BKN,4300,OVC,6000,,,,,MVFR,,,,,,0.19,,,,,,SPECI,59.0
KHPN 280656Z 30007KT 5SM -RA BR BKN004 BKN014 07/07 A2965 RMK AO2 SLP044 P0000 T00720067,KHPN,2018-10-28T06:56:00Z,41.07,-73.7,7.2,6.7,300,7,,5.0,29.648623,1004.4,,,TRUE,,,,,,-RA BR,BKN,400,BKN,1400,,,,,LIFR,,,,,,0.005,,,,,,SPECI,121.0
KJAX 280656Z 29003KT 10SM CLR 11/09 A3008 RMK AO2 SLP186 T01060089,KJAX,2018-10-28T06:56:00Z,30.5,-81.68,10.6,8.9,290,3,,10.0,30.079725,1018.6,,,TRUE,,,,,,,CLR,,,,,,,,VFR,,,,,,,,,,,,SPECI,10.0
PAJZ 280656Z AUTO 35019G23KT 4SM -SN BR FEW014 OVC050 M02/M03 A2980 RMK AO2 SLP097 P0000 T10171033 FZRANO $,PAJZ,2018-10-28T06:56:00Z,59.73,-157.27,-1.7,-3.3,350,19,23,4.0,29.799213,1009.7,,TRUE,TRUE,TRUE,,,TRUE,,-SN BR,FEW,1400,OVC,5000,,,,,MVFR,,,,,,0.005,,,,,,METAR,82.0
PAIW 280656Z AUTO 35018KT 10SM FEW033 BKN043 BKN050 M01/M08 A3004 RMK AO2 UPB06E22 SLP175 P0000 T10111078 FZRANO,PAIW,2018-10-28T06:56:00Z,65.62,-168.1,-1.1,-7.8,350,18,,10.0,30.041338,1017.5,,TRUE,TRUE,,,,TRUE,,,FEW,3300,BKN,4300,BKN,5000,,,VFR,,,,,,0.005,,,,,,METAR,7.0
PAIN 280656Z AUTO 36011KT 9SM -SN BKN049 M02/M02 A2958 RMK AO2 SNB34 SLP045 P0000 T10171022 FZRANO,PAIN,2018-10-28T06:56:00Z,63.73,-148.92,-1.7,-2.2,360,11,,9.0,29.58071,1004.5,,TRUE,TRUE,,,,TRUE,,-SN,BKN,4900,,,,,,,VFR,,,,,,0.005,,,,,,METAR,524.0
PAIK 280656Z AUTO 32008KT 10SM CLR M06/M10 A2982 RMK AO2 SLP105 T10611100 FZRANO,PAIK,2018-10-28T06:56:00Z,66.98,-160.43,-6.1,-10.0,320,8,,10.0,29.819881,1010.5,,TRUE,TRUE,,,,TRUE,,,CLR,,,,,,,,VFR,,,,,,,,,,,,METAR,51.0
PAIG 280656Z AUTO 33019G25KT 10SM UP OVC023 00/M01 A2964 RMK AO2 PK WND 32030/0634 UPE11B32 SLP047 P0000 T00001011 FZRANO $,PAIG,2018-10-28T06:56:00Z,59.32,-155.9,0.0,-1.1,330,19,25,10.0,29.639763,1004.7,,TRUE,TRUE,TRUE,,,TRUE,,UP,OVC,2300,,,,,,,MVFR,,,,,,0.005,,,,,,METAR,28.0
PAHY 280656Z AUTO VRB05KT 10SM OVC100 11/M01 A2930 RMK AO2 SLP020 T01111006 $,PAHY,2018-10-28T06:56:00Z,55.2,-132.83,11.1,-0.6,0,5,,10.0,29.300198,1002.0,,TRUE,TRUE,TRUE,,,,,,OVC,10000,,,,,,,VFR,,,,,,,,,,,,METAR,1.0
ETAR 280656Z 02012KT 9999 OVC021 06/02 A2976 RMK AO2A SLP089 $,ETAR,2018-10-28T06:56:00Z,49.42,7.58,6.0,2.0,20,12,,6.21,29.760826,1008.9,,,TRUE,TRUE,,,,,,OVC,2100,,,,,,,MVFR,,,,,,,,,,,,METAR,238.0
RJTY 280656Z AUTO 15005KT 10SM FEW060 19/11 A2982 RMK AO2 SLP100 T01860107 FZRANO $,RJTY,2018-10-28T06:56:00Z,35.75,139.33,18.6,10.7,150,5,,10.0,29.819881,1010.0,,TRUE,TRUE,TRUE,,,TRUE,,,FEW,6000,,,,,,,VFR,,,,,,,,,,,,METAR,139.0
KVPZ 280656Z AUTO 18004KT 6SM HZ FEW050 07/04 A2987 RMK AO2 SLP116 T00670039,KVPZ,2018-10-28T06:56:00Z,41.45,-87.0,6.7,3.9,180,4,,6.0,29.870079,1011.6,,TRUE,TRUE,,,,,,HZ,FEW,5000,,,,,,,VFR,,,,,,,,,,,,METAR,231.0
PAEM 280656Z AUTO 32006KT 10SM CLR M03/M06 A3001 RMK AO2 SLPNO T10331056 FZRANO,PAEM,2018-10-28T06:56:00Z,62.78,-164.48,-3.3,-5.6,320,6,,10.0,30.008858,,,TRUE,TRUE,,,,TRUE,,,CLR,,,,,,,,VFR,,,,,,,,,,,,METAR,3.0
KQAZ 280656Z AUTO 00000KT 9999 CLR 28/15 A2997 RMK AO2 SLP161 WND DATA ESTMD T02760154,KQAZ,2018-10-28T06:56:00Z,,,27.6,15.4,0,0,,6.21,29.970472,1016.1,,TRUE,TRUE,,,,,,,CLR,,,,,,,,VFR,,,,,,,,,,,,METAR,
KMUI 280656Z AUTO 00000KT 10SM OVC011 06/05 A2971 RMK AO2 SLP066 T00630045 $,KMUI,2018-10-28T06:56:00Z,40.42,-76.57,6.3,4.5,0,0,,10.0,29.71063,1006.6,,TRUE,TRUE,TRUE,,,,,,OVC,1100,,,,,,,MVFR,,,,,,,,,,,,METAR,149.0
KRYM 280656Z AUTO 30020G28KT 10SM -RA OVC010 07/06 A2959 RMK AO2 PK WND 30028/49 DZE04RAB04 SLP028 P0002 T00700057 $,KRYM,2018-10-28T06:56:00Z,46.08,-94.37,7.0,5.7,300,20,28,10.0,29.589567,1002.8,,TRUE,TRUE,TRUE,,,,,-RA,OVC,1000,,,,,,,MVFR,,,,,,0.02,,,,,,SPECI,351.0
KEKO 280656Z AUTO 00000KT 10SM CLR 06/M01 A3014 RMK AO2 SLP176 T00611006,KEKO,2018-10-28T06:56:00Z,40.82,-115.78,6.1,-0.6,0,0,,10.0,30.138779,1017.6,,TRUE,TRUE,,,,,,,CLR,,,,,,,,VFR,,,,,,,,,,,,METAR,1547.0
KBIH 280656Z AUTO 32006KT 10SM CLR 06/M06 A3014 RMK AO2 SLP179 T00561056,KBIH,2018-10-28T06:56:00Z,37.37,-118.35,5.6,-5.6,320,6,,10.0,30.138779,1017.9,,TRUE,TRUE,,,,,,,CLR,,,,,,,,VFR,,,,,,,,,,,,METAR,1253.0
KAND 280656Z AUTO 15004KT 10SM CLR 07/06 A2999 RMK AO2 SLP152 T00720056,KAND,2018-10-28T06:56:00Z,34.5,-82.72,7.2,5.6,150,4,,10.0,29.991142,1015.2,,TRUE,TRUE,,,,,,,CLR,,,,,,,,VFR,,,,,,,,,,,,SPECI,239.0
K2WX 280656Z AUTO 26010KT 02/M04 A3000 RMK AO1 SLP169 T00221044 401500006,K2WX,2018-10-28T06:56:00Z,45.6,-103.55,2.2,-4.4,260,10,,,30.0,1016.9,,TRUE,TRUE,,,,,,,,,,,,,,,,,,,15.0,0.6,,,,,,,METAR,915.0
KNMM 280656Z AUTO 00000KT 10SM FEW050 11/09 A3009 RMK AO2 SLP199 T01060089 $,KNMM,2018-10-28T06:56:00Z,32.53,-88.57,10.6,8.9,0,0,,10.0,30.088583,1019.9,,TRUE,TRUE,TRUE,,,,,,FEW,5000,,,,,,,VFR,,,,,,,,,,,,SPECI,97.0
KNLC 280656Z AUTO 27003KT 10SM CLR 15/05 A3002 RMK AO2 SLP166 T01500050,KNLC,2018-10-28T06:56:00Z,36.32,-119.95,15.0,5.0,270,3,,10.0,30.02067,1016.6,,TRUE,TRUE,,,,,,,CLR,,,,,,,,VFR,,,,,,,,,,,,METAR,72.0
KSXT 280656Z AUTO 18014G27KT 1/4SM -RA FG VV002 10/10 A2998 RMK AO2 PK WND 21029/0608 SLP134 P0011 T01000100,KSXT,2018-10-28T06:56:00Z,42.6,-123.37,10.0,10.0,180,14,27,0.25,29.97933,1013.4,,TRUE,TRUE,,,,,,-RA FG,OVX,0,,,,,,,LIFR,,,,,,0.11,,,,,200,METAR,1170.0
KNCA 280656Z AUTO 25005KT 10SM CLR 12/11 A2988 RMK AO2 SLP122 T01220111,KNCA,2018-10-28T06:56:00Z,34.72,-77.45,12.2,11.1,250,5,,10.0,29.878937,1012.2,,TRUE,TRUE,,,,,,,CLR,,,,,,,,VFR,,,,,,,,,,,,SPECI,8.0
KNFE 280656Z AUTO VRB04KT 10SM CLR 13/11 A2980 RMK AO2 SLP093 T01280106,KNFE,2018-10-28T06:56:00Z,36.7,-76.13,12.8,10.6,0,4,,10.0,29.799213,1009.3,,TRUE,TRUE,,,,,,,CLR,,,,,,,,VFR,,,,,,,,,,,,METAR,5.0
ROTM 280656Z 03014G21KT 9999 SCT040 BKN090 BKN140 22/13 A2995 RMK SLP128 STNPR29650 FRIST T02170133,ROTM,2018-10-28T06:56:00Z,26.27,127.75,21.7,13.3,30,14,21,6.21,29.949802,1012.8,,,,,,,,,,SCT,4000,BKN,9000,BKN,14000,,,VFR,,,,,,,,,,,,SPECI,75.0
KWMC 280656Z AUTO 21006KT 10SM CLR 11/M01 A3008 RMK AO2 SLP152 T01111011,KWMC,2018-10-28T06:56:00Z,40.9,-117.8,11.1,-1.1,210,6,,10.0,30.079725,1015.2,,TRUE,TRUE,,,,,,,CLR,,,,,,,,VFR,,,,,,,,,,,,SPECI,1310.0
KWJF 280656Z AUTO 28005KT 10SM CLR 17/M03 A3007 RMK AO2 SLP168 T01671028,KWJF,2018-10-28T06:56:00Z,34.72,-118.22,16.7,-2.8,280,5,,10.0,30.070866,1016.8,,TRUE,TRUE,,,,,,,CLR,,,,,,,,VFR,,,,,,,,,,,,METAR,715.0
KLKR 280655Z AUTO 26003KT 10SM 07/07 A2996 RMK AO2,KLKR,2018-10-28T06:55:00Z,34.72,-80.85,7.0,7.0,260,3,,10.0,29.958662,,,TRUE,TRUE,,,,,,,,,,,,,,,,,,,,,,,,,,,METAR,149.0
EHSC 280655Z AUTO 08026KT 9999 ///////// 07/M01 Q1017 W15/H16,EHSC,2018-10-28T06:55:00Z,51.93,3.67,7.0,-1.0,80,26,,6.21,30.029528,,,TRUE,,,,,,,,,,,,,,,,,,,,,,,,,,,,METAR,50.0
EHSA 280655Z AUTO 06027KT 9999 ///////// 08/01 Q1017 W14/H21,EHSA,2018-10-28T06:55:00Z,52.0,3.28,8.0,1.0,60,27,,6.21,30.029528,,,TRUE,,,,,,,,,,,,,,,,,,,,,,,,,,,,METAR,50.0
EHQE 280655Z AUTO 04015KT 9999 FEW011 FEW026CB SCT038 BKN046 08/01 Q1018 W///H///,EHQE,2018-10-28T06:55:00Z,52.92,4.15,8.0,1.0,40,15,,6.21,30.059055,,,TRUE,,,,,,,,FEW,1100,FEW,2600,SCT,3800,BKN,4600,VFR,,,,,,,,,,,,METAR,50.0
EHPG 280655Z AUTO 06026KT 9999 FEW031 SCT036 09/01 Q1018 W///H///,EHPG,2018-10-28T06:55:00Z,52.37,3.35,9.0,1.0,60,26,,6.21,30.059055,,,TRUE,,,,,,,,FEW,3100,SCT,3600,,,,,VFR,,,,,,,,,,,,METAR,50.0
EHMG 280655Z AUTO 07020KT 9999 FEW022CB 08/02 Q1019 W///H///,EHMG,2018-10-28T06:55:00Z,53.62,4.97,8.0,2.0,70,20,,6.21,30.088583,,,TRUE,,,,,,,,FEW,2200,,,,,,,VFR,,,,,,,,,,,,METAR,50.0
EHMA 280655Z AUTO 03021KT 9999 -RA FEW016 FEW025CB SCT036 07/01 Q1018 W///H///,EHMA,2018-10-28T06:55:00Z,53.5,5.95,7.0,1.0,30,21,,6.21,30.059055,,,TRUE,,,,,,,-RA,FEW,1600,FEW,2500,SCT,3600,,,VFR,,,,,,,,,,,,METAR,50.0
EHKV 280655Z AUTO 04022G34KT 9999 FEW029CB SCT042 09/02 Q1019 W///H///,EHKV,2018-10-28T06:55:00Z,53.27,3.63,9.0,2.0,40,22,34,6.21,30.088583,,,TRUE,,,,,,,,FEW,2900,SCT,4200,,,,,VFR,,,,,,,,,,,,METAR,50.0
EHJR 280655Z AUTO 05024KT //// // ///////// 08/03 Q1019 RE// W15/H20,EHJR,2018-10-28T06:55:00Z,53.22,3.22,8.0,3.0,50,24,,,30.088583,,,TRUE,,,,,,,,,,,,,,,,,,,,,,,,,,,,METAR,50.0
EHJA 280655Z AUTO 02019KT 9999 SCT047/// 09/M01 Q1019 W///H///,EHJA,2018-10-28T06:55:00Z,53.82,2.95,9.0,-1.0,20,19,,6.21,30.088583,,,TRUE,,,,,,,,SCT,4700,,,,,,,VFR,,,,,,,,,,,,METAR,50.0
EHHW 280655Z AUTO VRB16KT //// // FEW033/// SCT037/// BKN044/// 08/M00 Q1019 RE// W///H///,EHHW,2018-10-28T06:55:00Z,54.03,6.03,8.0,0.0,0,16,,,30.088583,,,TRUE,,,,,,,,FEW,3300,SCT,3700,BKN,4400,,,,,,,,,,,,,,,METAR,0.0
EHFZ 280655Z AUTO 03021KT 9999 FEW038 09/M00 Q1019 W///H///,EHFZ,2018-10-28T06:55:00Z,54.12,4.02,9.0,0.0,30,21,,6.21,30.088583,,,TRUE,,,,,,,,FEW,3800,,,,,,,VFR,,,,,,,,,,,,METAR,50.0
EHFD 280655Z AUTO 05018KT //// // FEW006/// SCT019/// BKN035/// 05/02 Q1020 RE// W///H///,EHFD,2018-10-28T06:55:00Z,54.85,4.7,5.0,2.0,50,18,,,30.11811,,,TRUE,,,,,,,,FEW,600,SCT,1900,BKN,3500,,,,,,,,,,,,,,,METAR,50.0
EHAK 280655Z AUTO 08023KT 9999 FEW015/// SCT032/// BKN048/// 07/03 Q1021 W///H///,EHAK,2018-10-28T06:55:00Z,55.42,3.82,7.0,3.0,80,23,,6.21,30.147638,,,TRUE,,,,,,,,FEW,1500,SCT,3200,BKN,4800,,,VFR,,,,,,,,,,,,METAR,50.0
PAIM 280655Z AUTO VRB02KT 10SM -SN OVC060 M06/M07 A2964 RMK AO2 SNB0455 SLP062 P0000 T10561075,PAIM,2018-10-28T06:55:00Z,66.0,-153.7,-5.6,-7.5,0,2,,10.0,29.639763,1006.2,,TRUE,TRUE,,,,,,-SN,OVC,6000,,,,,,,VFR,,,,,,0.005,,,,,,METAR,389.0
PAEH 280655Z AUTO 36032G40KT 10SM BKN033 00/M06 A2989 RMK AO2 PK WND 01040/0555 SLP131 T00041057,PAEH,2018-10-28T06:55:00Z,58.65,-162.07,0.4,-5.7,360,32,40,10.0,29.890747,1013.1,,TRUE,TRUE,,,,,,,BKN,3300,,,,,,,VFR,,,,,,,,,,,,METAR,161.0
KPAM 280655Z AUTO 01002KT 10SM CLR 12/11 A3014 RMK AO2 SLP206 WND DATA ESTMD T01170107,KPAM,2018-10-28T06:55:00Z,30.07,-85.57,11.7,10.7,10,2,,10.0,30.138779,1020.6,,TRUE,TRUE,,,,,,,CLR,,,,,,,,VFR,,,,,,,,,,,,SPECI,5.0
OAKN 280655Z 00000KT 9999 FEW190 28/M02 A3018 RMK AO2A SLP175 Q1022 PA3065 DA5300,OAKN,2018-10-28T06:55:00Z,31.5,65.83,28.0,-2.0,0,0,,6.21,30.180119,1017.5,,,TRUE,,,,,,,FEW,19000,,,,,,,VFR,,,,,,,,,,,,SPECI,1010.0
EBDT 280655Z AUTO 04010KT 9999 SCT007/// OVC009/// 02/01 Q1015 GRN,EBDT,2018-10-28T06:55:00Z,51.02,5.07,2.0,1.0,40,10,,6.21,29.970472,,,TRUE,,,,,,,,SCT,700,OVC,900,,,,,IFR,,,,,,,,,,,,SPECI,54.0
OPLA 280655Z 28003KT 3000 FU NSC 28/18 Q1018 RMK QFE992 RMK A30.07 BECMG 3500,OPLA,2018-10-28T06:55:00Z,31.52,74.4,28.0,18.0,280,3,,1.86,30.059055,,,,,,,,,,FU,CLR,,,,,,,,IFR,,,,,,,,,,,,METAR,217.0
OPKC 280655Z 280655Z 27009KT 6000 NSC 35/07 Q1017 NOSIG,OPKC,2018-10-28T06:55:00Z,24.88,67.17,35.0,7.0,270,9,,3.73,30.029528,,,,,,TRUE,,,,,CLR,,,,,,,,MVFR,,,,,,,,,,,,SPECI,22.0
OPIS 280655Z 34004KT 5000 HZ NSC 26/09 Q1019 RH39,OPIS,2018-10-28T06:55:00Z,,,26.0,9.0,340,4,,3.11,30.088583,,,,,,,,,,HZ,CLR,,,,,,,,MVFR,,,,,,,,,,,,METAR,
K33V 280655Z AUTO 00000KT 10SM CLR 03/M04 A3032 RMK AO1,K33V,2018-10-28T06:55:00Z,40.75,-106.28,3.0,-4.0,0,0,,10.0,30.318897,,,TRUE,TRUE,,,,,,,CLR,,,,,,,,VFR,,,,,,,,,,,,SPECI,2484.0
KLRO 280655Z AUTO 27007KT 10SM CLR 12/10 A3000 RMK AO2,KLRO,2018-10-28T06:55:00Z,32.9,-79.78,12.0,10.0,270,7,,10.0,30.0,,,TRUE,TRUE,,,,,,,CLR,,,,,,,,VFR,,,,,,,,,,,,SPECI,4.0
EBLB 280655Z AUTO 06010KT 8000 OVC004/// 01/M00 Q1011 YLO,EBLB,2018-10-28T06:55:00Z,50.47,6.17,1.0,0.0,60,10,,4.97,29.852362,,,TRUE,,,,,,,,OVC,400,,,,,,,LIFR,,,,,,,,,,,,SPECI,570.0
MMMX 280655Z 30006KT 10SM SCT020 BKN080 BKN200 14/08 A3041 NOSIG RMK 8/538,MMMX,2018-10-28T06:55:00Z,19.42,-99.08,14.0,8.0,300,6,,10.0,30.410433,,,,,,TRUE,,,,,SCT,2000,BKN,8000,BKN,20000,,,VFR,,,,,,,,,,,,METAR,2238.0
KI19 280655Z AUTO 26004KT 7SM CLR 06/05 A2991 RMK AO2 T00570051,KI19,2018-10-28T06:55:00Z,39.7,-83.98,5.7,5.1,260,4,,7.0,29.911417,,,TRUE,TRUE,,,,,,,CLR,,,,,,,,VFR,,,,,,,,,,,,SPECI,289.0
EBFN 280655Z AUTO 06013KT 9999 NCD 04/01 Q1016 BLU,EBFN,2018-10-28T06:55:00Z,51.07,2.63,4.0,1.0,60,13,,6.21,30.0,,,TRUE,,,,,,,,CLR,,,,,,,,VFR,,,,,,,,,,,,METAR,9.0
LIQC 280655Z 14010KT 9999 BKN020 21/15 Q1009 RMK BKN QUK 4 QUL 2 SE VIS MAR 15 KM VIS MIN 9999,LIQC,2018-10-28T06:55:00Z,40.55,14.2,21.0,15.0,140,10,,6.21,29.793306,,,,,,,,,,,BKN,2000,,,,,,,MVFR,,,,,,,,,,,,METAR,269.0
LIEB 280655Z 23006KT 9999 FEW040 21/13 Q0999 RMK BKN SCT060 QUK 3 QUL 2 SE VIS MAR 20 KM MON LIB VIS MIN 9999,LIEB,2018-10-28T06:55:00Z,39.93,9.72,21.0,13.0,230,6,,6.21,29.498032,,,,,,,,,,,FEW,4000,,,,,,,VFR,,,,,,,,,,,,METAR,156.0
LICF 280655Z 20013G31KT 5000 -TSRA FEW010CB BKN020 20/15 Q1010 RMK OVC BKN070 QUK 3 QUL 1 SW VIS MAR 5 KM MON INVIS NC VIS MIN 5000,LICF,2018-10-28T06:55:00Z,38.2,15.55,20.0,15.0,200,13,31,3.11,29.822834,,,,,,,,,,-TSRA,FEW,1000,BKN,2000,,,,,MVFR,,,,,,,,,,,,METAR,51.0
KLLJ 280655Z AUTO 00000KT 10SM CLR 05/02 A3011 RMK AO2 SLP177 T00500017 401670050,KLLJ,2018-10-28T06:55:00Z,44.52,-114.22,5.0,1.7,0,0,,10.0,30.109253,1017.7,,TRUE,TRUE,,,,,,,CLR,,,,,,,,VFR,,,,16.7,5.0,,,,,,,METAR,1536.0
EHFS 280655Z AUTO 07016KT 030V090 9999 NCD 05/02 Q1016 W///H///,EHFS,2018-10-28T06:55:00Z,51.45,3.6,5.0,2.0,70,16,,6.21,30.0,,,TRUE,,,,,,,,CLR,,,,,,,,VFR,,,,,,,,,,,,METAR,32.0
LIVT 280655Z 11007G18KT 9999 BKN035 18/15 Q1003 RERA RMK OVC SCT070 QUK 3 QUL 1 E VIS MAR 10 KM VIS MIN 9999,LIVT,2018-10-28T06:55:00Z,45.68,13.75,18.0,15.0,110,7,18,6.21,29.616142,,,,,,,,,,,BKN,3500,,,,,,,VFR,,,,,,,,,,,,METAR,20.0
LIVR 280655Z 18010KT 0100 +RA FG VV/// 05/02 Q1001 RMK MON INVIS VIS MIN 0100,LIVR,2018-10-28T06:55:00Z,46.28,11.77,5.0,2.0,180,10,,0.06,29.557087,,,,,,,,,,+RA FG,OVX,0,,,,,,,LIFR,,,,,,,,,,,,METAR,2006.0
LIVP 280655Z 19032KT 0000 RA FG VV/// 04/03 Q1001 RMK MON INVIS VAL INVIS VIS MIN 0000,LIVP,2018-10-28T06:55:00Z,46.15,11.03,4.0,3.0,190,32,,0.0,29.557087,,,,,,,,,,RA FG,OVX,0,,,,,,,LIFR,,,,,,,,,,,,SPECI,2129.0
LIVF 280655Z 17016G34KT 9999 SCT025 16/12 Q1001,LIVF,2018-10-28T06:55:00Z,43.52,12.72,16.0,12.0,170,16,34,6.21,29.557087,,,,,,,,,,,SCT,2500,,,,,,,VFR,,,,,,,,,,,,SPECI,574.0
LIVE 280655Z 33001KT 3000 -RA BR SCT008 BKN015 02/02 Q0998 RMK OVC VIS MIN 3000,LIVE,2018-10-28T06:55:00Z,46.85,10.5,2.0,2.0,330,1,,1.86,29.468504,,,,,,,,,,-RA BR,SCT,800,BKN,1500,,,,,IFR,,,,,,,,,,,,METAR,1800.0
LIVD 280655Z /////KT 2000 RA OVC005 07/06 Q1003,LIVD,2018-10-28T06:55:00Z,46.72,12.22,7.0,6.0,,,,1.24,29.616142,,,,,,,,,,RA,OVC,500,,,,,,,IFR,,,,,,,,,,,,SPECI,1226.0
LIVC 280655Z 22030G70KT 0000 -RA FG VV/// 05/05 Q0998 RMK MON INVIS VAL INVIS VIS MIN 0000,LIVC,2018-10-28T06:55:00Z,44.2,10.68,5.0,5.0,220,30,70,0.0,29.468504,,,,,,,,,,-RA FG,OVX,0,,,,,,,LIFR,,,,,,,,,,,,SPECI,2173.0
LIRX 280655Z 19030KT 3000 BR OVC003 19/16 Q0997 RMK OVC VIS MIN 3000 VIS MAR 3 KM,LIRX,2018-10-28T06:55:00Z,42.73,10.38,19.0,16.0,190,30,,1.86,29.438976,,,,,,,,,,BR,OVC,300,,,,,,,LIFR,,,,,,,,,,,,METAR,297.0
LIRT 280655Z 25017KT 9999 BKN008 11/08 Q1011,LIRT,2018-10-28T06:55:00Z,41.03,15.22,11.0,8.0,250,17,,6.21,29.852362,,,,,,,,,,,BKN,800,,,,,,,IFR,,,,,,,,,,,,SPECI,1093.0
LIRK 280655Z AUTO VRB08G20KT //// ///// Q////,LIRK,2018-10-28T06:55:00Z,42.47,12.97,,,0,8,20,,,,,TRUE,,,,,,,,,,,,,,,,,,,,,,,,,,,,SPECI,1875.0
LIRE 280655Z 15021KT 8000 FEW030 BKN070 21/19 Q1004 RMK OVC VIS MIN 8000 WIND THR13 17018KT WIND THR31 /////KT BLU,LIRE,2018-10-28T06:55:00Z,41.63,12.42,21.0,19.0,150,21,,4.97,29.64567,,,,,,,,,,,FEW,3000,BKN,7000,,,,,MVFR,,,,,,,,,,,,METAR,12.0
LIQO 280655Z 19028KT 0000 FG VV/// 18/17 Q1000 RMK VAL INVIS NC VIS MIN 0000,LIQO,2018-10-28T06:55:00Z,42.37,11.17,18.0,17.0,190,28,,0.0,29.52756,,,,,,,,,,FG,OVX,0,,,,,,,LIFR,,,,,,,,,,,,METAR,632.0
LIPS 280655Z 16011KT 9000 -RA BKN030 BKN060 18/16 Q1000 RMK OVC VIS MIN 9000 WIND THR26 23006KT WIND THR08 16006KT BLU,LIPS,2018-10-28T06:55:00Z,45.67,12.08,18.0,16.0,160,11,,5.59,29.52756,,,,,,,,,,-RA,BKN,3000,BKN,6000,,,,,MVFR,,,,,,,,,,,,SPECI,41.0
LIPL 280655Z 07013KT 8000 SCT035 BKN080 16/16 Q0998 RMK OVC VIS MIN 8000 WIND THR31 06013KT WIND THR13 06013KT BLU,LIPL,2018-10-28T06:55:00Z,45.42,10.27,16.0,16.0,70,13,,4.97,29.468504,,,,,,,,,,,SCT,3500,BKN,8000,,,,,MVFR,,,,,,,,,,,,SPECI,92.0
LIBY 280655Z 35014KT 9999 BKN015 20/18 Q1015 RMK OVC BKN080 QUK 5 QUL 4 S VIS MAR 10 KM VIS MIN 9999,LIBY,2018-10-28T06:55:00Z,39.82,18.35,20.0,18.0,350,14,,6.21,29.970472,,,,,,,,,,,BKN,1500,,,,,,,MVFR,,,,,,,,,,,,METAR,112.0
LIBV 280655Z 16028KT 2500 BR OVC004 19/19 Q1012 RMK OVC VIS MIN 2500 WIND THR32 17022KT WIND THR14 17028KT YLO,LIBV,2018-10-28T06:55:00Z,40.77,16.92,19.0,19.0,160,28,,1.55,29.88189,,,,,,,,,,BR,OVC,400,,,,,,,LIFR,,,,,,,,,,,,METAR,350.0
KEDJ 280655Z AUTO 27004KT 10SM FEW021 OVC033 05/05 A2988 RMK AO1,KEDJ,2018-10-28T06:55:00Z,40.37,-83.82,5.0,5.0,270,4,,10.0,29.878937,,,TRUE,TRUE,,,,,,,FEW,2100,OVC,3300,,,,,VFR,,,,,,,,,,,,SPECI,342.0
KEYF 280655Z AUTO 28005KT 10SM CLR 12/10 A2992 RMK AO2 T01170101,KEYF,2018-10-28T06:55:00Z,34.6,-78.58,11.7,10.1,280,5,,10.0,29.920275,,,TRUE,TRUE,,,,,,,CLR,,,,,,,,VFR,,,,,,,,,,,,SPECI,41.0
KEXX 280655Z AUTO 10SM CLR 07/06 A2991 RMK AO2 T00730060,KEXX,2018-10-28T06:55:00Z,35.78,-80.3,7.3,6.0,,,,10.0,29.911417,,,TRUE,TRUE,,,,,,,CLR,,,,,,,,VFR,,,,,,,,,,,,SPECI,223.0
KDPL 280655Z AUTO 26005KT 10SM CLR 11/10 A2990 RMK AO2,KDPL,2018-10-28T06:55:00Z,35.0,-77.97,11.0,10.0,260,5,,10.0,29.899607,,,TRUE,TRUE,,,,,,,CLR,,,,,,,,VFR,,,,,,,,,,,,SPECI,42.0
KCPC 280655Z AUTO 22003KT 10SM 11/09 A2993 RMK AO2 T01100092,KCPC,2018-10-28T06:55:00Z,34.28,-78.72,11.0,9.2,220,3,,10.0,29.929134,,,TRUE,TRUE,,,,,,,,,,,,,,,,,,,,,,,,,,,SPECI,29.0
KVUJ 280655Z AUTO 23003KT 10SM CLR 06/05 A2997 RMK AO2 T00580052,KVUJ,2018-10-28T06:55:00Z,35.42,-80.15,5.8,5.2,230,3,,10.0,29.970472,,,TRUE,TRUE,,,,,,,CLR,,,,,,,,VFR,,,,,,,,,,,,SPECI,186.0
KTDF 280655Z AUTO 24003KT 10SM CLR 07/05 A2989 RMK AO2,KTDF,2018-10-28T06:55:00Z,36.28,-78.98,7.0,5.0,240,3,,10.0,29.890747,,,TRUE,TRUE,,,,,,,CLR,,,,,,,,VFR,,,,,,,,,,,,SPECI,186.0
KQVF 280655Z AUTO 16004KT 10SM FEW023 28/ A3000 RMK AO2 SLP159 WND DATA ESTMD T0280,KQVF,2018-10-28T06:55:00Z,,,28.0,,160,4,,10.0,30.0,1015.9,,TRUE,TRUE,,,,,,,FEW,2300,,,,,,,VFR,,,,,,,,,,,,METAR,
TXKF 280655Z 16016KT 9999 SCT031 BKN300 24/19 Q1018 ,TXKF,2018-10-28T06:55:00Z,32.37,-64.68,24.0,19.0,160,16,,6.21,30.059055,,,,,,,,,,,SCT,3100,BKN,30000,,,,,VFR,,,,,,,,,,,,METAR,6.0
KNKX 280655Z 03004KT 10SM CLR 15/10 A3000 RMK AO2 SLP153 T01500100 $,KNKX,2018-10-28T06:55:00Z,32.87,-117.13,15.0,10.0,30,4,,10.0,30.0,1015.3,,,TRUE,TRUE,,,,,,CLR,,,,,,,,VFR,,,,,,,,,,,,METAR,146.0
KSRR 280655Z AUTO 22003KT 10SM CLR 09/M02 A3032 RMK AO2,KSRR,2018-10-28T06:55:00Z,33.47,-105.52,9.0,-2.0,220,3,,10.0,30.318897,,,TRUE,TRUE,,,,,,,CLR,,,,,,,,VFR,,,,,,,,,,,,METAR,2076.0
KGXA 280655Z AUTO 00000KT 10SM CLR 14/M04 A3008 RMK AO2 SLP134 WND DATA ESTMD T01391045 PWINO $,KGXA,2018-10-28T06:55:00Z,34.57,-117.67,13.9,-4.5,0,0,,10.0,30.079725,1013.4,,TRUE,TRUE,TRUE,,,,TRUE,,CLR,,,,,,,,VFR,,,,,,,,,,,,METAR,923.0
KRNO 280655Z 00000KT 10SM FEW150 SCT200 BKN250 12/01 A3012 RMK AO2 SLP166 T01170006,KRNO,2018-10-28T06:55:00Z,39.5,-119.77,11.7,0.6,0,0,,10.0,30.121063,1016.6,,,TRUE,,,,,,,FEW,15000,SCT,20000,BKN,25000,,,VFR,,,,,,,,,,,,METAR,1342.0
TNCE 280655Z AUTO 05011KT 020V090 //// // ///////// 26/22 Q1013 RE//,TNCE,2018-10-28T06:55:00Z,17.47,-62.97,26.0,22.0,50,11,,,29.911417,,,TRUE,,,,,,,,,,,,,,,,,,,,,,,,,,,,SPECI,39.0
TNCB 280655Z AUTO 09010KT 9999 FEW020/// 27/23 Q1011,TNCB,2018-10-28T06:55:00Z,12.13,-68.28,27.0,23.0,90,10,,6.21,29.852362,,,TRUE,,,,,,,,FEW,2000,,,,,,,VFR,,,,,,,,,,,,METAR,6.0
LICG 280655Z 18014KT 9999 FEW020 21/19 Q1008 RMK BKN SCT060 BKN100 VIS MIN 9999 WIND THR08 16014KT WIND THR21 /////KT BLU,LICG,2018-10-28T06:55:00Z,36.82,11.97,21.0,19.0,180,14,,6.21,29.763779,,,,,,,,,,,FEW,2000,,,,,,,VFR,,,,,,,,,,,,METAR,191.0
LICT 280655Z 16018KT 9999 FEW014 FEW018TCU 22/20 Q1007 RMK OVC BKN120 VIS MIN 9999 WIND THR13 15018KT 120V180 BLU,LICT,2018-10-28T06:55:00Z,37.92,12.5,22.0,20.0,160,18,,6.21,29.734253,,,,,,,,,,,FEW,1400,FEW,1800,,,,,VFR,,,,,,,,,,,,SPECI,7.0
LIMS 280655Z 12009KT 9999 BKN040 SCT060 14/14 Q0996 RMK OVC VIS MIN 9999 WIND THR30 12010KT BLU,LIMS,2018-10-28T06:55:00Z,44.92,9.72,14.0,14.0,120,9,,6.21,29.409449,,,,,,,,,,,BKN,4000,SCT,6000,,,,,VFR,,,,,,,,,,,,SPECI,138.0
LIPC 280655Z 14015KT 9999 SCT050 18/15 Q1000 RMK BKN BKN080 VIS MIN 9999 WIND THR11 14013KT WIND THR29 14012KT BLU,LIPC,2018-10-28T06:55:00Z,44.22,12.3,18.0,15.0,140,15,,6.21,29.52756,,,,,,,,,,,SCT,5000,,,,,,,VFR,,,,,,,,,,,,SPECI,10.0
LIPF 280655Z /////KT 9999 BKN045 SCT070 17/14 Q0999,LIPF,2018-10-28T06:55:00Z,44.82,11.62,17.0,14.0,,,,6.21,29.498032,,,,,,,,,,,BKN,4500,SCT,7000,,,,,VFR,,,,,,,,,,,,SPECI,10.0
LIRM 280655Z /////KT 9999 FEW020 BKN070 22/20 Q1007,LIRM,2018-10-28T06:55:00Z,41.03,14.07,22.0,20.0,,,,6.21,29.734253,,,,,,,,,,,FEW,2000,BKN,7000,,,,,VFR,,,,,,,,,,,,METAR,10.0
LIRS 280655Z 16019G29KT 9999 FEW015 SCT020 22/18 Q0999 RMK OVC BKN100 VIS MIN 9000N WIND THR03 17015KT WIND THR21 17014G26KT BLU,LIRS,2018-10-28T06:55:00Z,42.75,11.07,22.0,18.0,160,19,29,6.21,29.498032,,,,,,,,,,,FEW,1500,SCT,2000,,,,,VFR,,,,,,,,,,,,METAR,7.0
LIRV 280655Z /////KT 8000 -RA FEW005 SCT015CB BKN018 19/15 Q1003,LIRV,2018-10-28T06:55:00Z,42.42,12.07,19.0,15.0,,,,4.97,29.616142,,,,,,,,,,-RA,FEW,500,SCT,1500,BKN,1800,,,MVFR,,,,,,,,,,,,METAR,300.0
EBBE 280655Z AUTO 04012KT 9000 BKN006/// BKN008/// 02/01 Q1014 YLO,EBBE,2018-10-28T06:55:00Z,50.75,4.77,2.0,1.0,40,12,,5.59,29.940945,,,TRUE,,,,,,,,BKN,600,BKN,800,,,,,IFR,,,,,,,,,,,,METAR,127.0
EHDL 280655Z AUTO 04009KT 360V110 9999 NCD 00/M01 Q1017 BLU,EHDL,2018-10-28T06:55:00Z,52.07,5.87,0.0,-1.0,40,9,,6.21,30.029528,,,TRUE,,,,,,,,CLR,,,,,,,,VFR,,,,,,,,,,,,METAR,52.0
EHGR 280655Z AUTO 04010KT 340V120 9999 NCD 02/00 Q1016 BLU,EHGR,2018-10-28T06:55:00Z,51.57,4.92,2.0,0.0,40,10,,6.21,30.0,,,TRUE,,,,,,,,CLR,,,,,,,,VFR,,,,,,,,,,,,METAR,13.0
EHLW 280655Z AUTO VRB01KT 9999 SCT042 SCT046 BKN057 01/M00 Q1019 BLU,EHLW,2018-10-28T06:55:00Z,53.22,5.75,1.0,0.0,0,1,,6.21,30.088583,,,TRUE,,,,,,,,SCT,4200,SCT,4600,BKN,5700,,,VFR,,,,,,,,,,,,METAR,2.0
EHVK 280655Z AUTO 04008KT 9999 NCD 02/00 Q1016 BLU,EHVK,2018-10-28T06:55:00Z,51.63,5.7,2.0,0.0,40,8,,6.21,30.0,,,TRUE,,,,,,,,CLR,,,,,,,,VFR,,,,,,,,,,,,METAR,21.0
EHWO 280655Z AUTO 05011KT 010V090 9999 SCT270 02/01 Q1016 BLU,EHWO,2018-10-28T06:55:00Z,51.45,4.32,2.0,1.0,50,11,,6.21,30.0,,,TRUE,,,,,,,,SCT,27000,,,,,,,VFR,,,,,,,,,,,,METAR,17.0
KWWD 280655Z AUTO 26007KT 10SM OVC050 11/08 A2975 RMK AO2 RAE22 SLP077 P0000 T01060078,KWWD,2018-10-28T06:55:00Z,39.02,-74.92,10.6,7.8,260,7,,10.0,29.749016,1007.7,,TRUE,TRUE,,,,,,,OVC,5000,,,,,,,VFR,,,,,,0.005,,,,,,METAR,7.0
KNBG 280655Z AUTO 22005KT 10SM CLR 24/14 A3012 RMK AO2 SLP198 T02440139 $,KNBG,2018-10-28T06:55:00Z,29.82,-90.02,24.4,13.9,220,5,,10.0,30.121063,1019.8,,TRUE,TRUE,TRUE,,,,,,CLR,,,,,,,,VFR,,,,,,,,,,,,SPECI,1.0
KBYS 280655Z AUTO 00000KT 10SM CLR 16/M05 A3008 RMK AO2 SLP159 WND DATA ESTMD T01561050,KBYS,2018-10-28T06:55:00Z,35.28,-116.62,15.6,-5.0,0,0,,10.0,30.079725,1015.9,,TRUE,TRUE,,,,,,,CLR,,,,,,,,VFR,,,,,,,,,,,,METAR,716.0
FJDG 280655Z 11014KT 9999 FEW020 32/27 A2988 RMK SLP115 T03230269,FJDG,2018-10-28T06:55:00Z,-7.32,72.42,32.3,26.9,110,14,,6.21,29.878937,1011.5,,,,,,,,,,FEW,2000,,,,,,,VFR,,,,,,,,,,,,METAR,3.0
ORBD 280655Z 33006KT 8000 HZ CLR 19/11 A3021 RMK WND DATA ALSTG ESTMD,ORBD,2018-10-28T06:55:00Z,33.93,44.37,19.0,11.0,330,6,,4.97,30.209646,,,,,,,,,,HZ,CLR,,,,,,,,MVFR,,,,,,,,,,,,METAR,49.0
KHON 280655Z AUTO 28012KT 10SM CLR 06/01 A2995 RMK AO2 SLP146 T00560011,KHON,2018-10-28T06:55:00Z,44.38,-98.23,5.6,1.1,280,12,,10.0,29.949802,1014.6,,TRUE,TRUE,,,,,,,CLR,,,,,,,,VFR,,,,,,,,,,,,SPECI,390.0
KINL 280655Z AUTO 00000KT 4SM -RA BR SCT002 BKN023 OVC027 06/06 A2972 RMK AO2 SLP074 P0003 T00610061,KINL,2018-10-28T06:55:00Z,48.57,-93.4,6.1,6.1,0,0,,4.0,29.719488,1007.4,,TRUE,TRUE,,,,,,-RA BR,SCT,200,BKN,2300,OVC,2700,,,MVFR,,,,,,0.03,,,,,,SPECI,360.0
KIRK 280655Z AUTO 21006KT 10SM OVC100 14/05 A2980 RMK AO2 SLP093 T01440050,KIRK,2018-10-28T06:55:00Z,40.1,-92.55,14.4,5.0,210,6,,10.0,29.799213,1009.3,,TRUE,TRUE,,,,,,,OVC,10000,,,,,,,VFR,,,,,,,,,,,,METAR,293.0
KLIC 280655Z AUTO 31008KT 10SM CLR 04/03 A3024 RMK AO2 SLP194 T00440028 402440000,KLIC,2018-10-28T06:55:00Z,39.27,-103.67,4.4,2.8,310,8,,10.0,30.239174,1019.4,,TRUE,TRUE,,,,,,,CLR,,,,,,,,VFR,,,,24.4,,,,,,,,SPECI,1630.0
KGPI 280655Z AUTO 01003KT 10SM CLR 02/01 A3002 RMK AO2 SLP177 T00220006 401391011,KGPI,2018-10-28T06:55:00Z,48.32,-114.25,2.2,0.6,10,3,,10.0,30.02067,1017.7,,TRUE,TRUE,,,,,,,CLR,,,,,,,,VFR,,,,13.9,-1.1,,,,,,,SPECI,908.0
KCAO 280655Z AUTO 31011KT 10SM CLR 14/02 A3012 RMK AO2 SLP147 T01440022 402330044,KCAO,2018-10-28T06:55:00Z,36.45,-103.15,14.4,2.2,310,11,,10.0,30.121063,1014.7,,TRUE,TRUE,,,,,,,CLR,,,,,,,,VFR,,,,23.3,4.4,,,,,,,SPECI,1514.0
KCNK 280655Z AUTO 35013G20KT 10SM CLR 14/07 A2999 RMK AO2 PK WND 34027/0634 SLP146 T01440072 $,KCNK,2018-10-28T06:55:00Z,39.55,-97.65,14.4,7.2,350,13,20,10.0,29.991142,1014.6,,TRUE,TRUE,TRUE,,,,,,CLR,,,,,,,,VFR,,,,,,,,,,,,METAR,447.0
KCMA 280655Z AUTO 00000KT M1/4SM FG VV001 14/12 A2999 RMK AO2 SLP165 T01390122 $,KCMA,2018-10-28T06:55:00Z,34.22,-119.1,13.9,12.2,0,0,,0.25,29.991142,1016.5,,TRUE,TRUE,TRUE,,,,,FG,OVX,0,,,,,,,LIFR,,,,,,,,,,,100,METAR,23.0
KMKG 280655Z AUTO 12006KT 10SM BKN049 04/02 A2984 RMK AO2 SLP109 T00440017 $,KMKG,2018-10-28T06:55:00Z,43.17,-86.23,4.4,1.7,120,6,,10.0,29.840551,1010.9,,TRUE,TRUE,TRUE,,,,,,BKN,4900,,,,,,,VFR,,,,,,,,,,,,SPECI,191.0
KUGN 280655Z AUTO 17004KT 5SM BR CLR 06/04 A2981 RMK AO2 SLP099 T00610044,KUGN,2018-10-28T06:55:00Z,42.42,-87.87,6.1,4.4,170,4,,5.0,29.811024,1009.9,,TRUE,TRUE,,,,,,BR,CLR,,,,,,,,MVFR,,,,,,,,,,,,METAR,222.0
KPHP 280655Z AUTO 27007KT 10SM CLR 01/M02 A3008 RMK AO2 SLP192 T00111017 401721006,KPHP,2018-10-28T06:55:00Z,44.05,-101.6,1.1,-1.7,270,7,,10.0,30.079725,1019.2,,TRUE,TRUE,,,,,,,CLR,,,,,,,,VFR,,,,17.2,-0.6,,,,,,,SPECI,672.0
FAIR 280655Z 34004KT CAVOK 24/06 Q1029,FAIR,2018-10-28T06:55:00Z,-25.92,28.22,24.0,6.0,340,4,,6.21,30.383858,,,,,,,,,,,CAVOK,,,,,,,,VFR,,,,,,,,,,,,SPECI,1500.0
MUHA 280655Z 02006KT 9000 FEW025 25/21 Q1017,MUHA,2018-10-28T06:55:00Z,22.97,-82.42,25.0,21.0,20,6,,5.59,30.029528,,,,,,,,,,,FEW,2500,,,,,,,VFR,,,,,,,,,,,,METAR,64.0
KNFG 280655Z AUTO 00000KT 1/4SM FG VV002 14/14 A3000 RMK AO2 SLP159 T01390139,KNFG,2018-10-28T06:55:00Z,33.28,-117.33,13.9,13.9,0,0,,0.25,30.0,1015.9,,TRUE,TRUE,,,,,,FG,OVX,0,,,,,,,LIFR,,,,,,,,,,,200,METAR,24.0
EHAM 280655Z 07008KT 040V100 CAVOK 03/M01 Q1018 NOSIG,EHAM,2018-10-28T06:55:00Z,52.32,4.78,3.0,-1.0,70,8,,6.21,30.059055,,,,,,TRUE,,,,,CAVOK,,,,,,,,VFR,,,,,,,,,,,,METAR,9.0
EHBK 280655Z AUTO 05013KT 9999 SCT006 BKN008 OVC009 03/02 Q1013 NOSIG,EHBK,2018-10-28T06:55:00Z,50.92,5.77,3.0,2.0,50,13,,6.21,29.911417,,,TRUE,,,TRUE,,,,,SCT,600,BKN,800,OVC,900,,,IFR,,,,,,,,,,,,METAR,116.0
EHGG 280655Z AUTO 02004KT 9999 NCD M03/M04 Q1018 NOSIG,EHGG,2018-10-28T06:55:00Z,53.12,6.57,-3.0,-4.0,20,4,,6.21,30.059055,,,TRUE,,,TRUE,,,,,CLR,,,,,,,,VFR,,,,,,,,,,,,METAR,4.0
EHRD 280655Z AUTO 05006KT 9999 NCD 02/M01 Q1017 NOSIG,EHRD,2018-10-28T06:55:00Z,51.95,4.45,2.0,-1.0,50,6,,6.21,30.029528,,,TRUE,,,TRUE,,,,,CLR,,,,,,,,VFR,,,,,,,,,,,,METAR,-5.0
KAAT 280655Z AUTO 00000KT 10SM CLR 07/03 A3009 RMK AO2 SLP170 T00670033,KAAT,2018-10-28T06:55:00Z,41.48,-120.57,6.7,3.3,0,0,,10.0,30.088583,1017.0,,TRUE,TRUE,,,,,,,CLR,,,,,,,,VFR,,,,,,,,,,,,SPECI,1331.0
KAST 280655Z AUTO 21015G24KT 10SM -RA BKN009 BKN060 OVC080 14/14 A2977 RMK AO2 SLP082 P0001 T01440139,KAST,2018-10-28T06:55:00Z,46.15,-123.88,14.4,13.9,210,15,24,10.0,29.769686,1008.2,,TRUE,TRUE,,,,,,-RA,BKN,900,BKN,6000,OVC,8000,,,IFR,,,,,,0.01,,,,,,SPECI,3.0
KEAT 280655Z AUTO 29007KT 6SM -RA BR SCT004 OVC024 07/07 A2991 RMK AO2 SLP131 P0008 T00720067,KEAT,2018-10-28T06:55:00Z,47.4,-120.2,7.2,6.7,290,7,,6.0,29.911417,1013.1,,TRUE,TRUE,,,,,,-RA BR,SCT,400,OVC,2400,,,,,MVFR,,,,,,0.08,,,,,,SPECI,377.0
KSCK 280655Z AUTO 29005KT 10SM CLR 17/13 A3003 RMK AO2 SLP167 T01720128,KSCK,2018-10-28T06:55:00Z,37.88,-121.22,17.2,12.8,290,5,,10.0,30.029528,1016.7,,TRUE,TRUE,,,,,,,CLR,,,,,,,,VFR,,,,,,,,,,,,SPECI,10.0
EHEH 280655Z AUTO 04009KT 010V080 9999 NCD 02/00 Q1016 BLU 04012KT 9999 CAVOK,EHEH,2018-10-28T06:55:00Z,51.45,5.38,2.0,0.0,40,9,,6.21,30.0,,,TRUE,,,,,,,,CLR,,,,,,,,VFR,,,,,,,,,,,,METAR,22.0
EHKD 280655Z AUTO 10006KT 9999 OVC041 06/01 Q1019 BLU 08009KT CAVOK TEMPO SCT030CB BKN040,EHKD,2018-10-28T06:55:00Z,52.92,4.77,6.0,1.0,100,6,,6.21,30.088583,,,TRUE,,,,,,,,OVC,4100,,,,,,,VFR,,,,,,,,,,,,METAR,14.0
EBCV 280655Z AUTO 04010KT 9999 BKN011/// 03/01 Q1014 GRN,EBCV,2018-10-28T06:55:00Z,50.57,3.82,3.0,1.0,40,10,,6.21,29.940945,,,TRUE,,,,,,,,BKN,1100,,,,,,,MVFR,,,,,,,,,,,,SPECI,63.0
OAJL 280655Z VRB01KT 8000 HZ CLR 26/07 A3013 RMK AO2A SLP180 T02560066,OAJL,2018-10-28T06:55:00Z,34.42,70.47,25.6,6.6,0,1,,4.97,30.129921,1018.0,,,TRUE,,,,,,HZ,CLR,,,,,,,,MVFR,,,,,,,,,,,,METAR,580.0
KPVF 280655Z AUTO 11005KT 10SM CLR 17/04 A3011 RMK AO1,KPVF,2018-10-28T06:55:00Z,38.72,-120.75,17.0,4.0,110,5,,10.0,30.109253,,,TRUE,TRUE,,,,,,,CLR,,,,,,,,VFR,,,,,,,,,,,,SPECI,789.0
KHYW 280655Z AUTO 24003KT 7SM CLR 10/10 A2996 RMK AO2,KHYW,2018-10-28T06:55:00Z,33.83,-79.12,10.0,10.0,240,3,,7.0,29.958662,,,TRUE,TRUE,,,,,,,CLR,,,,,,,,VFR,,,,,,,,,,,,METAR,11.0
RJOI 280655Z 24006KT 9999 FEW030 SCT050 18/06 A2987 RMK SLP115 T01830056,RJOI,2018-10-28T06:55:00Z,34.13,132.22,18.3,5.6,240,6,,6.21,29.870079,1011.5,,,,,,,,,,FEW,3000,SCT,5000,,,,,VFR,,,,,,,,,,,,METAR,2.0
PATL 280655Z AUTO VRB01KT 10SM SCT022 BKN080 M04/M08 A2979 RMK AO2 SNB0455E0620 SLP108 T10391077,PATL,2018-10-28T06:55:00Z,62.9,-155.97,-3.9,-7.7,0,1,,10.0,29.790354,1010.8,,TRUE,TRUE,,,,,,,SCT,2200,BKN,8000,,,,,VFR,,,,,,,,,,,,METAR,294.0
PATC 280655Z AUTO 01020KT 10SM -SN SCT038 SCT042 M02/M07 A3000 RMK AO2 SNB0604E0604B0649 SLP165 P0000 T10181072,PATC,2018-10-28T06:55:00Z,65.57,-167.92,-1.8,-7.2,10,20,,10.0,30.0,1016.5,,TRUE,TRUE,,,,,,-SN,SCT,3800,SCT,4200,,,,,VFR,,,,,,0.005,,,,,,METAR,83.0
LIVO 280655Z 03006KT 9999 RA OVC020 12/11 Q1000 RMK OVC VIS MIN 9999,LIVO,2018-10-28T06:55:00Z,46.5,13.57,12.0,11.0,30,6,,6.21,29.52756,,,,,,,,,,RA,OVC,2000,,,,,,,MVFR,,,,,,,,,,,,SPECI,778.0
PALU 280655Z AUTO 35016G23KT 10SM SCT010 BKN040 M02/M05 A2994 RMK AO2 PK WND 36026/0557 SNB0555E0609SHSNB0609E0655 SLP138 T10251047,PALU,2018-10-28T06:55:00Z,68.88,-166.1,-2.5,-4.7,350,16,23,10.0,29.940945,1013.8,,TRUE,TRUE,,,,,,,SCT,1000,BKN,4000,,,,,VFR,,,,,,,,,,,,METAR,3.0
EBBL 280655Z AUTO 04011KT 9999 OVC007/// 02/01 Q1015 GRN,EBBL,2018-10-28T06:55:00Z,51.17,5.47,2.0,1.0,40,11,,6.21,29.970472,,,TRUE,,,,,,,,OVC,700,,,,,,,IFR,,,,,,,,,,,,SPECI,64.0
HLLB 280655Z 11030KT CAVOK 20/10 Q1020,HLLB,2018-10-28T06:55:00Z,32.07,20.27,20.0,10.0,110,30,,6.21,30.11811,,,,,,,,,,,CAVOK,,,,,,,,VFR,,,,,,,,,,,,METAR,132.0
EHDV 280655Z AUTO 03015KT 350V070 9999 FEW042/// 09/M01 Q1020 W///H///,EHDV,2018-10-28T06:55:00Z,54.32,2.93,9.0,-1.0,30,15,,6.21,30.11811,,,TRUE,,,,,,,,FEW,4200,,,,,,,VFR,,,,,,,,,,,,METAR,50.0
KHRJ 280655Z AUTO 00000KT 10SM CLR 10/09 A2990 RMK AO2 T00970093,KHRJ,2018-10-28T06:55:00Z,35.38,-78.73,9.7,9.3,0,0,,10.0,29.899607,,,TRUE,TRUE,,,,,,,CLR,,,,,,,,VFR,,,,,,,,,,,,SPECI,60.0
LIMY 280655Z 23005KT 3200 -RA BR OVC036 10/08 Q0996 RERA RMK OVC VAL FOSCHIA VIS MIN 2500NE,LIMY,2018-10-28T06:55:00Z,44.25,7.78,10.0,8.0,230,5,,1.99,29.409449,,,,,,,,,,-RA BR,OVC,3600,,,,,,,IFR,,,,,,,,,,,,METAR,1742.0
LIMU 280655Z 15018KT 9999 RA SCT010 14/10 Q0995 RMK OVC SCT070 QUK 4 QUL 1 SE VIS MAR 10 KM VIS MIN 9999,LIMU,2018-10-28T06:55:00Z,43.95,8.17,14.0,10.0,150,18,,6.21,29.379921,,,,,,,,,,RA,SCT,1000,,,,,,,VFR,,,,,,,,,,,,METAR,221.0
LIMK 280655Z 36006KT 330V040 0100 -RA FG VV001 09/09 Q0996 RMK VAL INVIS VIS MIN 0100,LIMK,2018-10-28T06:55:00Z,45.02,7.72,9.0,9.0,360,6,,0.06,29.409449,,,,,,,,,,-RA FG,OVX,0,,,,,,,LIFR,,,,,,,,,,,100,SPECI,710.0
LIMH 280655Z /////KT 0100 -SN FZFG VV/// M03/M03 Q0998,LIMH,2018-10-28T06:55:00Z,45.93,7.7,-3.0,-3.0,,,,0.06,29.468504,,,,,,,,,,FZFG -SN,OVX,0,,,,,,,LIFR,,,,,,,,,,,,SPECI,3488.0
LIED 280655Z 20007KT 9999 SCT020 20/17 Q0999 RMK OVC BKN090 VIS MIN 9999 WIND THR35 20010KT WIND THR17 /////KT BLU,LIED,2018-10-28T06:55:00Z,39.35,8.97,20.0,17.0,200,7,,6.21,29.498032,,,,,,,,,,,SCT,2000,,,,,,,VFR,,,1.0,,,,,,,,,METAR,28.0
LICZ 280655Z /////KT 8000 FEW025TCU 21/21 Q1012 RMK BKN BKN200 VIS MIN 8000 WIND THR28 16001KT WIND THR10 13002KT A2990 BLU,LICZ,2018-10-28T06:55:00Z,37.38,14.92,21.0,21.0,,,,4.97,29.88189,,,,,,,,,,,FEW,2500,,,,,,,MVFR,,,,,,,,,,,,METAR,22.0
LIBQ 280655Z 14020KT 9999 -RA SCT001 BKN003 BKN020 10/09 Q1015,LIBQ,2018-10-28T06:55:00Z,39.32,16.38,10.0,9.0,140,20,,6.21,29.970472,,,,,,,,,,-RA,SCT,100,BKN,300,BKN,2000,,,LIFR,,,,,,,,,,,,SPECI,1720.0
LIBN 280655Z 16015KT 9999 BKN030 20/18 Q1015 RMK OVC BKN080 VIS MIN 9999 WIND THR14 16016KT WIND THR32 15014KT BLU,LIBN,2018-10-28T06:55:00Z,40.22,18.13,20.0,18.0,160,15,,6.21,29.970472,,,,,,,,,,,BKN,3000,,,,,,,MVFR,,,,,,,,,,,,METAR,61.0
KMKC 280654Z 26006KT 10SM FEW120 16/07 A2986 RMK AO2 SLP107 T01610072 $,KMKC,2018-10-28T06:54:00Z,39.12,-94.6,16.1,7.2,260,6,,10.0,29.861221,1010.7,,,TRUE,TRUE,,,,,,FEW,12000,,,,,,,VFR,,,,,,,,,,,,METAR,227.0
KMFI 280654Z AUTO 14009KT 4SM -RA BR BKN025 OVC031 06/05 A2968 RMK AO2 SLP059 P0004 T00560050 TSNO $,KMFI,2018-10-28T06:54:00Z,44.63,-90.18,5.6,5.0,140,9,,4.0,29.681103,1005.9,,TRUE,TRUE,TRUE,,TRUE,,,-RA BR,BKN,2500,OVC,3100,,,,,MVFR,,,,,,0.04,,,,,,METAR,389.0
KLYH 280654Z AUTO VRB03KT 10SM SCT095 09/04 A2981 RMK AO2 SLP090 T00890039,KLYH,2018-10-28T06:54:00Z,37.32,-79.2,8.9,3.9,0,3,,10.0,29.811024,1009.0,,TRUE,TRUE,,,,,,,SCT,9500,,,,,,,VFR,,,,,,,,,,,,METAR,295.0
KLWT 280654Z AUTO 18008KT 10SM CLR 01/M05 A3008 RMK AO2 SLP194 T00061050 401391011,KLWT,2018-10-28T06:54:00Z,47.03,-109.47,0.6,-5.0,180,8,,10.0,30.079725,1019.4,,TRUE,TRUE,,,,,,,CLR,,,,,,,,VFR,,,,13.9,-1.1,,,,,,,METAR,1270.0
KLWM 280654Z AUTO 02010KT 10SM OVC007 06/03 A2968 RMK AO2 SLP051 T00560028,KLWM,2018-10-28T06:54:00Z,42.72,-71.13,5.6,2.8,20,10,,10.0,29.681103,1005.1,,TRUE,TRUE,,,,,,,OVC,700,,,,,,,IFR,,,,,,,,,,,,METAR,54.0
KLNK 280654Z AUTO 33012KT 10SM CLR 14/06 A2998 RMK AO2 SLP146 T01390056,KLNK,2018-10-28T06:54:00Z,40.85,-96.77,13.9,5.6,330,12,,10.0,29.97933,1014.6,,TRUE,TRUE,,,,,,,CLR,,,,,,,,VFR,,,,,,,,,,,,METAR,364.0
KLEX 280654Z 23007KT 10SM OVC075 09/06 A2997 RMK AO2 SLP147 T00890056,KLEX,2018-10-28T06:54:00Z,38.03,-84.6,8.9,5.6,230,7,,10.0,29.970472,1014.7,,,TRUE,,,,,,,OVC,7500,,,,,,,VFR,,,,,,,,,,,,METAR,300.0
KLBT 280654Z AUTO 26006KT 10SM CLR 11/08 A2993 RMK AO2 SLP132 T01060083,KLBT,2018-10-28T06:54:00Z,34.6,-79.07,10.6,8.3,260,6,,10.0,29.929134,1013.2,,TRUE,TRUE,,,,,,,CLR,,,,,,,,VFR,,,,,,,,,,,,METAR,37.0
KJAN 280654Z AUTO 15004KT 10SM CLR 11/09 A3009 RMK AO2 SLP186 T01060094,KJAN,2018-10-28T06:54:00Z,32.32,-90.08,10.6,9.4,150,4,,10.0,30.088583,1018.6,,TRUE,TRUE,,,,,,,CLR,,,,,,,,VFR,,,,,,,,,,,,METAR,91.0
KIZG 280654Z AUTO 01006KT 5SM BR BKN010 OVC014 02/01 A2977 RMK AO2 CIG 006V012 SLP087 T00170011,KIZG,2018-10-28T06:54:00Z,43.98,-70.95,1.7,1.1,10,6,,5.0,29.769686,1008.7,,TRUE,TRUE,,,,,,BR,BKN,1000,OVC,1400,,,,,MVFR,,,,,,,,,,,,METAR,135.0
KISW 280654Z AUTO 13006KT 9SM -RA BKN034 OVC049 07/03 A2972 RMK AO2 RAB26 SLP070 P0000 T00670028 TSNO $,KISW,2018-10-28T06:54:00Z,44.37,-89.83,6.7,2.8,130,6,,9.0,29.719488,1007.0,,TRUE,TRUE,TRUE,,TRUE,,,-RA,BKN,3400,OVC,4900,,,,,VFR,,,,,,0.005,,,,,,METAR,307.0
KRSP 280654Z AUTO 29007G15KT 10SM OVC016 06/06 A2969 RMK AO2 RAB21E37 SLP064 P0000 T00560056 $,KRSP,2018-10-28T06:54:00Z,39.65,-77.47,5.6,5.6,290,7,15,10.0,29.68996,1006.4,,TRUE,TRUE,TRUE,,,,,,OVC,1600,,,,,,,MVFR,,,,,,0.005,,,,,,SPECI,561.0
K12N 280654Z AUTO 00000KT 07/06 A2967 RMK AO1 SLP053 P0001 T00670056 $,K12N,2018-10-28T06:54:00Z,41.02,-74.73,6.7,5.6,0,0,,,29.66929,1005.3,,TRUE,TRUE,TRUE,,,,,,,,,,,,,,,,,,,,0.01,,,,,,METAR,177.0
KBKB 280654Z AUTO 00000KT 10SM CLR 14/14 A3007 RMK AO2 SLP208 T01440139,KBKB,2018-10-28T06:54:00Z,31.0,-92.92,14.4,13.9,0,0,,10.0,30.070866,1020.8,,TRUE,TRUE,,,,,,,CLR,,,,,,,,VFR,,,,,,,,,,,,METAR,94.0
KMTP 280654Z AUTO 21010G20KT 190V250 13/12 A2960 RMK AO1 PK WND 21027/0624 SLP024 T01330122,KMTP,2018-10-28T06:54:00Z,41.07,-71.92,13.3,12.2,210,10,20,,29.601377,1002.4,,TRUE,TRUE,,,,,,,,,,,,,,,,,,,,,,,,,,,METAR,2.0
KNAK 280654Z AUTO 00000KT 10SM OVC065 11/08 A2974 RMK AO2 RAB10E22 SLP073 P0000 T01060078 $,KNAK,2018-10-28T06:54:00Z,38.98,-76.48,10.6,7.8,0,0,,10.0,29.740158,1007.3,,TRUE,TRUE,TRUE,,,,,,OVC,6500,,,,,,,VFR,,,,,,0.005,,,,,,METAR,2.0
KDMH 280654Z AUTO 09/07 A2974 RMK AO1 SLP071 P0001 T00940072,KDMH,2018-10-28T06:54:00Z,39.28,-76.62,9.4,7.2,,,,,29.740158,1007.1,,TRUE,TRUE,,,,,,,,,,,,,,,,,,,,,0.01,,,,,,METAR,5.0
KNKT 280654Z 27009KT 10SM SCT075 13/13 A2988 RMK AO2 SLP115 T01330128,KNKT,2018-10-28T06:54:00Z,34.9,-76.88,13.3,12.8,270,9,,10.0,29.878937,1011.5,,,TRUE,,,,,,,SCT,7500,,,,,,,VFR,,,,,,,,,,,,SPECI,9.0
K1V4 280654Z AUTO 04/02 A2968 RMK AO1 SLP057 T00390022,K1V4,2018-10-28T06:54:00Z,44.42,-72.02,3.9,2.2,,,,,29.681103,1005.7,,TRUE,TRUE,,,,,,,,,,,,,,,,,,,,,,,,,,,METAR,210.0
KBFL 280654Z AUTO 07005KT 9SM CLR 19/08 A3002 RMK AO2 SLP161 T01890083,KBFL,2018-10-28T06:54:00Z,35.43,-119.05,18.9,8.3,70,5,,9.0,30.02067,1016.1,,TRUE,TRUE,,,,,,,CLR,,,,,,,,VFR,,,,,,,,,,,,METAR,151.0
PGUM 280654Z 10008KT 10SM FEW024 31/26 A2976 RMK AO2 SLP069 T03060256,PGUM,2018-10-28T06:54:00Z,13.48,144.8,30.6,25.6,100,8,,10.0,29.760826,1006.9,,,TRUE,,,,,,,FEW,2400,,,,,,,VFR,,,,,,,,,,,,METAR,91.0
KBOS 280654Z 36010KT 5SM -RA BR OVC007 07/06 A2964 RMK AO2 RAE33B53 SLP038 P0000 T00720056 $,KBOS,2018-10-28T06:54:00Z,42.37,-71.02,7.2,5.6,360,10,,5.0,29.639763,1003.8,,,TRUE,TRUE,,,,,-RA BR,OVC,700,,,,,,,IFR,,,,,,0.005,,,,,,SPECI,6.0
KCAR 280654Z AUTO 05012G16KT 5SM -FZRA BR FEW008 BKN014 OVC019 01/M01 A3005 RMK AO2 UPE07FZRAB07 SLP187 P0005 I1005 T00111011,KCAR,2018-10-28T06:54:00Z,46.87,-68.02,1.1,-1.1,50,12,16,5.0,30.050198,1018.7,,TRUE,TRUE,,,,,,-FZRA BR,FEW,800,BKN,1400,OVC,1900,,,MVFR,,,,,,0.05,,,,,,METAR,191.0
KBWI 280654Z 22003KT 8SM -RA OVC075 08/08 A2974 RMK AO2 RAB00 SLP070 P0000 T00830078 $,KBWI,2018-10-28T06:54:00Z,39.17,-76.68,8.3,7.8,220,3,,8.0,29.740158,1007.0,,,TRUE,TRUE,,,,,-RA,OVC,7500,,,,,,,VFR,,,,,,0.005,,,,,,METAR,59.0
KBUY 280654Z AUTO 23006KT 10SM CLR 08/05 A2988 RMK AO2 SLP117 T00780050,KBUY,2018-10-28T06:54:00Z,36.05,-79.47,7.8,5.0,230,6,,10.0,29.878937,1011.7,,TRUE,TRUE,,,,,,,CLR,,,,,,,,VFR,,,,,,,,,,,,METAR,180.0
KBTV 280654Z 34005KT 10SM OVC004 03/02 A2969 RMK AO2 SLP056 T00280017,KBTV,2018-10-28T06:54:00Z,44.47,-73.15,2.8,1.7,340,5,,10.0,29.68996,1005.6,,,TRUE,,,,,,,OVC,400,,,,,,,LIFR,,,,,,,,,,,,METAR,105.0
KCOS 280654Z VRB04KT 10SM FEW200 08/02 A3026 RMK AO2 SLP193 T00830022 402440044,KCOS,2018-10-28T06:54:00Z,38.82,-104.68,8.3,2.2,0,4,,10.0,30.259842,1019.3,,,TRUE,,,,,,,FEW,20000,,,,,,,VFR,,,,24.4,4.4,,,,,,,METAR,1856.0
KCOU 280654Z AUTO 19006KT 10SM BKN110 12/06 A2986 RMK AO2 SLP108 T01170061,KCOU,2018-10-28T06:54:00Z,38.82,-92.22,11.7,6.1,190,6,,10.0,29.861221,1010.8,,TRUE,TRUE,,,,,,,BKN,11000,,,,,,,VFR,,,,,,,,,,,,METAR,271.0
KCRW 280654Z 23006KT 8SM -RA BKN008 OVC026 07/06 A2991 RMK AO2 SLP130 P0001 T00720061 $,KCRW,2018-10-28T06:54:00Z,38.38,-81.58,7.2,6.1,230,6,,8.0,29.911417,1013.0,,,TRUE,TRUE,,,,,-RA,BKN,800,OVC,2600,,,,,IFR,,,,,,0.01,,,,,,METAR,309.0
KDEC 280654Z 19008KT 10SM SCT110 08/05 A2988 RMK AO2 SLP119 T00830050,KDEC,2018-10-28T06:54:00Z,39.83,-88.85,8.3,5.0,190,8,,10.0,29.878937,1011.9,,,TRUE,,,,,,,SCT,11000,,,,,,,VFR,,,,,,,,,,,,METAR,207.0
KSBN 280654Z AUTO 20004KT 7SM OVC050 06/04 A2987 RMK AO2 SLP119 T00560039,KSBN,2018-10-28T06:54:00Z,41.7,-86.32,5.6,3.9,200,4,,7.0,29.870079,1011.9,,TRUE,TRUE,,,,,,,OVC,5000,,,,,,,VFR,,,,,,,,,,,,METAR,237.0
KSET 280654Z AUTO 11004KT 7SM FEW110 09/08 A2987 RMK AO2 SLP115 T00890083,KSET,2018-10-28T06:54:00Z,38.93,-90.43,8.9,8.3,110,4,,7.0,29.870079,1011.5,,TRUE,TRUE,,,,,,,FEW,11000,,,,,,,VFR,,,,,,,,,,,,METAR,134.0
KSBY 280654Z AUTO 00000KT 10SM OVC018 10/10 A2975 RMK AO2 RAE40 SLP076 P0003 T01000100,KSBY,2018-10-28T06:54:00Z,38.33,-75.5,10.0,10.0,0,0,,10.0,29.749016,1007.6,,TRUE,TRUE,,,,,,,OVC,1800,,,,,,,MVFR,,,,,,0.03,,,,,,METAR,19.0
KSJN 280654Z AUTO 18005KT 10SM CLR 08/01 A3027 RMK AO2 SLP194 T00830006 402110011,KSJN,2018-10-28T06:54:00Z,34.52,-109.38,8.3,0.6,180,5,,10.0,30.268702,1019.4,,TRUE,TRUE,,,,,,,CLR,,,,,,,,VFR,,,,21.1,1.1,,,,,,,METAR,1745.0
KSLC 280654Z 15005KT 10SM FEW220 12/03 A3014 RMK AO2 SLP173 T01170028 402330078,KSLC,2018-10-28T06:54:00Z,40.77,-111.97,11.7,2.8,150,5,,10.0,30.138779,1017.3,,,TRUE,,,,,,,FEW,22000,,,,,,,VFR,,,,23.3,7.8,,,,,,,METAR,1286.0
KSUS 280654Z 00000KT 5SM BR CLR 07/07 A2987 RMK AO2 SLP116 T00670067,KSUS,2018-10-28T06:54:00Z,38.65,-90.65,6.7,6.7,0,0,,5.0,29.870079,1011.6,,,TRUE,,,,,,BR,CLR,,,,,,,,MVFR,,,,,,,,,,,,METAR,141.0
KTAD 280654Z AUTO 02010KT 10SM CLR 12/02 A3024 RMK AO2 SLP177 T01170017 402560039,KTAD,2018-10-28T06:54:00Z,37.27,-104.33,11.7,1.7,20,10,,10.0,30.239174,1017.7,,TRUE,TRUE,,,,,,,CLR,,,,,,,,VFR,,,,25.6,3.9,,,,,,,METAR,1756.0
KTQE 280654Z AUTO 33015G22KT 10SM CLR 11/07 A2994 RMK AO2 SLP132 T01110067,KTQE,2018-10-28T06:54:00Z,41.77,-96.18,11.1,6.7,330,15,22,10.0,29.940945,1013.2,,TRUE,TRUE,,,,,,,CLR,,,,,,,,VFR,,,,,,,,,,,,METAR,312.0
KUIN 280654Z AUTO 18007KT 10SM FEW110 12/06 A2981 RMK AO2 SLP092 T01220061 $,KUIN,2018-10-28T06:54:00Z,39.95,-91.2,12.2,6.1,180,7,,10.0,29.811024,1009.2,,TRUE,TRUE,TRUE,,,,,,FEW,11000,,,,,,,VFR,,,,,,,,,,,,METAR,234.0
KVSF 280654Z AUTO 00000KT 10SM OVC015 03/03 A2968 RMK AO2 SLP056 T00280028 $,KVSF,2018-10-28T06:54:00Z,43.35,-72.52,2.8,2.8,0,0,,10.0,29.681103,1005.6,,TRUE,TRUE,TRUE,,,,,,OVC,1500,,,,,,,MVFR,,,,,,,,,,,,METAR,175.0
KAKQ 280654Z AUTO 23005KT 10SM CLR 10/08 A2980 RMK AO2 SLP091 T01000083,KAKQ,2018-10-28T06:54:00Z,36.98,-77.0,10.0,8.3,230,5,,10.0,29.799213,1009.1,,TRUE,TRUE,,,,,,,CLR,,,,,,,,VFR,,,,,,,,,,,,METAR,34.0
KALO 280654Z 24010KT 10SM SCT039 BKN047 BKN055 10/09 A2974 RMK AO2 RAE03 SLP072 P0000 T01000089,KALO,2018-10-28T06:54:00Z,42.55,-92.4,10.0,8.9,240,10,,10.0,29.740158,1007.2,,,TRUE,,,,,,,SCT,3900,BKN,4700,BKN,5500,,,VFR,,,,,,0.005,,,,,,METAR,264.0
KAPN 280654Z AUTO 31003KT 10SM -RA BKN046 BKN060 OVC080 03/02 A2985 RMK AO2 RAB45 SLP114 P0000 T00280017,KAPN,2018-10-28T06:54:00Z,45.07,-83.57,2.8,1.7,310,3,,10.0,29.84941,1011.4,,TRUE,TRUE,,,,,,-RA,BKN,4600,BKN,6000,OVC,8000,,,VFR,,,,,,0.005,,,,,,METAR,210.0
KAUW 280654Z AUTO 12008KT 6SM -RA BR OVC029 06/04 A2971 RMK AO2 RAB48 PRESFR SLP071 P0000 T00560039 TSNO $,KAUW,2018-10-28T06:54:00Z,44.93,-89.62,5.6,3.9,120,8,,6.0,29.71063,1007.1,,TRUE,TRUE,TRUE,,TRUE,,,-RA BR,OVC,2900,,,,,,,MVFR,,,,,,0.005,,,,,,METAR,362.0
KECG 280654Z AUTO 22007KT 10SM FEW041 11/09 A2982 RMK AO2 SLP097 T01060094,KECG,2018-10-28T06:54:00Z,36.27,-76.18,10.6,9.4,220,7,,10.0,29.819881,1009.7,,TRUE,TRUE,,,,,,,FEW,4100,,,,,,,VFR,,,,,,,,,,,,METAR,11.0
KDSM 280654Z 30006KT 10SM FEW085 11/09 A2981 RMK AO2 SLP093 T01060089,KDSM,2018-10-28T06:54:00Z,41.53,-93.67,10.6,8.9,300,6,,10.0,29.811024,1009.3,,,TRUE,,,,,,,FEW,8500,,,,,,,VFR,,,,,,,,,,,,METAR,295.0
KEVV 280654Z AUTO 00000KT 8SM CLR 05/04 A2997 RMK AO2 SLP149 T00500044,KEVV,2018-10-28T06:54:00Z,38.05,-87.52,5.0,4.4,0,0,,8.0,29.970472,1014.9,,TRUE,TRUE,,,,,,,CLR,,,,,,,,VFR,,,,,,,,,,,,METAR,117.0
KFFZ 280654Z AUTO 03007KT 10SM CLR 22/06 A3001 RMK AO2 SLP142 T02220056 403060172,KFFZ,2018-10-28T06:54:00Z,33.47,-111.72,22.2,5.6,30,7,,10.0,30.008858,1014.2,,TRUE,TRUE,,,,,,,CLR,,,,,,,,VFR,,,,30.6,17.2,,,,,,,METAR,424.0
KFZY 280654Z AUTO 04004KT 10SM -RA SCT018 OVC033 02/00 A2969 RMK AO2 SLP057 P0004 I1000 T00220000,KFZY,2018-10-28T06:54:00Z,43.35,-76.38,2.2,0.0,40,4,,10.0,29.68996,1005.7,,TRUE,TRUE,,,,,,-RA,SCT,1800,OVC,3300,,,,,VFR,,,,,,0.04,,,,,,METAR,138.0
KFWA 280654Z 26004KT 10SM SCT045 OVC055 07/06 A2988 RMK AO2 SLP121 T00720056,KFWA,2018-10-28T06:54:00Z,40.98,-85.18,7.2,5.6,260,4,,10.0,29.878937,1012.1,,,TRUE,,,,,,,SCT,4500,OVC,5500,,,,,VFR,,,,,,,,,,,,METAR,248.0
KGCK 280654Z AUTO 01016KT 10SM -RA CLR 11/06 A3007 RMK AO2 PK WND 04027/0607 RAE0556B44 SLP160 P0000 T01110061,KGCK,2018-10-28T06:54:00Z,37.92,-100.72,11.1,6.1,10,16,,10.0,30.070866,1016.0,,TRUE,TRUE,,,,,,-RA,CLR,,,,,,,,VFR,,,,,,0.005,,,,,,METAR,877.0
KGCN 280654Z 00000KT 10SM CLR 00/M03 A3033 RMK AO2 SLP216 T00001028 402171028,KGCN,2018-10-28T06:54:00Z,35.95,-112.15,0.0,-2.8,0,0,,10.0,30.33071,1021.6,,,TRUE,,,,,,,CLR,,,,,,,,VFR,,,,21.7,-2.8,,,,,,,METAR,2016.0
KGSO 280654Z 23006KT 10SM FEW100 06/05 A2988 RMK AO2 SLP117 T00610050,KGSO,2018-10-28T06:54:00Z,36.1,-79.95,6.1,5.0,230,6,,10.0,29.878937,1011.7,,,TRUE,,,,,,,FEW,10000,,,,,,,VFR,,,,,,,,,,,,METAR,275.0
KILN 280654Z AUTO 25005KT 6SM BR CLR 05/04 A2990 RMK AO2 SLP140 T00500039,KILN,2018-10-28T06:54:00Z,39.43,-83.8,5.0,3.9,250,5,,6.0,29.899607,1014.0,,TRUE,TRUE,,,,,,BR,CLR,,,,,,,,VFR,,,,,,,,,,,,METAR,322.0
KIMT 280654Z AUTO 12004KT 10SM OVC004 04/03 A2977 RMK AO2 SLP091 T00440033,KIMT,2018-10-28T06:54:00Z,45.82,-88.12,4.4,3.3,120,4,,10.0,29.769686,1009.1,,TRUE,TRUE,,,,,,,OVC,400,,,,,,,LIFR,,,,,,,,,,,,METAR,349.0
KIND 280654Z 22006KT 8SM BKN250 06/04 A2991 RMK AO2 SLP129 T00560044 $,KIND,2018-10-28T06:54:00Z,39.72,-86.3,5.6,4.4,220,6,,8.0,29.911417,1012.9,,,TRUE,TRUE,,,,,,BKN,25000,,,,,,,VFR,,,,,,,,,,,,METAR,241.0
KVTA 280654Z AUTO 25004KT 10SM BKN013 OVC027 06/06 A2986 RMK AO2 SLP114 T00610061 $,KVTA,2018-10-28T06:54:00Z,40.02,-82.47,6.1,6.1,250,4,,10.0,29.861221,1011.4,,TRUE,TRUE,TRUE,,,,,,BKN,1300,OVC,2700,,,,,MVFR,,,,,,,,,,,,METAR,268.0
KWAL 280654Z AUTO 00000KT 10SM BKN007 OVC014 12/10 A2976 RMK AO2 RAB06E44 CIG 006V012 SLP074 P0002 T01170100,KWAL,2018-10-28T06:54:00Z,37.93,-75.47,11.7,10.0,0,0,,10.0,29.760826,1007.4,,TRUE,TRUE,,,,,,,BKN,700,OVC,1400,,,,,IFR,,,,,,0.02,,,,,,METAR,14.0
KWLD 280654Z AUTO 20007KT 10SM CLR 14/11 A2993 RMK AO2 SLP128 T01390106,KWLD,2018-10-28T06:54:00Z,37.17,-97.03,13.9,10.6,200,7,,10.0,29.929134,1012.8,,TRUE,TRUE,,,,,,,CLR,,,,,,,,VFR,,,,,,,,,,,,METAR,350.0
PAKN 280654Z 36022G29KT 10SM SCT011 OVC019 00/M02 A2963 RMK AO2 PK WND 36030/0632 SLP033 RAB06E43 P0000 T00001022,PAKN,2018-10-28T06:54:00Z,58.68,-156.65,0.0,-2.2,360,22,29,10.0,29.630905,1003.3,,,TRUE,,,,,,,SCT,1100,OVC,1900,,,,,MVFR,,,,,,0.005,,,,,,METAR,17.0
KOFP 280654Z AUTO 23005KT 10SM OVC055 11/09 A2978 RMK AO2 SLP083 T01110089,KOFP,2018-10-28T06:54:00Z,37.7,-77.43,11.1,8.9,230,5,,10.0,29.778543,1008.3,,TRUE,TRUE,,,,,,,OVC,5500,,,,,,,VFR,,,,,,,,,,,,METAR,62.0
KOLS 280654Z AUTO 07005KT 10SM CLR 12/06 A3017 RMK AO2 SLP163 T01220061 402940078,KOLS,2018-10-28T06:54:00Z,31.42,-110.85,12.2,6.1,70,5,,10.0,30.171259,1016.3,,TRUE,TRUE,,,,,,,CLR,,,,,,,,VFR,,,,29.4,7.8,,,,,,,METAR,1184.0
KORH 280654Z AUTO 04010G18KT 2SM BR OVC003 03/03 A2962 RMK AO2 VIS 1V5 RAB14E32 SLP036 P0000 T00280028,KORH,2018-10-28T06:54:00Z,42.27,-71.87,2.8,2.8,40,10,18,2.0,29.619095,1003.6,,TRUE,TRUE,,,,,,BR,OVC,300,,,,,,,LIFR,,,,,,0.005,,,,,,METAR,304.0
KPIA 280654Z 19006KT 10SM SCT070 OVC100 09/06 A2983 RMK AO2 SLP102 T00890061 $,KPIA,2018-10-28T06:54:00Z,40.67,-89.68,8.9,6.1,190,6,,10.0,29.828741,1010.2,,,TRUE,TRUE,,,,,,SCT,7000,OVC,10000,,,,,VFR,,,,,,,,,,,,METAR,205.0
KPHF 280654Z AUTO 24010KT 10SM CLR 12/09 A2978 RMK AO2 SLP084 T01170094 $,KPHF,2018-10-28T06:54:00Z,37.13,-76.5,11.7,9.4,240,10,,10.0,29.778543,1008.4,,TRUE,TRUE,TRUE,,,,,,CLR,,,,,,,,VFR,,,,,,,,,,,,METAR,12.0
KPLN 280654Z AUTO 00000KT 10SM FEW014 OVC038 03/02 A2986 RMK AO2 SLP119 T00280022,KPLN,2018-10-28T06:54:00Z,45.57,-84.8,2.8,2.2,0,0,,10.0,29.861221,1011.9,,TRUE,TRUE,,,,,,,FEW,1400,OVC,3800,,,,,VFR,,,,,,,,,,,,METAR,217.0
KPSF 280654Z AUTO 01005KT 3SM BR SCT006 OVC012 03/02 A2963 RMK AO2 RAE14 SLP034 P0001 T00330022,KPSF,2018-10-28T06:54:00Z,42.43,-73.28,3.3,2.2,10,5,,3.0,29.630905,1003.4,,TRUE,TRUE,,,,,,BR,SCT,600,OVC,1200,,,,,MVFR,,,,,,0.01,,,,,,METAR,355.0
KRFD 280654Z 17008KT 7SM SCT065 OVC090 07/04 A2982 RMK AO2 SLP099 T00720044,KRFD,2018-10-28T06:54:00Z,42.2,-89.1,7.2,4.4,170,8,,7.0,29.819881,1009.9,,,TRUE,,,,,,,SCT,6500,OVC,9000,,,,,VFR,,,,,,,,,,,,METAR,221.0
KRIC 280654Z 25010KT 10SM SCT090 OVC120 11/08 A2977 RMK AO2 SLP085 T01110078,KRIC,2018-10-28T06:54:00Z,37.52,-77.32,11.1,7.8,250,10,,10.0,29.769686,1008.5,,,TRUE,,,,,,,SCT,9000,OVC,12000,,,,,VFR,,,,,,,,,,,,METAR,50.0
KRKS 280654Z AUTO 24010KT 10SM CLR 07/M01 A3025 RMK AO2 SLP195 T00671006 401780056,KRKS,2018-10-28T06:54:00Z,41.6,-109.07,6.7,-0.6,240,10,,10.0,30.250984,1019.5,,TRUE,TRUE,,,,,,,CLR,,,,,,,,VFR,,,,17.8,5.6,,,,,,,METAR,2060.0
KROA 280654Z 28008KT 10SM OVC039 09/03 A2986 RMK AO2 SLP108 T00940033,KROA,2018-10-28T06:54:00Z,37.32,-79.97,9.4,3.3,280,8,,10.0,29.861221,1010.8,,,TRUE,,,,,,,OVC,3900,,,,,,,VFR,,,,,,,,,,,,METAR,362.0
PHMK 280654Z AUTO 02004KT 10SM CLR 26/22 A3001 RMK AO2 SLP162 T02560217 TSNO,PHMK,2018-10-28T06:54:00Z,21.15,-157.1,25.6,21.7,20,4,,10.0,30.008858,1016.2,,TRUE,TRUE,,,TRUE,,,,CLR,,,,,,,,VFR,,,,,,,,,,,,METAR,141.0
PHOG 280654Z 06007KT 10SM FEW019 26/22 A2998 RMK AO2 SLP156 T02560217,PHOG,2018-10-28T06:54:00Z,20.9,-156.43,25.6,21.7,60,7,,10.0,29.97933,1015.6,,,TRUE,,,,,,,FEW,1900,,,,,,,VFR,,,,,,,,,,,,METAR,12.0
PGSN 280654Z AUTO A2976 RMK AO2 SLPNO PWINO TSNO $,PGSN,2018-10-28T06:54:00Z,15.12,145.72,,,,,,,29.760826,,,TRUE,TRUE,TRUE,,TRUE,,TRUE,,,,,,,,,,,,,,,,,,,,,,METAR,65.0
KAKH 280654Z AUTO 23003KT 10SM CLR 06/05 A2994 RMK AO2 SLP139 T00610050,KAKH,2018-10-28T06:54:00Z,35.2,-81.15,6.1,5.0,230,3,,10.0,29.940945,1013.9,,TRUE,TRUE,,,,,,,CLR,,,,,,,,VFR,,,,,,,,,,,,METAR,243.0
KAPC 280654Z AUTO 12003KT 10SM CLR A3005 RMK AO2 SLP169 $,KAPC,2018-10-28T06:54:00Z,38.2,-122.28,,,120,3,,10.0,30.050198,1016.9,,TRUE,TRUE,TRUE,,,,,,CLR,,,,,,,,VFR,,,,,,,,,,,,METAR,13.0
KAVL 280654Z AUTO 34013KT 10SM OVC035 09/02 A2996 RMK AO2 SLP136 T00890022 $,KAVL,2018-10-28T06:54:00Z,35.43,-82.53,8.9,2.2,340,13,,10.0,29.958662,1013.6,,TRUE,TRUE,TRUE,,,,,,OVC,3500,,,,,,,VFR,,,,,,,,,,,,METAR,670.0
KAVP 280654Z 23004KT 4SM BR OVC009 04/04 A2967 RMK AO2 SLP050 T00440039,KAVP,2018-10-28T06:54:00Z,41.33,-75.72,4.4,3.9,230,4,,4.0,29.66929,1005.0,,,TRUE,,,,,,BR,OVC,900,,,,,,,IFR,,,,,,,,,,,,SPECI,291.0
KBUF 280654Z 02003KT 5SM -DZ BR OVC005 03/03 A2974 RMK AO2 CIG 003V008 SLP076 P0000 T00330028,KBUF,2018-10-28T06:54:00Z,42.93,-78.73,3.3,2.8,20,3,,5.0,29.740158,1007.6,,,TRUE,,,,,,-DZ BR,OVC,500,,,,,,,IFR,,,,,,0.005,,,,,,SPECI,211.0
KCEU 280654Z AUTO 26005KT 10SM CLR 08/05 A2999 RMK AO2 SLP151 T00780050,KCEU,2018-10-28T06:54:00Z,34.67,-82.88,7.8,5.0,260,5,,10.0,29.991142,1015.1,,TRUE,TRUE,,,,,,,CLR,,,,,,,,VFR,,,,,,,,,,,,METAR,268.0
KEWN 280654Z AUTO 25006KT 10SM BKN080 13/11 A2988 RMK AO2 SLP119 T01280111,KEWN,2018-10-28T06:54:00Z,35.07,-77.05,12.8,11.1,250,6,,10.0,29.878937,1011.9,,TRUE,TRUE,,,,,,,BKN,8000,,,,,,,VFR,,,,,,,,,,,,METAR,3.0
KGED 280654Z AUTO 22003KT 9SM -RA FEW043 BKN060 OVC075 10/09 A2975 RMK AO2 RAB26 SLP074 P0003 T01000094 $,KGED,2018-10-28T06:54:00Z,38.68,-75.37,10.0,9.4,220,3,,9.0,29.749016,1007.4,,TRUE,TRUE,TRUE,,,,,-RA,FEW,4300,BKN,6000,OVC,7500,,,VFR,,,,,,0.03,,,,,,METAR,19.0
KHWD 280654Z AUTO 21005KT 10SM OVC007 16/14 A3007 RMK AO2 SLP192 T01610139,KHWD,2018-10-28T06:54:00Z,37.67,-122.12,16.1,13.9,210,5,,10.0,30.070866,1019.2,,TRUE,TRUE,,,,,,,OVC,700,,,,,,,IFR,,,,,,,,,,,,METAR,21.0
KINT 280654Z AUTO 00000KT 10SM CLR 07/04 A2990 RMK AO2 SLP122 T00720044,KINT,2018-10-28T06:54:00Z,36.13,-80.22,7.2,4.4,0,0,,10.0,29.899607,1012.2,,TRUE,TRUE,,,,,,,CLR,,,,,,,,VFR,,,,,,,,,,,,METAR,291.0
KJST 280654Z AUTO 27008KT 1 1/4SM -RA BR OVC003 05/04 A2969 RMK AO2 SLP064 P0002 T00500039,KJST,2018-10-28T06:54:00Z,40.32,-78.83,5.0,3.9,270,8,,1.25,29.68996,1006.4,,TRUE,TRUE,,,,,,-RA BR,OVC,300,,,,,,,LIFR,,,,,,0.02,,,,,,METAR,694.0
KMEM 280654Z 20003KT 10SM CLR 12/11 A3001 RMK AO2 SLP163 T01220111 $,KMEM,2018-10-28T06:54:00Z,35.07,-89.98,12.2,11.1,200,3,,10.0,30.008858,1016.3,,,TRUE,TRUE,,,,,,CLR,,,,,,,,VFR,,,,,,,,,,,,METAR,86.0
KMGJ 280654Z AUTO 00000KT 3SM BR OVC006 06/06 A2965 RMK AO2 RAE33 SLP043 P0001 T00610056,KMGJ,2018-10-28T06:54:00Z,41.52,-74.27,6.1,5.6,0,0,,3.0,29.648623,1004.3,,TRUE,TRUE,,,,,,BR,OVC,600,,,,,,,IFR,,,,,,0.01,,,,,,METAR,108.0
KMIV 280654Z AUTO 26005KT 10SM OVC065 08/07 A2974 RMK AO2 SLP068 T00780072,KMIV,2018-10-28T06:54:00Z,39.37,-75.08,7.8,7.2,260,5,,10.0,29.740158,1006.8,,TRUE,TRUE,,,,,,,OVC,6500,,,,,,,VFR,,,,,,,,,,,,METAR,23.0
KMRY 280654Z AUTO 00000KT 10SM CLR 14/11 A3007 RMK AO2 SLP193 T01390111,KMRY,2018-10-28T06:54:00Z,36.58,-121.85,13.9,11.1,0,0,,10.0,30.070866,1019.3,,TRUE,TRUE,,,,,,,CLR,,,,,,,,VFR,,,,,,,,,,,,METAR,66.0
KOLM 280654Z AUTO 00000KT 5SM -RA BR FEW022 BKN049 OVC065 11/10 A2976 RMK AO2 SLP077 P0005 T01060100,KOLM,2018-10-28T06:54:00Z,46.97,-122.9,10.6,10.0,0,0,,5.0,29.760826,1007.7,,TRUE,TRUE,,,,,,-RA BR,FEW,2200,BKN,4900,OVC,6500,,,MVFR,,,,,,0.05,,,,,,METAR,58.0
KPHL 280654Z 24006KT 10SM BKN015 BKN080 08/07 A2972 RMK AO2 SLP065 T00780067,KPHL,2018-10-28T06:54:00Z,39.87,-75.23,7.8,6.7,240,6,,10.0,29.719488,1006.5,,,TRUE,,,,,,,BKN,1500,BKN,8000,,,,,MVFR,,,,,,,,,,,,SPECI,18.0
KPTW 280654Z AUTO 00000KT 9SM OVC014 07/06 A2971 RMK AO2 SLP061 T00670061,KPTW,2018-10-28T06:54:00Z,40.23,-75.55,6.7,6.1,0,0,,9.0,29.71063,1006.1,,TRUE,TRUE,,,,,,,OVC,1400,,,,,,,MVFR,,,,,,,,,,,,METAR,92.0
KRBL 280654Z AUTO 31004KT 10SM CLR 13/08 A3000 RMK AO2 SLP156 T01330083,KRBL,2018-10-28T06:54:00Z,40.15,-122.25,13.3,8.3,310,4,,10.0,30.0,1015.6,,TRUE,TRUE,,,,,,,CLR,,,,,,,,VFR,,,,,,,,,,,,METAR,104.0
KRDG 280654Z AUTO 25004KT 2SM BR BKN013 OVC080 07/07 A2970 RMK AO2 SFC VIS 10 SLP062 T00720067,KRDG,2018-10-28T06:54:00Z,40.37,-75.97,7.2,6.7,250,4,,2.0,29.698818,1006.2,,TRUE,TRUE,,,,,,BR,BKN,1300,OVC,8000,,,,,IFR,,,,,,,,,,,,METAR,109.0
KROC 280654Z 35007KT 8SM -RA FEW007 OVC016 05/04 A2971 RMK AO2 SLP068 P0001 T00500044,KROC,2018-10-28T06:54:00Z,43.12,-77.68,5.0,4.4,350,7,,8.0,29.71063,1006.8,,,TRUE,,,,,,-RA,FEW,700,OVC,1600,,,,,MVFR,,,,,,0.01,,,,,,SPECI,178.0
KUZA 280654Z AUTO 28004KT 10SM CLR 07/06 A2995 RMK AO2 SLP140 T00720056,KUZA,2018-10-28T06:54:00Z,34.98,-81.05,7.2,5.6,280,4,,10.0,29.949802,1014.0,,TRUE,TRUE,,,,,,,CLR,,,,,,,,VFR,,,,,,,,,,,,METAR,202.0
KVAY 280654Z AUTO 00000KT 10SM OVC018 08/08 A2972 RMK AO2 SLP062 T00780078,KVAY,2018-10-28T06:54:00Z,39.93,-74.83,7.8,7.8,0,0,,10.0,29.719488,1006.2,,TRUE,TRUE,,,,,,,OVC,1800,,,,,,,MVFR,,,,,,,,,,,,SPECI,15.0
KMOT 280654Z AUTO 27014KT 10SM OVC080 07/M02 A2992 RMK AO2 SLP143 T00671022,KMOT,2018-10-28T06:54:00Z,48.25,-101.27,6.7,-2.2,270,14,,10.0,29.920275,1014.3,,TRUE,TRUE,,,,,,,OVC,8000,,,,,,,VFR,,,,,,,,,,,,METAR,519.0
KLWV 280653Z AUTO 17003KT 8SM CLR 05/04 A2994 RMK AO2 SLP140 T00500039 $,KLWV,2018-10-28T06:53:00Z,38.77,-87.6,5.0,3.9,170,3,,8.0,29.940945,1014.0,,TRUE,TRUE,TRUE,,,,,,CLR,,,,,,,,VFR,,,,,,,,,,,,METAR,131.0
KLWD 280653Z AUTO 26012KT 10SM CLR 13/06 A2980 RMK AO2 SLP088 T01330056,KLWD,2018-10-28T06:53:00Z,40.63,-93.9,13.3,5.6,260,12,,10.0,29.799213,1008.8,,TRUE,TRUE,,,,,,,CLR,,,,,,,,VFR,,,,,,,,,,,,METAR,346.0
KLVS 280653Z AUTO 04007KT 10SM CLR 07/M02 A3028 RMK AO2 SLP176 T00721017 402110022,KLVS,2018-10-28T06:53:00Z,35.65,-105.13,7.2,-1.7,40,7,,10.0,30.280512,1017.6,,TRUE,TRUE,,,,,,,CLR,,,,,,,,VFR,,,,21.1,2.2,,,,,,,METAR,2091.0
KLVJ 280653Z AUTO VRB03KT 10SM CLR 18/18 A3012 RMK AO2 SLP198 T01830178,KLVJ,2018-10-28T06:53:00Z,29.52,-95.25,18.3,17.8,0,3,,10.0,30.121063,1019.8,,TRUE,TRUE,,,,,,,CLR,,,,,,,,VFR,,,,,,,,,,,,METAR,12.0
KLUK 280653Z AUTO 00000KT 10SM SCT047 BKN055 OVC070 09/07 A2994 RMK AO2 SLP139 T00890067,KLUK,2018-10-28T06:53:00Z,39.1,-84.42,8.9,6.7,0,0,,10.0,29.940945,1013.9,,TRUE,TRUE,,,,,,,SCT,4700,BKN,5500,OVC,7000,,,VFR,,,,,,,,,,,,METAR,155.0
KLOZ 280653Z AUTO 24006KT 10SM OVC050 08/07 A3000 RMK AO2 SLP158 T00830067,KLOZ,2018-10-28T06:53:00Z,37.08,-84.07,8.3,6.7,240,6,,10.0,30.0,1015.8,,TRUE,TRUE,,,,,,,OVC,5000,,,,,,,VFR,,,,,,,,,,,,METAR,362.0
KLOU 280653Z AUTO 22006KT 8SM CLR 08/06 A2997 RMK AO2 SLP148 T00780061,KLOU,2018-10-28T06:53:00Z,38.22,-85.67,7.8,6.1,220,6,,8.0,29.970472,1014.8,,TRUE,TRUE,,,,,,,CLR,,,,,,,,VFR,,,,,,,,,,,,METAR,164.0
KLHX 280653Z AUTO 03007KT 10SM CLR 10/05 A3019 RMK AO2 SLP183 T01000050 402720056 $,KLHX,2018-10-28T06:53:00Z,38.05,-103.52,10.0,5.0,30,7,,10.0,30.188976,1018.3,,TRUE,TRUE,TRUE,,,,,,CLR,,,,,,,,VFR,,,,27.2,5.6,,,,,,,METAR,1277.0
PAKV 280653Z AUTO 23005KT 10SM OVC040 M07/M09 A2986 RMK SLP117 T10671089 TSNO VIA AUTODIAL,PAKV,2018-10-28T06:53:00Z,64.33,-158.75,-6.7,-8.9,230,5,,10.0,29.861221,1011.7,,TRUE,,,,TRUE,,,,OVC,4000,,,,,,,VFR,,,,,,,,,,,,SPECI,61.0
PAQT 280653Z AUTO 24004KT 1/4SM FZFG VV002 M15/M16 A2980 RMK SLP092 I1000 T11501156 TSNO VIA AUTODIAL,PAQT,2018-10-28T06:53:00Z,70.22,-151.0,-15.0,-15.6,240,4,,0.25,29.799213,1009.2,,TRUE,,,,TRUE,,,FZFG,OVX,0,,,,,,,LIFR,,,,,,,,,,,200,SPECI,12.0
PANT 280653Z AUTO 10010G21KT 10SM FEW075 OVC100 12/M01 A2934 RMK SLP935 T01221011 TSNO VIA AUTODIAL,PANT,2018-10-28T06:53:00Z,55.03,-131.57,12.2,-1.1,100,10,21,10.0,29.338583,993.5,,TRUE,,,,TRUE,,,,FEW,7500,OVC,10000,,,,,VFR,,,,,,,,,,,,SPECI,36.0
PABR 280653Z AUTO 04011KT 1 1/4SM -SN BR OVC013 M07/M08 A2981 RMK SNB18 SLP095 P0001 T10671078 TSNO VIA AUTODIAL,PABR,2018-10-28T06:53:00Z,71.28,-156.77,-6.7,-7.8,40,11,,1.25,29.811024,1009.5,,TRUE,,,,TRUE,,,-SN BR,OVC,1300,,,,,,,IFR,,,,,,0.01,,,,,,SPECI,7.0
KMAF 280653Z AUTO 19008KT 10SM CLR 16/13 A3012 RMK AO2 SLP161 T01610133,KMAF,2018-10-28T06:53:00Z,31.95,-102.2,16.1,13.3,190,8,,10.0,30.121063,1016.1,,TRUE,TRUE,,,,,,,CLR,,,,,,,,VFR,,,,,,,,,,,,METAR,874.0
KLXV 280653Z AUTO 04004KT 10SM FEW049 M01/M04 A3042 RMK AO2 SLP195 T10111044 401171039,KLXV,2018-10-28T06:53:00Z,39.23,-106.32,-1.1,-4.4,40,4,,10.0,30.41929,1019.5,,TRUE,TRUE,,,,,,,FEW,4900,,,,,,,VFR,,,,11.7,-3.9,,,,,,,METAR,3028.0
KMCB 280653Z AUTO 00000KT 10SM CLR 13/10 A3011 RMK AO2 SLP192 T01280100,KMCB,2018-10-28T06:53:00Z,31.18,-90.47,12.8,10.0,0,0,,10.0,30.109253,1019.2,,TRUE,TRUE,,,,,,,CLR,,,,,,,,VFR,,,,,,,,,,,,METAR,124.0
KMCI 280653Z 25007KT 10SM FEW110 14/07 A2986 RMK AO2 SLP106 T01390067 $,KMCI,2018-10-28T06:53:00Z,39.3,-94.73,13.9,6.7,250,7,,10.0,29.861221,1010.6,,,TRUE,TRUE,,,,,,FEW,11000,,,,,,,VFR,,,,,,,,,,,,METAR,320.0
KDGW 280653Z AUTO 00000KT 10SM BKN120 03/01 A3017 RMK AO2 SLP185 T00330006 402220011,KDGW,2018-10-28T06:53:00Z,42.8,-105.38,3.3,0.6,0,0,,10.0,30.171259,1018.5,,TRUE,TRUE,,,,,,,BKN,12000,,,,,,,VFR,,,,22.2,1.1,,,,,,,METAR,1499.0
KMCK 280653Z AUTO 29005KT 10SM CLR 07/04 A3012 RMK AO2 SLP190 T00720039,KMCK,2018-10-28T06:53:00Z,40.2,-100.58,7.2,3.9,290,5,,10.0,30.121063,1019.0,,TRUE,TRUE,,,,,,,CLR,,,,,,,,VFR,,,,,,,,,,,,METAR,782.0
KDHT 280653Z AUTO 29006KT 10SM CLR 09/05 A3009 RMK AO2 SLP151 T00890050,KDHT,2018-10-28T06:53:00Z,36.02,-102.55,8.9,5.0,290,6,,10.0,30.088583,1015.1,,TRUE,TRUE,,,,,,,CLR,,,,,,,,VFR,,,,,,,,,,,,METAR,1217.0
KDMN 280653Z AUTO 30006KT 10SM CLR 11/06 A3022 RMK AO2 SLP181 T01060061 402440050,KDMN,2018-10-28T06:53:00Z,32.27,-107.72,10.6,6.1,300,6,,10.0,30.221457,1018.1,,TRUE,TRUE,,,,,,,CLR,,,,,,,,VFR,,,,24.4,5.0,,,,,,,METAR,1311.0
KDRO 280653Z AUTO 00000KT 10SM CLR 03/00 A3032 RMK AO2 SLP234 T00330000 401781022,KDRO,2018-10-28T06:53:00Z,37.15,-107.77,3.3,0.0,0,0,,10.0,30.318897,1023.4,,TRUE,TRUE,,,,,,,CLR,,,,,,,,VFR,,,,17.8,-2.2,,,,,,,METAR,2035.0
KDMO 280653Z AUTO 21012KT 10SM FEW120 14/07 A2985 RMK AO2 SLP104 T01440072,KDMO,2018-10-28T06:53:00Z,38.72,-93.17,14.4,7.2,210,12,,10.0,29.84941,1010.4,,TRUE,TRUE,,,,,,,FEW,12000,,,,,,,VFR,,,,,,,,,,,,METAR,274.0
KDRT 280653Z AUTO 09007KT 10SM CLR 17/16 A3010 RMK AO2 SLP181 T01670156,KDRT,2018-10-28T06:53:00Z,29.37,-100.92,16.7,15.6,90,7,,10.0,30.100393,1018.1,,TRUE,TRUE,,,,,,,CLR,,,,,,,,VFR,,,,,,,,,,,,METAR,313.0
KDTO 280653Z AUTO 00000KT 10SM CLR 13/12 A3001 RMK AO2 SLP157 T01330122,KDTO,2018-10-28T06:53:00Z,33.2,-97.2,13.3,12.2,0,0,,10.0,30.008858,1015.7,,TRUE,TRUE,,,,,,,CLR,,,,,,,,VFR,,,,,,,,,,,,METAR,196.0
KDTN 280653Z AUTO 00000KT 9SM CLR 16/15 A3004 RMK AO2 SLP171 T01610150,KDTN,2018-10-28T06:53:00Z,32.55,-93.75,16.1,15.0,0,0,,9.0,30.041338,1017.1,,TRUE,TRUE,,,,,,,CLR,,,,,,,,VFR,,,,,,,,,,,,METAR,53.0
KMGM 280653Z AUTO 19003KT 3SM BR CLR 09/08 A3011 RMK AO2 SLP196 T00890083 TSNO,KMGM,2018-10-28T06:53:00Z,32.3,-86.4,8.9,8.3,190,3,,3.0,30.109253,1019.6,,TRUE,TRUE,,,TRUE,,,BR,CLR,,,,,,,,MVFR,,,,,,,,,,,,METAR,63.0
KMFR 280653Z AUTO 33011KT 9SM -RA BKN055 OVC070 16/11 A3001 RMK AO2 RAB40 SLP158 P0000 T01560111,KMFR,2018-10-28T06:53:00Z,42.38,-122.87,15.6,11.1,330,11,,9.0,30.008858,1015.8,,TRUE,TRUE,,,,,,-RA,BKN,5500,OVC,7000,,,,,VFR,,,,,,0.005,,,,,,METAR,396.0
KMCO 280653Z 36005KT 10SM BKN230 15/11 A3008 RMK AO2 SLP183 T01500111,KMCO,2018-10-28T06:53:00Z,28.42,-81.33,15.0,11.1,360,5,,10.0,30.079725,1018.3,,,TRUE,,,,,,,BKN,23000,,,,,,,VFR,,,,,,,,,,,,METAR,29.0
KMCN 280653Z AUTO 28006KT 10SM CLR 09/08 A3007 RMK AO2 SLP182 T00890078,KMCN,2018-10-28T06:53:00Z,32.68,-83.65,8.9,7.8,280,6,,10.0,30.070866,1018.2,,TRUE,TRUE,,,,,,,CLR,,,,,,,,VFR,,,,,,,,,,,,METAR,109.0
KMCE 280653Z AUTO 35005KT 8SM CLR 16/11 A3001 RMK AO2 SLP160 T01610111,KMCE,2018-10-28T06:53:00Z,37.28,-120.5,16.1,11.1,350,5,,8.0,30.008858,1016.0,,TRUE,TRUE,,,,,,,CLR,,,,,,,,VFR,,,,,,,,,,,,METAR,47.0
KJEF 280653Z AUTO 13004KT 10SM FEW110 11/07 A2986 RMK AO2 SLP102 T01110067,KJEF,2018-10-28T06:53:00Z,38.6,-92.15,11.1,6.7,130,4,,10.0,29.861221,1010.2,,TRUE,TRUE,,,,,,,FEW,11000,,,,,,,VFR,,,,,,,,,,,,METAR,168.0
KMBS 280653Z AUTO 32006KT 5SM BR OVC006 04/03 A2985 RMK AO2 SLP113 T00440033,KMBS,2018-10-28T06:53:00Z,43.53,-84.08,4.4,3.3,320,6,,5.0,29.84941,1011.3,,TRUE,TRUE,,,,,,BR,OVC,600,,,,,,,IFR,,,,,,,,,,,,METAR,202.0
KMAE 280653Z AUTO 00000KT 6SM HZ CLR 17/11 A3002 RMK AO2 SLP164 T01670106,KMAE,2018-10-28T06:53:00Z,36.98,-120.12,16.7,10.6,0,0,,6.0,30.02067,1016.4,,TRUE,TRUE,,,,,,HZ,CLR,,,,,,,,VFR,,,,,,,,,,,,METAR,77.0
KLVM 280653Z AUTO 33008KT 10SM CLR 01/M02 A3012 RMK AO2 SLP206 T00061017 401560000,KLVM,2018-10-28T06:53:00Z,45.7,-110.43,0.6,-1.7,330,8,,10.0,30.121063,1020.6,,TRUE,TRUE,,,,,,,CLR,,,,,,,,VFR,,,,15.6,,,,,,,,METAR,1418.0
KLVK 280653Z AUTO 26007KT 10SM CLR 14/13 A3006 RMK AO2 SLP178 T01390128,KLVK,2018-10-28T06:53:00Z,37.7,-121.82,13.9,12.8,260,7,,10.0,30.059055,1017.8,,TRUE,TRUE,,,,,,,CLR,,,,,,,,VFR,,,,,,,,,,,,METAR,117.0
KLPR 280653Z AUTO 28010KT 10SM SCT009 OVC015 06/03 A2982 RMK AO2 RAE19 SLP101 P0000 T00560028,KLPR,2018-10-28T06:53:00Z,41.35,-82.18,5.6,2.8,280,10,,10.0,29.819881,1010.1,,TRUE,TRUE,,,,,,,SCT,900,OVC,1500,,,,,MVFR,,,,,,0.005,,,,,,METAR,241.0
KLOL 280653Z AUTO 00000KT 10SM CLR 07/M03 A3007 RMK AO2 SLP168 T00671033,KLOL,2018-10-28T06:53:00Z,40.07,-118.57,6.7,-3.3,0,0,,10.0,30.070866,1016.8,,TRUE,TRUE,,,,,,,CLR,,,,,,,,VFR,,,,,,,,,,,,METAR,1189.0
KLND 280653Z AUTO 21003KT 10SM CLR 04/00 A3018 RMK AO2 SLP185 T00440000 402060039,KLND,2018-10-28T06:53:00Z,42.82,-108.73,4.4,0.0,210,3,,10.0,30.180119,1018.5,,TRUE,TRUE,,,,,,,CLR,,,,,,,,VFR,,,,20.6,3.9,,,,,,,METAR,1694.0
KLMT 280653Z AUTO 21010KT 10SM CLR 12/04 A3004 RMK AO2 SLP150 T01220044 $,KLMT,2018-10-28T06:53:00Z,42.15,-121.72,12.2,4.4,210,10,,10.0,30.041338,1015.0,,TRUE,TRUE,TRUE,,,,,,CLR,,,,,,,,VFR,,,,,,,,,,,,METAR,1246.0
KLLQ 280653Z AUTO 24006KT 10SM CLR 17/14 A3004 RMK AO2 SLP170 T01720144 $,KLLQ,2018-10-28T06:53:00Z,33.63,-91.75,17.2,14.4,240,6,,10.0,30.041338,1017.0,,TRUE,TRUE,TRUE,,,,,,CLR,,,,,,,,VFR,,,,,,,,,,,,METAR,83.0
KLIT 280653Z 23004KT 10SM CLR 12/11 A3001 RMK AO2 SLP164 T01170111,KLIT,2018-10-28T06:53:00Z,34.73,-92.23,11.7,11.1,230,4,,10.0,30.008858,1016.4,,,TRUE,,,,,,,CLR,,,,,,,,VFR,,,,,,,,,,,,METAR,79.0
KJER 280653Z AUTO 07009KT 10SM CLR 11/06 A3008 RMK AO2 SLP172 T01110056 401890083,KJER,2018-10-28T06:53:00Z,42.72,-114.45,11.1,5.6,70,9,,10.0,30.079725,1017.2,,TRUE,TRUE,,,,,,,CLR,,,,,,,,VFR,,,,18.9,8.3,,,,,,,METAR,1222.0
KDUJ 280653Z AUTO 00000KT 4SM BR BKN003 OVC018 02/02 A2970 RMK AO2 SLP066 T00220017 $,KDUJ,2018-10-28T06:53:00Z,41.17,-78.9,2.2,1.7,0,0,,4.0,29.698818,1006.6,,TRUE,TRUE,TRUE,,,,,BR,BKN,300,OVC,1800,,,,,LIFR,,,,,,,,,,,,METAR,554.0
KENW 280653Z AUTO 17006KT 4SM BR SCT042 06/06 A2982 RMK AO2 SLP100 T00610056,KENW,2018-10-28T06:53:00Z,42.6,-87.93,6.1,5.6,170,6,,4.0,29.819881,1010.0,,TRUE,TRUE,,,,,,BR,SCT,4200,,,,,,,MVFR,,,,,,,,,,,,METAR,219.0
KEMP 280653Z AUTO 30013G22KT 6SM HZ CLR 17/09 A2990 RMK AO2 SLP120 T01670094,KEMP,2018-10-28T06:53:00Z,38.33,-96.2,16.7,9.4,300,13,22,6.0,29.899607,1012.0,,TRUE,TRUE,,,,,,HZ,CLR,,,,,,,,VFR,,,,,,,,,,,,METAR,367.0
KELD 280653Z AUTO 00000KT 10SM CLR 12/11 A3005 RMK AO2 SLP174 T01170111,KELD,2018-10-28T06:53:00Z,33.22,-92.82,11.7,11.1,0,0,,10.0,30.050198,1017.4,,TRUE,TRUE,,,,,,,CLR,,,,,,,,VFR,,,,,,,,,,,,METAR,81.0
KEEO 280653Z AUTO 05003KT 10SM CLR 03/M01 A3028 RMK AO2 SLP211 T00281011 402001017,KEEO,2018-10-28T06:53:00Z,40.05,-107.88,2.8,-1.1,50,3,,10.0,30.280512,1021.1,,TRUE,TRUE,,,,,,,CLR,,,,,,,,VFR,,,,20.0,-1.7,,,,,,,METAR,1930.0
KDWH 280653Z AUTO 22004KT 10SM CLR 18/16 A3010 RMK AO2 SLP190 T01780161,KDWH,2018-10-28T06:53:00Z,30.07,-95.55,17.8,16.1,220,4,,10.0,30.100393,1019.0,,TRUE,TRUE,,,,,,,CLR,,,,,,,,VFR,,,,,,,,,,,,METAR,46.0
KFLD 280653Z AUTO 15009KT 8SM SCT042 BKN055 07/04 A2977 RMK AO2 SLP087 T00670039 $,KFLD,2018-10-28T06:53:00Z,43.77,-88.48,6.7,3.9,150,9,,8.0,29.769686,1008.7,,TRUE,TRUE,TRUE,,,,,,SCT,4200,BKN,5500,,,,,VFR,,,,,,,,,,,,METAR,240.0
KFFT 280653Z AUTO 24006KT 9SM SCT075 08/06 A2995 RMK AO2 SLP144 T00780056,KFFT,2018-10-28T06:53:00Z,38.18,-84.9,7.8,5.6,240,6,,9.0,29.949802,1014.4,,TRUE,TRUE,,,,,,,SCT,7500,,,,,,,VFR,,,,,,,,,,,,METAR,236.0
KFDR 280653Z AUTO 20005KT 10SM CLR 15/13 A2998 RMK AO2 SLP140 T01500128 $,KFDR,2018-10-28T06:53:00Z,34.35,-98.98,15.0,12.8,200,5,,10.0,29.97933,1014.0,,TRUE,TRUE,TRUE,,,,,,CLR,,,,,,,,VFR,,,,,,,,,,,,METAR,386.0
KAEX 280653Z 22005KT 10SM CLR 16/14 A3007 RMK AO2 SLP184 T01610139,KAEX,2018-10-28T06:53:00Z,31.33,-92.57,16.1,13.9,220,5,,10.0,30.070866,1018.4,,,TRUE,,,,,,,CLR,,,,,,,,VFR,,,,,,,,,,,,METAR,27.0
KACK 280653Z AUTO 22019G27KT 5SM BR BKN015 OVC020 13/12 A2966 RMK AO2 PK WND 22027/0653 SLP044 T01330122,KACK,2018-10-28T06:53:00Z,41.25,-70.07,13.3,12.2,220,19,27,5.0,29.660433,1004.4,,TRUE,TRUE,,,,,,BR,BKN,1500,OVC,2000,,,,,MVFR,,,,,,,,,,,,METAR,16.0
KGEZ 280653Z AUTO 21006KT 7SM CLR 06/04 A2991 RMK AO2 SLP130 T00610039,KGEZ,2018-10-28T06:53:00Z,39.58,-85.8,6.1,3.9,210,6,,7.0,29.911417,1013.0,,TRUE,TRUE,,,,,,,CLR,,,,,,,,VFR,,,,,,,,,,,,METAR,245.0
KGCC 280653Z AUTO 25007KT 10SM CLR 03/M01 A3012 RMK AO2 SLP204 T00331011 401440017,KGCC,2018-10-28T06:53:00Z,44.33,-105.55,3.3,-1.1,250,7,,10.0,30.121063,1020.4,,TRUE,TRUE,,,,,,,CLR,,,,,,,,VFR,,,,14.4,1.7,,,,,,,METAR,1320.0
KGAG 280653Z AUTO 24006KT 10SM CLR 10/06 A2999 RMK AO2 SLP140 T01000061,KGAG,2018-10-28T06:53:00Z,36.3,-99.77,10.0,6.1,240,6,,10.0,29.991142,1014.0,,TRUE,TRUE,,,,,,,CLR,,,,,,,,VFR,,,,,,,,,,,,METAR,668.0
KFVE 280653Z AUTO 05013G22KT 3SM UP FEW008 OVC050 M01/M04 A3008 RMK AO2 UPB52SNE52 SLP194 P0010 T10061039,KFVE,2018-10-28T06:53:00Z,47.28,-68.3,-0.6,-3.9,50,13,22,3.0,30.079725,1019.4,,TRUE,TRUE,,,,,,UP,FEW,800,OVC,5000,,,,,MVFR,,,,,,0.1,,,,,,METAR,301.0
KFUL 280653Z AUTO 00000KT 5SM HZ CLR 17/14 A3000 RMK AO2 SLP156 T01670139,KFUL,2018-10-28T06:53:00Z,33.87,-117.98,16.7,13.9,0,0,,5.0,30.0,1015.6,,TRUE,TRUE,,,,,,HZ,CLR,,,,,,,,MVFR,,,,,,,,,,,,METAR,35.0
KFTW 280653Z 22003KT 10SM CLR 18/13 A3001 RMK AO2 SLP156 T01830128,KFTW,2018-10-28T06:53:00Z,32.83,-97.37,18.3,12.8,220,3,,10.0,30.008858,1015.6,,,TRUE,,,,,,,CLR,,,,,,,,VFR,,,,,,,,,,,,METAR,214.0
KFST 280653Z AUTO 20010KT 10SM CLR 15/10 A3013 RMK AO2 SLP165 T01500100,KFST,2018-10-28T06:53:00Z,30.92,-102.92,15.0,10.0,200,10,,10.0,30.129921,1016.5,,TRUE,TRUE,,,,,,,CLR,,,,,,,,VFR,,,,,,,,,,,,METAR,918.0
KFOE 280653Z AUTO 31008KT 10SM CLR 16/08 A2990 RMK AO2 PK WND 32029/0611 WSHFT 0610 SLP118 T01610083 TSNO,KFOE,2018-10-28T06:53:00Z,38.93,-95.65,16.1,8.3,310,8,,10.0,29.899607,1011.8,,TRUE,TRUE,,,TRUE,,,,CLR,,,,,,,,VFR,,,,,,,,,,,,METAR,320.0
KFNB 280653Z AUTO 32015G24KT 10SM CLR 15/07 A2989 RMK AO2 PK WND 33028/0631 SLP117 T01500072,KFNB,2018-10-28T06:53:00Z,40.07,-95.58,15.0,7.2,320,15,24,10.0,29.890747,1011.7,,TRUE,TRUE,,,,,,,CLR,,,,,,,,VFR,,,,,,,,,,,,METAR,300.0
KFMN 280653Z AUTO 10006KT 10SM CLR 07/M02 A3027 RMK AO2 SLP229 T00671022 402000011,KFMN,2018-10-28T06:53:00Z,36.75,-108.23,6.7,-2.2,100,6,,10.0,30.268702,1022.9,,TRUE,TRUE,,,,,,,CLR,,,,,,,,VFR,,,,20.0,1.1,,,,,,,METAR,1685.0
KLAR 280653Z AUTO 00000KT 10SM CLR 03/M01 A3023 RMK AO2 SLP169 T00331006 401720017,KLAR,2018-10-28T06:53:00Z,41.32,-105.67,3.3,-0.6,0,0,,10.0,30.230314,1016.9,,TRUE,TRUE,,,,,,,CLR,,,,,,,,VFR,,,,17.2,1.7,,,,,,,METAR,2216.0
KJLN 280653Z AUTO 20009KT 10SM CLR 15/08 A2992 RMK AO2 SLP125 T01500083,KJLN,2018-10-28T06:53:00Z,37.15,-94.5,15.0,8.3,200,9,,10.0,29.920275,1012.5,,TRUE,TRUE,,,,,,,CLR,,,,,,,,VFR,,,,,,,,,,,,METAR,299.0
KJKL 280653Z AUTO VRB04KT 5SM BR FEW030 OVC049 07/06 A2996 RMK AO2 SLP145 T00720061,KJKL,2018-10-28T06:53:00Z,37.6,-83.32,7.2,6.1,0,4,,5.0,29.958662,1014.5,,TRUE,TRUE,,,,,,BR,FEW,3000,OVC,4900,,,,,MVFR,,,,,,,,,,,,METAR,416.0
KLAA 280653Z AUTO 05006KT 10SM CLR 11/05 A3015 RMK AO2 SLP175 T01060050 402720022,KLAA,2018-10-28T06:53:00Z,38.07,-102.68,10.6,5.0,50,6,,10.0,30.15059,1017.5,,TRUE,TRUE,,,,,,,CLR,,,,,,,,VFR,,,,27.2,2.2,,,,,,,METAR,1119.0
KAOH 280653Z AUTO 27005KT 10SM OVC035 06/05 A2987 RMK AO2 SLP119 T00610050,KAOH,2018-10-28T06:53:00Z,40.7,-84.02,6.1,5.0,270,5,,10.0,29.870079,1011.9,,TRUE,TRUE,,,,,,,OVC,3500,,,,,,,VFR,,,,,,,,,,,,METAR,296.0
KAMA 280653Z AUTO 24011KT 10SM CLR 14/05 A3007 RMK AO2 SLP143 T01440050,KAMA,2018-10-28T06:53:00Z,35.22,-101.72,14.4,5.0,240,11,,10.0,30.070866,1014.3,,TRUE,TRUE,,,,,,,CLR,,,,,,,,VFR,,,,,,,,,,,,METAR,1093.0
KAKO 280653Z AUTO 27008KT 10SM CLR 04/02 A3021 RMK AO2 SLP202 T00390022 402560033,KAKO,2018-10-28T06:53:00Z,40.17,-103.22,3.9,2.2,270,8,,10.0,30.209646,1020.2,,TRUE,TRUE,,,,,,,CLR,,,,,,,,VFR,,,,25.6,3.3,,,,,,,METAR,1421.0
KAIA 280653Z AUTO 25008KT 10SM CLR 01/00 A3017 RMK AO2 SLP198 T00060000 402671017,KAIA,2018-10-28T06:53:00Z,42.05,-102.8,0.6,0.0,250,8,,10.0,30.171259,1019.8,,TRUE,TRUE,,,,,,,CLR,,,,,,,,VFR,,,,26.7,-1.7,,,,,,,METAR,1196.0
KAFW 280653Z 24006KT 10SM CLR 17/13 A3001 RMK AO2 SLP153 T01720133,KAFW,2018-10-28T06:53:00Z,32.97,-97.32,17.2,13.3,240,6,,10.0,30.008858,1015.3,,,TRUE,,,,,,,CLR,,,,,,,,VFR,,,,,,,,,,,,METAR,233.0
KLEE 280653Z AUTO 35006KT 10SM CLR 14/11 A3009 RMK AO2 SLP189 T01440111,KLEE,2018-10-28T06:53:00Z,28.82,-81.82,14.4,11.1,350,6,,10.0,30.088583,1018.9,,TRUE,TRUE,,,,,,,CLR,,,,,,,,VFR,,,,,,,,,,,,METAR,23.0
KLAN 280653Z 30003KT 10SM OVC006 04/03 A2986 RMK AO2 SLP117 T00390028,KLAN,2018-10-28T06:53:00Z,42.78,-84.58,3.9,2.8,300,3,,10.0,29.861221,1011.7,,,TRUE,,,,,,,OVC,600,,,,,,,IFR,,,,,,,,,,,,METAR,264.0
KAUG 280653Z AUTO 03013G21KT 4SM -RA BR OVC006 02/02 A2977 RMK AO2 RAB11E23B41 SLP086 P0000 I1000 T00170017 $,KAUG,2018-10-28T06:53:00Z,44.32,-69.8,1.7,1.7,30,13,21,4.0,29.769686,1008.6,,TRUE,TRUE,TRUE,,,,,-RA BR,OVC,600,,,,,,,IFR,,,,,,0.005,,,,,,METAR,109.0
KASE 280653Z AUTO 21006KT 10SM CLR 01/M03 A3035 RMK AO2 SLP205 T00111028 401781028,KASE,2018-10-28T06:53:00Z,39.23,-106.87,1.1,-2.8,210,6,,10.0,30.351377,1020.5,,TRUE,TRUE,,,,,,,CLR,,,,,,,,VFR,,,,17.8,-2.8,,,,,,,METAR,2354.0
KASD 280653Z AUTO 00000KT 10SM CLR 13/12 A3011 RMK AO2 SLP195 T01330117,KASD,2018-10-28T06:53:00Z,30.35,-89.82,13.3,11.7,0,0,,10.0,30.109253,1019.5,,TRUE,TRUE,,,,,,,CLR,,,,,,,,VFR,,,,,,,,,,,,METAR,9.0
KARA 280653Z AUTO 18003KT 10SM CLR 14/13 A3012 RMK AO2 SLP197 T01390128,KARA,2018-10-28T06:53:00Z,30.03,-91.88,13.9,12.8,180,3,,10.0,30.121063,1019.7,,TRUE,TRUE,,,,,,,CLR,,,,,,,,VFR,,,,,,,,,,,,METAR,18.0
KAPA 280653Z 13004KT 10SM FEW220 06/02 A3026 RMK AO2 SLP216 T00560022 402220056,KAPA,2018-10-28T06:53:00Z,39.57,-104.85,5.6,2.2,130,4,,10.0,30.259842,1021.6,,,TRUE,,,,,,,FEW,22000,,,,,,,VFR,,,,22.2,5.6,,,,,,,METAR,1775.0
KBPT 280653Z AUTO 10SM CLR 18/17 A3010 RMK AO2 SLP191 T01830167,KBPT,2018-10-28T06:53:00Z,29.95,-94.03,18.3,16.7,,,,10.0,30.100393,1019.1,,TRUE,TRUE,,,,,,,CLR,,,,,,,,VFR,,,,,,,,,,,,METAR,5.0
KBFM 280653Z AUTO 00000KT 10SM CLR 14/13 A3013 RMK AO2 SLP201 T01390128,KBFM,2018-10-28T06:53:00Z,30.62,-88.07,13.9,12.8,0,0,,10.0,30.129921,1020.1,,TRUE,TRUE,,,,,,,CLR,,,,,,,,VFR,,,,,,,,,,,,METAR,20.0
KBFF 280653Z AUTO 35006KT 10SM CLR 03/02 A3019 RMK AO2 SLP197 T00330017 402610006,KBFF,2018-10-28T06:53:00Z,41.87,-103.58,3.3,1.7,350,6,,10.0,30.188976,1019.7,,TRUE,TRUE,,,,,,,CLR,,,,,,,,VFR,,,,26.1,0.6,,,,,,,METAR,1203.0
KBEH 280653Z AUTO 00000KT 7SM BKN055 06/03 A2986 RMK AO2 SLPNO T00560033 $,KBEH,2018-10-28T06:53:00Z,42.13,-86.42,5.6,3.3,0,0,,7.0,29.861221,,,TRUE,TRUE,TRUE,,,,,,BKN,5500,,,,,,,VFR,,,,,,,,,,,,METAR,191.0
KBBW 280653Z AUTO 34011KT 10SM CLR 07/03 A3009 RMK AO2 SLP179 T00720028,KBBW,2018-10-28T06:53:00Z,41.43,-99.63,7.2,2.8,340,11,,10.0,30.088583,1017.9,,TRUE,TRUE,,,,,,,CLR,,,,,,,,VFR,,,,,,,,,,,,METAR,776.0
KBAF 280653Z AUTO 36008KT 3SM -RA BR OVC006 04/04 A2965 RMK AO2 SLP044 P0001 T00440044,KBAF,2018-10-28T06:53:00Z,42.17,-72.72,4.4,4.4,360,8,,3.0,29.648623,1004.4,,TRUE,TRUE,,,,,,-RA BR,OVC,600,,,,,,,IFR,,,,,,0.01,,,,,,METAR,83.0
KAUS 280653Z 23003KT 10SM CLR 17/13 A3010 RMK AO2 SLP185 T01670133 $,KAUS,2018-10-28T06:53:00Z,30.18,-97.68,16.7,13.3,230,3,,10.0,30.100393,1018.5,,,TRUE,TRUE,,,,,,CLR,,,,,,,,VFR,,,,,,,,,,,,METAR,166.0
KDVT 280653Z AUTO 00000KT 10SM CLR 19/06 A3002 RMK AO2 SLP147 T01890056 403060144 $,KDVT,2018-10-28T06:53:00Z,33.68,-112.07,18.9,5.6,0,0,,10.0,30.02067,1014.7,,TRUE,TRUE,TRUE,,,,,,CLR,,,,,,,,VFR,,,,30.6,14.4,,,,,,,METAR,443.0
KCAG 280653Z AUTO 00000KT 10SM CLR 02/M01 A3027 RMK AO2 SLP224 T00221006 402061033,KCAG,2018-10-28T06:53:00Z,40.5,-107.52,2.2,-0.6,0,0,,10.0,30.268702,1022.4,,TRUE,TRUE,,,,,,,CLR,,,,,,,,VFR,,,,20.6,-3.3,,,,,,,METAR,1887.0
KBYG 280653Z AUTO 25007KT 10SM CLR 03/M08 A3014 RMK AO2 SLP205 T00281078 401670011,KBYG,2018-10-28T06:53:00Z,44.38,-106.72,2.8,-7.8,250,7,,10.0,30.138779,1020.5,,TRUE,TRUE,,,,,,,CLR,,,,,,,,VFR,,,,16.7,1.1,,,,,,,METAR,1497.0
KBVY 280653Z AUTO 02012KT 8SM OVC006 06/04 A2963 RMK AO2 SLP031 T00560039,KBVY,2018-10-28T06:53:00Z,42.58,-70.92,5.6,3.9,20,12,,8.0,29.630905,1003.1,,TRUE,TRUE,,,,,,,OVC,600,,,,,,,IFR,,,,,,,,,,,,METAR,28.0
KBVO 280653Z AUTO 23007KT 10SM CLR 16/09 A2993 RMK AO2 SLP126 T01560094,KBVO,2018-10-28T06:53:00Z,36.77,-96.02,15.6,9.4,230,7,,10.0,29.929134,1012.6,,TRUE,TRUE,,,,,,,CLR,,,,,,,,VFR,,,,,,,,,,,,METAR,210.0
KBUR 280653Z 10003KT 5SM BR CLR 17/16 A3000 RMK AO2 SLP147 T01720156 $,KBUR,2018-10-28T06:53:00Z,34.2,-118.37,17.2,15.6,100,3,,5.0,30.0,1014.7,,,TRUE,TRUE,,,,,BR,CLR,,,,,,,,MVFR,,,,,,,,,,,,METAR,217.0
KBTR 280653Z AUTO 00000KT 10SM CLR 16/14 A3010 RMK AO2 SLP193 T01610139 $,KBTR,2018-10-28T06:53:00Z,30.53,-91.15,16.1,13.9,0,0,,10.0,30.100393,1019.3,,TRUE,TRUE,TRUE,,,,,,CLR,,,,,,,,VFR,,,,,,,,,,,,METAR,21.0
KBTL 280653Z AUTO 00000KT 10SM FEW015 OVC032 05/04 A2986 RMK AO2 SLP117 T00500039,KBTL,2018-10-28T06:53:00Z,42.32,-85.23,5.0,3.9,0,0,,10.0,29.861221,1011.7,,TRUE,TRUE,,,,,,,FEW,1500,OVC,3200,,,,,VFR,,,,,,,,,,,,METAR,290.0
KCDR 280653Z AUTO 24003KT 10SM CLR 04/02 A3015 RMK AO2 SLP211 T00390017 402220028,KCDR,2018-10-28T06:53:00Z,42.83,-103.1,3.9,1.7,240,3,,10.0,30.15059,1021.1,,TRUE,TRUE,,,,,,,CLR,,,,,,,,VFR,,,,22.2,2.8,,,,,,,METAR,1010.0
KCDS 280653Z AUTO 30005KT 10SM CLR 13/10 A3004 RMK AO2 SLP153 T01330100,KCDS,2018-10-28T06:53:00Z,34.43,-100.28,13.3,10.0,300,5,,10.0,30.041338,1015.3,,TRUE,TRUE,,,,,,,CLR,,,,,,,,VFR,,,,,,,,,,,,METAR,594.0
KCNM 280653Z AUTO 00000KT 10SM CLR 11/08 A3011 RMK AO2 SLP162 T01110083 402440083,KCNM,2018-10-28T06:53:00Z,32.33,-104.25,11.1,8.3,0,0,,10.0,30.109253,1016.2,,TRUE,TRUE,,,,,,,CLR,,,,,,,,VFR,,,,24.4,8.3,,,,,,,METAR,985.0
KCMI 280653Z AUTO 18008KT 10SM SCT120 08/05 A2988 RMK AO2 SLP121 T00780050,KCMI,2018-10-28T06:53:00Z,40.03,-88.27,7.8,5.0,180,8,,10.0,29.878937,1012.1,,TRUE,TRUE,,,,,,,SCT,12000,,,,,,,VFR,,,,,,,,,,,,METAR,228.0
KCLL 280653Z AUTO 20004KT 10SM CLR 16/14 A3009 RMK AO2 SLP184 T01610144,KCLL,2018-10-28T06:53:00Z,30.58,-96.37,16.1,14.4,200,4,,10.0,30.088583,1018.4,,TRUE,TRUE,,,,,,,CLR,,,,,,,,VFR,,,,,,,,,,,,METAR,96.0
KCHO 280653Z AUTO VRB03KT 10SM BKN065 OVC100 12/04 A2976 RMK AO2 SLP074 T01170039,KCHO,2018-10-28T06:53:00Z,38.13,-78.45,11.7,3.9,0,3,,10.0,29.760826,1007.4,,TRUE,TRUE,,,,,,,BKN,6500,OVC,10000,,,,,VFR,,,,,,,,,,,,METAR,192.0
KCGI 280653Z AUTO 00000KT 7SM CLR 07/06 A2996 RMK AO2 SLP144 T00720056,KCGI,2018-10-28T06:53:00Z,37.23,-89.58,7.2,5.6,0,0,,7.0,29.958662,1014.4,,TRUE,TRUE,,,,,,,CLR,,,,,,,,VFR,,,,,,,,,,,,METAR,102.0
KCEZ 280653Z AUTO 07005KT 10SM CLR 03/M02 A3030 RMK AO2 SLP223 T00331022 401941017,KCEZ,2018-10-28T06:53:00Z,37.3,-108.63,3.3,-2.2,70,5,,10.0,30.301182,1022.3,,TRUE,TRUE,,,,,,,CLR,,,,,,,,VFR,,,,19.4,-1.7,,,,,,,METAR,1797.0
KCNO 280653Z 00000KT 5SM HZ CLR 16/12 A3002 RMK AO2 SLP160 T01610117,KCNO,2018-10-28T06:53:00Z,33.98,-117.62,16.1,11.7,0,0,,5.0,30.02067,1016.0,,,TRUE,,,,,,HZ,CLR,,,,,,,,MVFR,,,,,,,,,,,,METAR,207.0
KCOT 280653Z AUTO 15004KT 10SM CLR 16/16 A3012 RMK AO2 SLP192 T01610156,KCOT,2018-10-28T06:53:00Z,28.45,-99.22,16.1,15.6,150,4,,10.0,30.121063,1019.2,,TRUE,TRUE,,,,,,,CLR,,,,,,,,VFR,,,,,,,,,,,,METAR,140.0
KCSM 280653Z AUTO 20012KT 10SM CLR 16/11 A3000 RMK AO2 SLP142 T01610111 $,KCSM,2018-10-28T06:53:00Z,35.35,-99.2,16.1,11.1,200,12,,10.0,30.0,1014.2,,TRUE,TRUE,TRUE,,,,,,CLR,,,,,,,,VFR,,,,,,,,,,,,METAR,588.0
KCRS 280653Z AUTO 10SM CLR 18/15 A3005 RMK AO2 SLP173 T01780150 $,KCRS,2018-10-28T06:53:00Z,32.03,-96.4,17.8,15.0,,,,10.0,30.050198,1017.3,,TRUE,TRUE,TRUE,,,,,,CLR,,,,,,,,VFR,,,,,,,,,,,,METAR,133.0
KCRQ 280653Z AUTO 00000KT 7SM CLR 16/15 A3000 RMK AO2 SLP155 T01610150,KCRQ,2018-10-28T06:53:00Z,33.13,-117.28,16.1,15.0,0,0,,7.0,30.0,1015.5,,TRUE,TRUE,,,,,,,CLR,,,,,,,,VFR,,,,,,,,,,,,METAR,99.0
KCPS 280653Z AUTO 00000KT 8SM CLR 08/07 A2989 RMK AO2 SLP122 T00830072 $,KCPS,2018-10-28T06:53:00Z,38.57,-90.15,8.3,7.2,0,0,,8.0,29.890747,1012.2,,TRUE,TRUE,TRUE,,,,,,CLR,,,,,,,,VFR,,,,,,,,,,,,METAR,126.0
KCPR 280653Z AUTO 25008KT 10SM CLR 02/01 A3017 RMK AO2 SLP191 T00220011 401940017,KCPR,2018-10-28T06:53:00Z,42.9,-106.47,2.2,1.1,250,8,,10.0,30.171259,1019.1,,TRUE,TRUE,,,,,,,CLR,,,,,,,,VFR,,,,19.4,1.7,,,,,,,METAR,1621.0
KCUT 280653Z AUTO 29004KT 10SM CLR 04/M05 A3013 RMK AO2 SLP175 T00391050 401670017,KCUT,2018-10-28T06:53:00Z,43.73,-103.62,3.9,-5.0,290,4,,10.0,30.129921,1017.5,,TRUE,TRUE,,,,,,,CLR,,,,,,,,VFR,,,,16.7,1.7,,,,,,,METAR,1725.0
KDAL 280653Z 00000KT 10SM CLR 18/15 A3001 RMK AO2 SLP158 T01780150 $,KDAL,2018-10-28T06:53:00Z,32.85,-96.85,17.8,15.0,0,0,,10.0,30.008858,1015.8,,,TRUE,TRUE,,,,,,CLR,,,,,,,,VFR,,,,,,,,,,,,METAR,158.0
KCYS 280653Z AUTO 24005KT 10SM CLR 01/01 A3023 RMK AO2 SLP194 T00110006 402110011,KCYS,2018-10-28T06:53:00Z,41.15,-104.8,1.1,0.6,240,5,,10.0,30.230314,1019.4,,TRUE,TRUE,,,,,,,CLR,,,,,,,,VFR,,,,21.1,1.1,,,,,,,METAR,1868.0
KPGA 280653Z AUTO 00000KT 10SM CLR 11/03 A3020 RMK AO2 SLP192 T01110033 402000083 TSNO,KPGA,2018-10-28T06:53:00Z,36.92,-111.45,11.1,3.3,0,0,,10.0,30.200787,1019.2,,TRUE,TRUE,,,TRUE,,,,CLR,,,,,,,,VFR,,,,20.0,8.3,,,,,,,METAR,1307.0
KOXB 280653Z AUTO 00000KT 9SM -RA OVC016 09/09 A2976 RMK AO2 RAE21B38 SLP077 P0002 T00940094,KOXB,2018-10-28T06:53:00Z,38.32,-75.12,9.4,9.4,0,0,,9.0,29.760826,1007.7,,TRUE,TRUE,,,,,,-RA,OVC,1600,,,,,,,MVFR,,,,,,0.02,,,,,,METAR,3.0
KOWD 280653Z AUTO 00000KT 4SM BR OVC006 08/07 A2964 RMK AO2 RAB31E45 SLP038 P0000 T00780067,KOWD,2018-10-28T06:53:00Z,42.18,-71.17,7.8,6.7,0,0,,4.0,29.639763,1003.8,,TRUE,TRUE,,,,,,BR,OVC,600,,,,,,,IFR,,,,,,0.005,,,,,,METAR,19.0
KDFW 280653Z 22007KT 10SM CLR 17/14 A3000 RMK AO2 SLP152 T01670139,KDFW,2018-10-28T06:53:00Z,32.9,-97.02,16.7,13.9,220,7,,10.0,30.0,1015.2,,,TRUE,,,,,,,CLR,,,,,,,,VFR,,,,,,,,,,,,METAR,174.0
KDEN 280653Z 24005KT 10SM FEW220 06/02 A3025 RMK AO2 SLP194 T00610017 402280056,KDEN,2018-10-28T06:53:00Z,39.85,-104.65,6.1,1.7,240,5,,10.0,30.250984,1019.4,,,TRUE,,,,,,,FEW,22000,,,,,,,VFR,,,,22.8,5.6,,,,,,,METAR,1640.0
KDBQ 280653Z AUTO 21009KT 5SM RA BR OVC060 08/06 A2976 RMK AO2 RAE18B35 SLP080 P0002 T00780061,KDBQ,2018-10-28T06:53:00Z,42.4,-90.7,7.8,6.1,210,9,,5.0,29.760826,1008.0,,TRUE,TRUE,,,,,,RA BR,OVC,6000,,,,,,,MVFR,,,,,,0.02,,,,,,METAR,326.0
KDAN 280653Z AUTO 23004KT 10SM FEW090 SCT120 06/05 A2987 RMK AO2 SLP107 T00610050,KDAN,2018-10-28T06:53:00Z,36.57,-79.33,6.1,5.0,230,4,,10.0,29.870079,1010.7,,TRUE,TRUE,,,,,,,FEW,9000,SCT,12000,,,,,VFR,,,,,,,,,,,,METAR,175.0
KPOF 280653Z AUTO 00000KT 6SM BR CLR 07/07 A2997 RMK AO2 SLP148 T00670067,KPOF,2018-10-28T06:53:00Z,36.77,-90.32,6.7,6.7,0,0,,6.0,29.970472,1014.8,,TRUE,TRUE,,,,,,BR,CLR,,,,,,,,VFR,,,,,,,,,,,,METAR,99.0
KPMD 280653Z AUTO 00000KT 10SM CLR 16/00 A3008 RMK AO2 SLP163 T01560000,KPMD,2018-10-28T06:53:00Z,34.63,-118.08,15.6,0.0,0,0,,10.0,30.079725,1016.3,,TRUE,TRUE,,,,,,,CLR,,,,,,,,VFR,,,,,,,,,,,,METAR,780.0
KPRC 280653Z 19008KT 10SM CLR 10/M01 A3025 RMK AO2 SLP183 T01001011 402670044,KPRC,2018-10-28T06:53:00Z,34.65,-112.42,10.0,-1.1,190,8,,10.0,30.250984,1018.3,,,TRUE,,,,,,,CLR,,,,,,,,VFR,,,,26.7,4.4,,,,,,,METAR,1524.0
KPSP 280653Z AUTO 33007KT 10SM CLR 24/01 A2999 RMK AO2 SLP151 T02390011 $,KPSP,2018-10-28T06:53:00Z,33.82,-116.5,23.9,1.1,330,7,,10.0,29.991142,1015.1,,TRUE,TRUE,TRUE,,,,,,CLR,,,,,,,,VFR,,,,,,,,,,,,METAR,135.0
KRAL 280653Z AUTO 00000KT 10SM CLR 18/09 A3002 RMK AO2 SLP149 T01780094,KRAL,2018-10-28T06:53:00Z,33.95,-117.45,17.8,9.4,0,0,,10.0,30.02067,1014.9,,TRUE,TRUE,,,,,,,CLR,,,,,,,,VFR,,,,,,,,,,,,METAR,252.0
KRAC 280653Z AUTO 17004KT 7SM SCT055 07/05 A2983 RMK AO2 SLP103 T00670050,KRAC,2018-10-28T06:53:00Z,42.77,-87.82,6.7,5.0,170,4,,7.0,29.828741,1010.3,,TRUE,TRUE,,,,,,,SCT,5500,,,,,,,VFR,,,,,,,,,,,,METAR,203.0
KPUB 280653Z AUTO 10SM CLR 11/04 A3023 RMK AO2 SLP190 T01110039 402720028,KPUB,2018-10-28T06:53:00Z,38.28,-104.5,11.1,3.9,,,,10.0,30.230314,1019.0,,TRUE,TRUE,,,,,,,CLR,,,,,,,,VFR,,,,27.2,2.8,,,,,,,METAR,1420.0
KPSX 280653Z AUTO 21005KT 10SM CLR 21/21 A3011 RMK AO2 SLP197 T02110206 $,KPSX,2018-10-28T06:53:00Z,28.72,-96.25,21.1,20.6,210,5,,10.0,30.109253,1019.7,,TRUE,TRUE,TRUE,,,,,,CLR,,,,,,,,VFR,,,,,,,,,,,,METAR,5.0
KRKP 280653Z AUTO 18004KT 6SM BR CLR 20/19 A3012 RMK AO2 SLP201 T02000189,KRKP,2018-10-28T06:53:00Z,28.08,-97.05,20.0,18.9,180,4,,6.0,30.121063,1020.1,,TRUE,TRUE,,,,,,BR,CLR,,,,,,,,VFR,,,,,,,,,,,,METAR,6.0
KRIL 280653Z AUTO 00000KT 10SM CLR 06/01 A3029 RMK AO2 SLP229 T00560006 402001006,KRIL,2018-10-28T06:53:00Z,39.53,-107.73,5.6,0.6,0,0,,10.0,30.28937,1022.9,,TRUE,TRUE,,,,,,,CLR,,,,,,,,VFR,,,,20.0,-0.6,,,,,,,METAR,1678.0
KRBD 280653Z AUTO 23005KT 10SM CLR 18/13 A3001 RMK AO2 SLP156 T01780128,KRBD,2018-10-28T06:53:00Z,32.68,-96.87,17.8,12.8,230,5,,10.0,30.008858,1015.6,,TRUE,TRUE,,,,,,,CLR,,,,,,,,VFR,,,,,,,,,,,,METAR,203.0
KRNM 280653Z AUTO 00000KT 10SM CLR 10/06 A3003 RMK AO2 SLP156 T01000056,KRNM,2018-10-28T06:53:00Z,33.03,-116.92,10.0,5.6,0,0,,10.0,30.029528,1015.6,,TRUE,TRUE,,,,,,,CLR,,,,,,,,VFR,,,,,,,,,,,,METAR,427.0
KRME 280653Z AUTO 30003KT 8SM -RA BKN025 OVC036 03/03 A2968 RMK AO2 SLP054 P0004 T00330033 $,KRME,2018-10-28T06:53:00Z,43.22,-75.4,3.3,3.3,300,3,,8.0,29.681103,1005.4,,TRUE,TRUE,TRUE,,,,,-RA,BKN,2500,OVC,3600,,,,,MVFR,,,,,,0.04,,,,,,METAR,154.0
KGGG 280653Z AUTO 19007KT 10SM CLR 17/17 A3003 RMK AO2 SLP163 T01720167,KGGG,2018-10-28T06:53:00Z,32.38,-94.72,17.2,16.7,190,7,,10.0,30.029528,1016.3,,TRUE,TRUE,,,,,,,CLR,,,,,,,,VFR,,,,,,,,,,,,METAR,107.0
KSLN 280653Z AUTO 34014KT 10SM CLR 16/08 A2998 RMK AO2 SLP144 T01610083,KSLN,2018-10-28T06:53:00Z,38.78,-97.65,16.1,8.3,340,14,,10.0,29.97933,1014.4,,TRUE,TRUE,,,,,,,CLR,,,,,,,,VFR,,,,,,,,,,,,METAR,385.0
KSGR 280653Z AUTO 22004KT 10SM CLR 17/16 A3010 RMK AO2 SLP195 T01720156,KSGR,2018-10-28T06:53:00Z,29.62,-95.65,17.2,15.6,220,4,,10.0,30.100393,1019.5,,TRUE,TRUE,,,,,,,CLR,,,,,,,,VFR,,,,,,,,,,,,METAR,2.0
KSDM 280653Z AUTO 08004KT 10SM CLR 15/13 A3000 RMK AO2 SLP154 T01500128,KSDM,2018-10-28T06:53:00Z,32.58,-117.0,15.0,12.8,80,4,,10.0,30.0,1015.4,,TRUE,TRUE,,,,,,,CLR,,,,,,,,VFR,,,,,,,,,,,,METAR,159.0
KSDL 280653Z AUTO 00000KT 10SM CLR 19/08 A3002 RMK AO2 SLP147 T01890083 403110139,KSDL,2018-10-28T06:53:00Z,33.62,-111.92,18.9,8.3,0,0,,10.0,30.02067,1014.7,,TRUE,TRUE,,,,,,,CLR,,,,,,,,VFR,,,,31.1,13.9,,,,,,,METAR,447.0
KSBM 280653Z AUTO 15003KT 6SM BR OVC055 07/05 A2980 RMK AO2 SLP094 T00670050,KSBM,2018-10-28T06:53:00Z,43.78,-87.85,6.7,5.0,150,3,,6.0,29.799213,1009.4,,TRUE,TRUE,,,,,,BR,OVC,5500,,,,,,,VFR,,,,,,,,,,,,METAR,232.0
KSBA 280653Z AUTO 07005KT 3/4SM BR VV002 15/15 A2999 RMK AO2 SLP153 T01500150 RVRNO,KSBA,2018-10-28T06:53:00Z,34.43,-119.85,15.0,15.0,70,5,,0.75,29.991142,1015.3,,TRUE,TRUE,,,,,,BR,OVX,0,,,,,,,LIFR,,,,,,,,,,,200,METAR,3.0
KSAF 280653Z AUTO 34004KT 10SM CLR 04/02 A3030 RMK AO2 SLP207 T00440017 401830033,KSAF,2018-10-28T06:53:00Z,35.62,-106.1,4.4,1.7,340,4,,10.0,30.301182,1020.7,,TRUE,TRUE,,,,,,,CLR,,,,,,,,VFR,,,,18.3,3.3,,,,,,,METAR,1930.0
KRWL 280653Z AUTO 25009KT 10SM CLR 07/M01 A3023 RMK AO2 SLP179 T00721006 401890061,KRWL,2018-10-28T06:53:00Z,41.78,-107.2,7.2,-0.6,250,9,,10.0,30.230314,1017.9,,TRUE,TRUE,,,,,,,CLR,,,,,,,,VFR,,,,18.9,6.1,,,,,,,METAR,2077.0
KRTN 280653Z AUTO 04009KT 10SM CLR 06/01 A3023 RMK AO2 SLP182 T00560006 402281006 $,KRTN,2018-10-28T06:53:00Z,36.73,-104.5,5.6,0.6,40,9,,10.0,30.230314,1018.2,,TRUE,TRUE,TRUE,,,,,,CLR,,,,,,,,VFR,,,,22.8,-0.6,,,,,,,METAR,1936.0
KRSL 280653Z AUTO 36012KT 10SM CLR 13/08 A3003 RMK AO2 SLP162 T01280078,KRSL,2018-10-28T06:53:00Z,38.87,-98.82,12.8,7.8,360,12,,10.0,30.029528,1016.2,,TRUE,TRUE,,,,,,,CLR,,,,,,,,VFR,,,,,,,,,,,,METAR,567.0
KRQE 280653Z AUTO 00000KT 10SM CLR 03/M01 A3034 RMK AO2 SLP204 T00331011 402221017,KRQE,2018-10-28T06:53:00Z,35.65,-109.07,3.3,-1.1,0,0,,10.0,30.339567,1020.4,,TRUE,TRUE,,,,,,,CLR,,,,,,,,VFR,,,,22.2,-1.7,,,,,,,METAR,2055.0
KGOK 280653Z AUTO 18007KT 10SM CLR 14/11 A2995 RMK AO2 SLP136 T01390106,KGOK,2018-10-28T06:53:00Z,35.85,-97.4,13.9,10.6,180,7,,10.0,29.949802,1013.6,,TRUE,TRUE,,,,,,,CLR,,,,,,,,VFR,,,,,,,,,,,,METAR,324.0
KGLD 280653Z AUTO 34004KT 10SM CLR 07/05 A3014 RMK AO2 SLP182 T00670050 402560044 $,KGLD,2018-10-28T06:53:00Z,39.37,-101.7,6.7,5.0,340,4,,10.0,30.138779,1018.2,,TRUE,TRUE,TRUE,,,,,,CLR,,,,,,,,VFR,,,,25.6,4.4,,,,,,,METAR,1113.0
KGKY 280653Z AUTO 00000KT 10SM CLR 14/14 A3002 RMK AO2 SLP159 T01440144 $,KGKY,2018-10-28T06:53:00Z,32.67,-97.1,14.4,14.4,0,0,,10.0,30.02067,1015.9,,TRUE,TRUE,TRUE,,,,,,CLR,,,,,,,,VFR,,,,,,,,,,,,METAR,192.0
KGJT 280653Z AUTO 07005KT 10SM CLR 08/02 A3024 RMK AO2 SLP210 T00780022 401830039,KGJT,2018-10-28T06:53:00Z,39.12,-108.52,7.8,2.2,70,5,,10.0,30.239174,1021.0,,TRUE,TRUE,,,,,,,CLR,,,,,,,,VFR,,,,18.3,3.9,,,,,,,METAR,1475.0
KGUP 280653Z AUTO 00000KT 10SM CLR 02/M03 A3033 RMK AO2 SLP201 T00171028 402171044,KGUP,2018-10-28T06:53:00Z,35.52,-108.8,1.7,-2.8,0,0,,10.0,30.33071,1020.1,,TRUE,TRUE,,,,,,,CLR,,,,,,,,VFR,,,,21.7,-4.4,,,,,,,METAR,1971.0
KGSH 280653Z AUTO 00000KT 5SM BR OVC049 06/05 A2986 RMK AO2 SLP116 T00560050,KGSH,2018-10-28T06:53:00Z,41.53,-85.78,5.6,5.0,0,0,,5.0,29.861221,1011.6,,TRUE,TRUE,,,,,,BR,OVC,4900,,,,,,,MVFR,,,,,,,,,,,,METAR,252.0
KGRR 280653Z AUTO 00000KT 10SM OVC034 04/03 A2986 RMK AO2 SLP116 T00440028,KGRR,2018-10-28T06:53:00Z,42.88,-85.52,4.4,2.8,0,0,,10.0,29.861221,1011.6,,TRUE,TRUE,,,,,,,OVC,3400,,,,,,,VFR,,,,,,,,,,,,METAR,237.0
KGPT 280653Z AUTO 00000KT 10SM CLR 13/12 A3011 RMK AO2 SLP195 T01330122,KGPT,2018-10-28T06:53:00Z,30.42,-89.08,13.3,12.2,0,0,,10.0,30.109253,1019.5,,TRUE,TRUE,,,,,,,CLR,,,,,,,,VFR,,,,,,,,,,,,METAR,14.0
KIAH 280653Z 22004KT 10SM CLR 18/16 A3010 RMK AO2 SLP192 T01780161,KIAH,2018-10-28T06:53:00Z,30.0,-95.37,17.8,16.1,220,4,,10.0,30.100393,1019.2,,,TRUE,,,,,,,CLR,,,,,,,,VFR,,,,,,,,,,,,METAR,36.0
KHUF 280653Z 00000KT 7SM CLR 04/03 A2992 RMK AO2 SLP133 T00390033,KHUF,2018-10-28T06:53:00Z,39.45,-87.3,3.9,3.3,0,0,,7.0,29.920275,1013.3,,,TRUE,,,,,,,CLR,,,,,,,,VFR,,,,,,,,,,,,METAR,179.0
KHOU 280653Z 22005KT 10SM CLR 18/16 A3010 RMK AO2 SLP198 T01780156,KHOU,2018-10-28T06:53:00Z,29.63,-95.28,17.8,15.6,220,5,,10.0,30.100393,1019.8,,,TRUE,,,,,,,CLR,,,,,,,,VFR,,,,,,,,,,,,METAR,36.0
KHLG 280653Z AUTO 27007KT 7SM -RA OVC003 07/06 A2977 RMK AO2 SLP089 P0001 T00720061,KHLG,2018-10-28T06:53:00Z,40.17,-80.65,7.2,6.1,270,7,,7.0,29.769686,1008.9,,TRUE,TRUE,,,,,,-RA,OVC,300,,,,,,,LIFR,,,,,,0.01,,,,,,METAR,372.0
KHLC 280653Z AUTO 35004KT 10SM BKN120 12/06 A3010 RMK AO2 SLP178 T01220061,KHLC,2018-10-28T06:53:00Z,39.37,-99.83,12.2,6.1,350,4,,10.0,30.100393,1017.8,,TRUE,TRUE,,,,,,,BKN,12000,,,,,,,VFR,,,,,,,,,,,,METAR,669.0
KHBR 280653Z AUTO 10SM CLR 14/12 A3001 RMK AO2 SLP148 T01440117 $,KHBR,2018-10-28T06:53:00Z,34.98,-99.05,14.4,11.7,,,,10.0,30.008858,1014.8,,TRUE,TRUE,TRUE,,,,,,CLR,,,,,,,,VFR,,,,,,,,,,,,METAR,473.0
KHBG 280653Z AUTO 00000KT 10SM CLR 10/09 A3012 RMK AO2 SLP197 T01000089,KHBG,2018-10-28T06:53:00Z,31.27,-89.25,10.0,8.9,0,0,,10.0,30.121063,1019.7,,TRUE,TRUE,,,,,,,CLR,,,,,,,,VFR,,,,,,,,,,,,METAR,44.0
KHAO 280653Z AUTO 26004KT 10SM FEW055 OVC070 08/06 A2993 RMK AO2 SLP138 T00830061,KHAO,2018-10-28T06:53:00Z,39.37,-84.52,8.3,6.1,260,4,,10.0,29.929134,1013.8,,TRUE,TRUE,,,,,,,FEW,5500,OVC,7000,,,,,VFR,,,,,,,,,,,,METAR,188.0
KIML 280653Z AUTO 29006KT 10SM FEW100 06/02 A3016 RMK AO2 SLP200 T00610022 402720022,KIML,2018-10-28T06:53:00Z,40.52,-101.62,6.1,2.2,290,6,,10.0,30.159449,1020.0,,TRUE,TRUE,,,,,,,FEW,10000,,,,,,,VFR,,,,27.2,2.2,,,,,,,METAR,998.0
KILM 280653Z AUTO 27009KT 10SM CLR 12/09 A2991 RMK AO2 SLP127 T01220094,KILM,2018-10-28T06:53:00Z,34.27,-77.9,12.2,9.4,270,9,,10.0,29.911417,1012.7,,TRUE,TRUE,,,,,,,CLR,,,,,,,,VFR,,,,,,,,,,,,METAR,9.0
KICT 280653Z 20005KT 10SM SCT120 13/10 A2990 RMK AO2 SLP118 T01280100 $,KICT,2018-10-28T06:53:00Z,37.65,-97.43,12.8,10.0,200,5,,10.0,29.899607,1011.8,,,TRUE,TRUE,,,,,,SCT,12000,,,,,,,VFR,,,,,,,,,,,,METAR,407.0
KITR 280653Z AUTO 35008KT 10SM CLR 08/04 A3018 RMK AO2 SLP185 T00780044 402500033,KITR,2018-10-28T06:53:00Z,39.23,-102.28,7.8,4.4,350,8,,10.0,30.180119,1018.5,,TRUE,TRUE,,,,,,,CLR,,,,,,,,VFR,,,,25.0,3.3,,,,,,,METAR,1279.0
KIPL 280653Z AUTO 28005KT 10SM CLR 20/04 A2993 RMK AO2 SLP134 T02000044,KIPL,2018-10-28T06:53:00Z,32.83,-115.58,20.0,4.4,280,5,,10.0,29.929134,1013.4,,TRUE,TRUE,,,,,,,CLR,,,,,,,,VFR,,,,,,,,,,,,METAR,-17.0
KINK 280653Z AUTO 03003KT 10SM CLR 11/09 A3011 RMK AO2 SLP168 T01060089,KINK,2018-10-28T06:53:00Z,31.78,-103.2,10.6,8.9,30,3,,10.0,30.109253,1016.8,,TRUE,TRUE,,,,,,,CLR,,,,,,,,VFR,,,,,,,,,,,,METAR,855.0
KIWI 280653Z AUTO VRB05KT 6SM BR OVC010 04/04 A2973 RMK AO2 CIG 006V014 SLP068 T00390039 TSNO,KIWI,2018-10-28T06:53:00Z,43.97,-69.72,3.9,3.9,0,5,,6.0,29.731298,1006.8,,TRUE,TRUE,,,TRUE,,,BR,OVC,1000,,,,,,,MVFR,,,,,,,,,,,,METAR,20.0
KRVS 280653Z AUTO 22003KT 10SM CLR 11/09 A2995 RMK AO2 SLP150 T01060094,KRVS,2018-10-28T06:53:00Z,36.05,-95.98,10.6,9.4,220,3,,10.0,29.949802,1015.0,,TRUE,TRUE,,,,,,,CLR,,,,,,,,VFR,,,,,,,,,,,,SPECI,200.0
KLKV 280653Z AUTO 17010KT 10SM CLR 09/05 A3008 RMK AO2 SLP655 T00890050,KLKV,2018-10-28T06:53:00Z,42.17,-120.4,8.9,5.0,170,10,,10.0,30.079725,965.5,,TRUE,TRUE,,,,,,,CLR,,,,,,,,VFR,,,,,,,,,,,,METAR,1441.0
KLXT 280653Z AUTO 23010KT 10SM CLR 15/08 A2984 RMK AO2 SLP100 T01500078,KLXT,2018-10-28T06:53:00Z,38.97,-94.37,15.0,7.8,230,10,,10.0,29.840551,1010.0,,TRUE,TRUE,,,,,,,CLR,,,,,,,,VFR,,,,,,,,,,,,METAR,306.0
KMIW 280653Z AUTO 25007KT 10SM FEW060 BKN100 OVC110 11/11 A2977 RMK AO2 RAE50 SLP082 P0003 T01060106,KMIW,2018-10-28T06:53:00Z,42.12,-92.92,10.6,10.6,250,7,,10.0,29.769686,1008.2,,TRUE,TRUE,,,,,,,FEW,6000,BKN,10000,OVC,11000,,,VFR,,,,,,0.03,,,,,,METAR,296.0
KMLT 280653Z AUTO 05012KT 3SM -RA BR BKN008 OVC014 01/M01 A2993 RMK AO2 SLP146 P0003 I1000 T00061006,KMLT,2018-10-28T06:53:00Z,45.65,-68.7,0.6,-0.6,50,12,,3.0,29.929134,1014.6,,TRUE,TRUE,,,,,,-RA BR,BKN,800,OVC,1400,,,,,IFR,,,,,,0.03,,,,,,METAR,123.0
KMTO 280653Z AUTO 17006KT 10SM CLR 08/04 A2989 RMK AO2 SLP123 T00780044 $,KMTO,2018-10-28T06:53:00Z,39.47,-88.27,7.8,4.4,170,6,,10.0,29.890747,1012.3,,TRUE,TRUE,TRUE,,,,,,CLR,,,,,,,,VFR,,,,,,,,,,,,METAR,214.0
KBRL 280653Z AUTO 17006KT 10SM OVC090 11/07 A2979 RMK AO2 RAE0554 SLP086 P0000 T01110072,KBRL,2018-10-28T06:53:00Z,40.77,-91.13,11.1,7.2,170,6,,10.0,29.790354,1008.6,,TRUE,TRUE,,,,,,,OVC,9000,,,,,,,VFR,,,,,,0.005,,,,,,METAR,211.0
KBYI 280653Z AUTO 00000KT 10SM CLR 06/03 A3008 RMK AO2 SLP167 T00610028 401940056,KBYI,2018-10-28T06:53:00Z,42.55,-113.77,6.1,2.8,0,0,,10.0,30.079725,1016.7,,TRUE,TRUE,,,,,,,CLR,,,,,,,,VFR,,,,19.4,5.6,,,,,,,METAR,1264.0
KCMX 280653Z AUTO 11010KT 10SM OVC017 06/02 A2977 RMK AO2 SLP088 T00560022,KCMX,2018-10-28T06:53:00Z,47.17,-88.48,5.6,2.2,110,10,,10.0,29.769686,1008.8,,TRUE,TRUE,,,,,,,OVC,1700,,,,,,,MVFR,,,,,,,,,,,,METAR,326.0
KMGW 280653Z AUTO 22005KT 7SM -RA OVC006 07/06 A2979 RMK AO2 CIG 004V008 SLP092 P0002 T00670061,KMGW,2018-10-28T06:53:00Z,39.65,-79.92,6.7,6.1,220,5,,7.0,29.790354,1009.2,,TRUE,TRUE,,,,,,-RA,OVC,600,,,,,,,IFR,,,,,,0.02,,,,,,METAR,378.0
KMFE 280653Z AUTO 12004KT 8SM CLR 19/18 A3013 RMK AO2 SLP200 T01890183,KMFE,2018-10-28T06:53:00Z,26.18,-98.25,18.9,18.3,120,4,,8.0,30.129921,1020.0,,TRUE,TRUE,,,,,,,CLR,,,,,,,,VFR,,,,,,,,,,,,METAR,38.0
KMDW 280653Z 18005KT 10SM FEW047 BKN200 07/04 A2984 RMK AO2 SLP107 T00670044,KMDW,2018-10-28T06:53:00Z,41.78,-87.75,6.7,4.4,180,5,,10.0,29.840551,1010.7,,,TRUE,,,,,,,FEW,4700,BKN,20000,,,,,VFR,,,,,,,,,,,,METAR,188.0
KIXD 280653Z AUTO 10SM CLR 12/08 A2990 RMK AO2 PRESRR SLP120 T01220083,KIXD,2018-10-28T06:53:00Z,38.82,-94.88,12.2,8.3,,,,10.0,29.899607,1012.0,,TRUE,TRUE,,,,,,,CLR,,,,,,,,VFR,,,,,,,,,,,,METAR,342.0
KMKO 280653Z AUTO 18006KT 10SM CLR 13/11 A2998 RMK AO2 SLP149 T01330111 $,KMKO,2018-10-28T06:53:00Z,35.65,-95.37,13.3,11.1,180,6,,10.0,29.97933,1014.9,,TRUE,TRUE,TRUE,,,,,,CLR,,,,,,,,VFR,,,,,,,,,,,,METAR,185.0
KMIE 280653Z AUTO 24004KT 10SM OVC048 08/04 A2990 RMK AO2 SLP123 T00780039,KMIE,2018-10-28T06:53:00Z,40.23,-85.4,7.8,3.9,240,4,,10.0,29.899607,1012.3,,TRUE,TRUE,,,,,,,OVC,4800,,,,,,,VFR,,,,,,,,,,,,METAR,285.0
KMHT 280653Z 02009KT 10SM OVC011 04/03 A2966 RMK AO2 RAE00 SLP061 P0000 T00440028,KMHT,2018-10-28T06:53:00Z,42.93,-71.43,4.4,2.8,20,9,,10.0,29.660433,1006.1,,,TRUE,,,,,,,OVC,1100,,,,,,,MVFR,,,,,,0.005,,,,,,METAR,81.0
KONT 280653Z 03003KT 10SM FEW250 19/11 A3002 RMK AO2 SLP149 T01890106,KONT,2018-10-28T06:53:00Z,34.05,-117.58,18.9,10.6,30,3,,10.0,30.02067,1014.9,,,TRUE,,,,,,,FEW,25000,,,,,,,VFR,,,,,,,,,,,,METAR,274.0
KOJC 280653Z AUTO 10SM CLR 14/08 A2984 RMK AO2 SLP100 T01390078,KOJC,2018-10-28T06:53:00Z,38.85,-94.73,13.9,7.8,,,,10.0,29.840551,1010.0,,TRUE,TRUE,,,,,,,CLR,,,,,,,,VFR,,,,,,,,,,,,METAR,326.0
KODO 280653Z AUTO 20009KT 10SM CLR 17/13 A3013 RMK AO2 SLP165 T01670133 $,KODO,2018-10-28T06:53:00Z,31.92,-102.4,16.7,13.3,200,9,,10.0,30.129921,1016.5,,TRUE,TRUE,TRUE,,,,,,CLR,,,,,,,,VFR,,,,,,,,,,,,METAR,902.0
KNEW 280653Z 23006KT 10SM CLR 18/15 A3012 RMK AO2 SLP193 T01830150,KNEW,2018-10-28T06:53:00Z,30.05,-90.03,18.3,15.0,230,6,,10.0,30.121063,1019.3,,,TRUE,,,,,,,CLR,,,,,,,,VFR,,,,,,,,,,,,METAR,3.0
KMYF 280653Z AUTO 36003KT 9SM CLR 17/14 A3000 RMK AO2 SLP155 T01670139,KMYF,2018-10-28T06:53:00Z,32.82,-117.13,16.7,13.9,360,3,,9.0,30.0,1015.5,,TRUE,TRUE,,,,,,,CLR,,,,,,,,VFR,,,,,,,,,,,,METAR,136.0
KMWL 280653Z AUTO 00000KT 10SM CLR 13/12 A3002 RMK AO2 SLP156 T01330122,KMWL,2018-10-28T06:53:00Z,32.78,-98.07,13.3,12.2,0,0,,10.0,30.02067,1015.6,,TRUE,TRUE,,,,,,,CLR,,,,,,,,VFR,,,,,,,,,,,,METAR,284.0
KMVY 280653Z AUTO 21017G25KT 10SM FEW008 OVC014 13/13 A2964 RMK AO2 RAB22E36 SLP035 P0000 T01330128 $,KMVY,2018-10-28T06:53:00Z,41.4,-70.62,13.3,12.8,210,17,25,10.0,29.639763,1003.5,,TRUE,TRUE,TRUE,,,,,,FEW,800,OVC,1400,,,,,MVFR,,,,,,0.005,,,,,,METAR,16.0
KMTJ 280653Z AUTO 14003KT 10SM CLR 06/01 A3031 RMK AO2 SLP226 T00560006 401890006,KMTJ,2018-10-28T06:53:00Z,38.5,-107.9,5.6,0.6,140,3,,10.0,30.31004,1022.6,,TRUE,TRUE,,,,,,,CLR,,,,,,,,VFR,,,,18.9,0.6,,,,,,,METAR,1750.0
KMSY 280653Z 00000KT 10SM CLR 16/15 A3012 RMK AO2 SLP201 T01610150,KMSY,2018-10-28T06:53:00Z,30.0,-90.25,16.1,15.0,0,0,,10.0,30.121063,1020.1,,,TRUE,,,,,,,CLR,,,,,,,,VFR,,,,,,,,,,,,METAR,5.0
KMSN 280653Z AUTO 18010KT 7SM -RA FEW055 SCT070 OVC090 07/04 A2976 RMK AO2 RAB49 SLP082 P0000 T00670044,KMSN,2018-10-28T06:53:00Z,43.13,-89.35,6.7,4.4,180,10,,7.0,29.760826,1008.2,,TRUE,TRUE,,,,,,-RA,FEW,5500,SCT,7000,OVC,9000,,,VFR,,,,,,0.005,,,,,,METAR,261.0
KMRB 280653Z AUTO 25010KT 10SM OVC090 10/06 A2972 RMK AO2 SLP065 T01000061,KMRB,2018-10-28T06:53:00Z,39.4,-77.98,10.0,6.1,250,10,,10.0,29.719488,1006.5,,TRUE,TRUE,,,,,,,OVC,9000,,,,,,,VFR,,,,,,,,,,,,METAR,164.0
KMNN 280653Z AUTO 8SM OVC022 06/04 A2986 RMK AO2 SLP117 T00560044 $,KMNN,2018-10-28T06:53:00Z,40.62,-83.07,5.6,4.4,,,,8.0,29.861221,1011.7,,TRUE,TRUE,TRUE,,,,,,OVC,2200,,,,,,,MVFR,,,,,,,,,,,,METAR,301.0
KMLU 280653Z AUTO 19004KT 10SM CLR 15/14 A3007 RMK AO2 SLP182 T01500139,KMLU,2018-10-28T06:53:00Z,32.52,-92.03,15.0,13.9,190,4,,10.0,30.070866,1018.2,,TRUE,TRUE,,,,,,,CLR,,,,,,,,VFR,,,,,,,,,,,,METAR,29.0
KMLC 280653Z AUTO 00000KT 10SM FEW110 10/09 A3001 RMK AO2 SLP157 T01000089,KMLC,2018-10-28T06:53:00Z,34.88,-95.78,10.0,8.9,0,0,,10.0,30.008858,1015.7,,TRUE,TRUE,,,,,,,FEW,11000,,,,,,,VFR,,,,,,,,,,,,METAR,232.0
KOSH 280653Z AUTO 15009KT 6SM HZ OVC042 07/04 A2976 RMK AO2 SLP082 T00720044,KOSH,2018-10-28T06:53:00Z,43.97,-88.55,7.2,4.4,150,9,,6.0,29.760826,1008.2,,TRUE,TRUE,,,,,,HZ,OVC,4200,,,,,,,VFR,,,,,,,,,,,,METAR,248.0
KOTM 280653Z AUTO 20007KT 10SM OVC080 13/07 A2976 RMK AO2 SLP075 T01330067,KOTM,2018-10-28T06:53:00Z,41.1,-92.45,13.3,6.7,200,7,,10.0,29.760826,1007.5,,TRUE,TRUE,,,,,,,OVC,8000,,,,,,,VFR,,,,,,,,,,,,METAR,256.0
KOSU 280653Z AUTO 26004KT 8SM OVC039 06/05 A2987 RMK AO2 SLP119 T00610050,KOSU,2018-10-28T06:53:00Z,40.08,-83.08,6.1,5.0,260,4,,8.0,29.870079,1011.9,,TRUE,TRUE,,,,,,,OVC,3900,,,,,,,VFR,,,,,,,,,,,,METAR,280.0
KSNA 280653Z AUTO 15003KT 4SM BR OVC005 18/16 A3001 RMK AO2 SLP159 T01780161 $,KSNA,2018-10-28T06:53:00Z,33.67,-117.87,17.8,16.1,150,3,,4.0,30.008858,1015.9,,TRUE,TRUE,TRUE,,,,,BR,OVC,500,,,,,,,IFR,,,,,,,,,,,,METAR,16.0
KOVS 280653Z AUTO VRB03KT 6SM BR FEW042 OVC065 08/06 A2972 RMK AO2 RAE34 SLP067 P0005 T00780061,KOVS,2018-10-28T06:53:00Z,43.15,-90.68,7.8,6.1,0,3,,6.0,29.719488,1006.7,,TRUE,TRUE,,,,,,BR,FEW,4200,OVC,6500,,,,,VFR,,,,,,0.05,,,,,,METAR,202.0
KSNY 280653Z AUTO 31013KT 10SM CLR 05/01 A3017 RMK AO2 SLP186 T00500006 402560000,KSNY,2018-10-28T06:53:00Z,41.1,-102.98,5.0,0.6,310,13,,10.0,30.171259,1018.6,,TRUE,TRUE,,,,,,,CLR,,,,,,,,VFR,,,,25.6,,,,,,,,METAR,1307.0
KLAW 280653Z AUTO 00000KT 9SM CLR 11/11 A3001 RMK AO2 SLP155 T01110111 $,KLAW,2018-10-28T06:53:00Z,34.55,-98.42,11.1,11.1,0,0,,9.0,30.008858,1015.5,,TRUE,TRUE,TRUE,,,,,,CLR,,,,,,,,VFR,,,,,,,,,,,,METAR,337.0
KUNO 280653Z AUTO 22006KT 10SM CLR 13/06 A2997 RMK AO2 SLP141 T01330061,KUNO,2018-10-28T06:53:00Z,36.88,-91.9,13.3,6.1,220,6,,10.0,29.970472,1014.1,,TRUE,TRUE,,,,,,,CLR,,,,,,,,VFR,,,,,,,,,,,,METAR,372.0
KTYR 280653Z AUTO 20006KT 10SM CLR 17/15 A3004 RMK AO2 SLP165 T01720150,KTYR,2018-10-28T06:53:00Z,32.37,-95.4,17.2,15.0,200,6,,10.0,30.041338,1016.5,,TRUE,TRUE,,,,,,,CLR,,,,,,,,VFR,,,,,,,,,,,,METAR,165.0
KTXK 280653Z AUTO 20004KT 10SM CLR 14/13 A3003 RMK AO2 SLP165 T01440133,KTXK,2018-10-28T06:53:00Z,33.45,-93.98,14.4,13.3,200,4,,10.0,30.029528,1016.5,,TRUE,TRUE,,,,,,,CLR,,,,,,,,VFR,,,,,,,,,,,,METAR,111.0
KTUS 280653Z 14004KT 10SM CLR 17/10 A3011 RMK AO2 SLP159 T01670100 403110133,KTUS,2018-10-28T06:53:00Z,32.13,-110.95,16.7,10.0,140,4,,10.0,30.109253,1015.9,,,TRUE,,,,,,,CLR,,,,,,,,VFR,,,,31.1,13.3,,,,,,,METAR,776.0
KTUL 280653Z 18007KT 10SM CLR 16/09 A2994 RMK AO2 SLP133 T01610089,KTUL,2018-10-28T06:53:00Z,36.2,-95.88,16.1,8.9,180,7,,10.0,29.940945,1013.3,,,TRUE,,,,,,,CLR,,,,,,,,VFR,,,,,,,,,,,,METAR,207.0
KTRL 280653Z AUTO 21003KT 10SM CLR 16/14 A3003 RMK AO2 SLP163 T01560139,KTRL,2018-10-28T06:53:00Z,32.72,-96.27,15.6,13.9,210,3,,10.0,30.029528,1016.3,,TRUE,TRUE,,,,,,,CLR,,,,,,,,VFR,,,,,,,,,,,,METAR,145.0
KTOR 280653Z AUTO 16004KT 10SM CLR 02/00 A3016 RMK AO2 SLP194 T00220000 402500000,KTOR,2018-10-28T06:53:00Z,42.07,-104.15,2.2,0.0,160,4,,10.0,30.159449,1019.4,,TRUE,TRUE,,,,,,,CLR,,,,,,,,VFR,,,,25.0,,,,,,,,METAR,1277.0
KTOP 280653Z AUTO 29007KT 10SM CLR 16/08 A2990 RMK AO2 SLP119 T01610083,KTOP,2018-10-28T06:53:00Z,39.07,-95.63,16.1,8.3,290,7,,10.0,29.899607,1011.9,,TRUE,TRUE,,,,,,,CLR,,,,,,,,VFR,,,,,,,,,,,,METAR,268.0
KTKI 280653Z AUTO 00000KT 10SM CLR 14/14 A3002 RMK AO2 SLP166 T01440139,KTKI,2018-10-28T06:53:00Z,33.18,-96.58,14.4,13.9,0,0,,10.0,30.02067,1016.6,,TRUE,TRUE,,,,,,,CLR,,,,,,,,VFR,,,,,,,,,,,,METAR,179.0
KSTJ 280653Z AUTO 32020G28KT 10SM FEW110 16/08 A2986 RMK AO2 PK WND 31028/0648 SLP107 T01610083,KSTJ,2018-10-28T06:53:00Z,39.77,-94.92,16.1,8.3,320,20,28,10.0,29.861221,1010.7,,TRUE,TRUE,,,,,,,FEW,11000,,,,,,,VFR,,,,,,,,,,,,METAR,247.0
KVIH 280653Z AUTO 20010KT 10SM CLR 11/05 A2990 RMK AO2 SLP122 T01110050,KVIH,2018-10-28T06:53:00Z,38.13,-91.77,11.1,5.0,200,10,,10.0,29.899607,1012.2,,TRUE,TRUE,,,,,,,CLR,,,,,,,,VFR,,,,,,,,,,,,METAR,333.0
KVGT 280653Z AUTO 33005KT 10SM CLR 17/03 A3007 RMK AO2 SLP185 T01670028,KVGT,2018-10-28T06:53:00Z,36.22,-115.2,16.7,2.8,330,5,,10.0,30.070866,1018.5,,TRUE,TRUE,,,,,,,CLR,,,,,,,,VFR,,,,,,,,,,,,METAR,671.0
KUTS 280653Z AUTO 21003KT 10SM CLR 17/14 A3009 RMK AO2 SLP183 T01720144,KUTS,2018-10-28T06:53:00Z,30.75,-95.58,17.2,14.4,210,3,,10.0,30.088583,1018.3,,TRUE,TRUE,,,,,,,CLR,,,,,,,,VFR,,,,,,,,,,,,METAR,104.0
KNIP 280653Z 28006KT 10SM CLR 14/10 A3009 RMK AO2 SLP185 T01390100,KNIP,2018-10-28T06:53:00Z,30.22,-81.67,13.9,10.0,280,6,,10.0,30.088583,1018.5,,,TRUE,,,,,,,CLR,,,,,,,,VFR,,,,,,,,,,,,SPECI,7.0
KP92 280653Z AUTO 00000KT A3011 RMK AO1 SLP197 $,KP92,2018-10-28T06:53:00Z,29.57,-91.53,,,0,0,,,30.109253,1019.7,,TRUE,TRUE,TRUE,,,,,,,,,,,,,,,,,,,,,,,,,,METAR,1.0
KOQT 280653Z AUTO 00000KT 10SM CLR 08/07 A3004 RMK AO2 SLP177 T00830072,KOQT,2018-10-28T06:53:00Z,36.02,-84.23,8.3,7.2,0,0,,10.0,30.041338,1017.7,,TRUE,TRUE,,,,,,,CLR,,,,,,,,VFR,,,,,,,,,,,,METAR,277.0
PHNL 280653Z 04011KT 10SM FEW026 26/22 A2999 RMK AO2 SLP153 T02610217,PHNL,2018-10-28T06:53:00Z,21.33,-157.92,26.1,21.7,40,11,,10.0,29.991142,1015.3,,,TRUE,,,,,,,FEW,2600,,,,,,,VFR,,,,,,,,,,,,METAR,4.0
PAPB 280653Z AUTO 01007KT 10SM BKN036 OVC047 03/M03 A3013 RMK AO2 SLP191 T00331028 TSNO,PAPB,2018-10-28T06:53:00Z,56.58,-169.67,3.3,-2.8,10,7,,10.0,30.129921,1019.1,,TRUE,TRUE,,,TRUE,,,,BKN,3600,OVC,4700,,,,,VFR,,,,,,,,,,,,METAR,35.0
PAKW 280653Z AUTO 00000KT 10SM CLR 09/01 A2931 RMK AO2 RAE43 SLP927 P0000 T00940006 TSNO,PAKW,2018-10-28T06:53:00Z,55.58,-133.07,9.4,0.6,0,0,,10.0,29.309055,992.7,,TRUE,TRUE,,,TRUE,,,,CLR,,,,,,,,VFR,,,,,,0.005,,,,,,METAR,15.0
PADQ 280653Z AUTO 35009KT 5SM -RA BR BKN024 BKN030 OVC034 07/06 A2945 RMK AO2 RAB28 SLP974 P0000 T00720056 TSNO $,PADQ,2018-10-28T06:53:00Z,57.75,-152.5,7.2,5.6,350,9,,5.0,29.450787,997.4,,TRUE,TRUE,TRUE,,TRUE,,,-RA BR,BKN,2400,BKN,3000,OVC,3400,,,MVFR,,,,,,0.005,,,,,,METAR,34.0
PABI 280653Z AUTO 33004KT 10SM CLR M04/M04 A2962 RMK AO2 SLP055 T10391044 TSNO,PABI,2018-10-28T06:53:00Z,64.0,-145.72,-3.9,-4.4,330,4,,10.0,29.619095,1005.5,,TRUE,TRUE,,,TRUE,,,,CLR,,,,,,,,VFR,,,,,,,,,,,,METAR,386.0
PABE 280653Z 33009KT 10SM CLR M04/M06 A2997 RMK AO2 SLP152 T10391061 $,PABE,2018-10-28T06:53:00Z,60.78,-161.83,-3.9,-6.1,330,9,,10.0,29.970472,1015.2,,,TRUE,TRUE,,,,,,CLR,,,,,,,,VFR,,,,,,,,,,,,METAR,41.0
PAAQ 280653Z AUTO 35008KT 10SM CLR 02/M03 A2956 RMK AO2 SLP015 T00171028 TSNO,PAAQ,2018-10-28T06:53:00Z,61.6,-149.08,1.7,-2.8,350,8,,10.0,29.56004,1001.5,,TRUE,TRUE,,,TRUE,,,,CLR,,,,,,,,VFR,,,,,,,,,,,,METAR,73.0
KBPI 280653Z AUTO 07004KT 10SM CLR 00/M04 A3025 RMK AO2 SLP201 T00001044 401611022,KBPI,2018-10-28T06:53:00Z,42.58,-110.1,0.0,-4.4,70,4,,10.0,30.250984,1020.1,,TRUE,TRUE,,,,,,,CLR,,,,,,,,VFR,,,,16.1,-2.2,,,,,,,METAR,2117.0
KBOI 280653Z 15010KT 10SM CLR 14/07 A2999 RMK AO2 SLP141 T01390072 401940067 $,KBOI,2018-10-28T06:53:00Z,43.57,-116.23,13.9,7.2,150,10,,10.0,29.991142,1014.1,,,TRUE,TRUE,,,,,,CLR,,,,,,,,VFR,,,,19.4,6.7,,,,,,,METAR,875.0
KBNO 280653Z AUTO 26004KT 10SM CLR 02/00 A3001 RMK AO2 SLP164 T00220000,KBNO,2018-10-28T06:53:00Z,43.6,-118.95,2.2,0.0,260,4,,10.0,30.008858,1016.4,,TRUE,TRUE,,,,,,,CLR,,,,,,,,VFR,,,,,,,,,,,,METAR,1264.0
KBNA 280653Z 18003KT 8SM CLR 07/06 A3003 RMK AO2 SLP169 T00670056,KBNA,2018-10-28T06:53:00Z,36.12,-86.68,6.7,5.6,180,3,,8.0,30.029528,1016.9,,,TRUE,,,,,,,CLR,,,,,,,,VFR,,,,,,,,,,,,METAR,210.0
KBLI 280653Z AUTO VRB04KT 10SM OVC029 11/08 A2970 RMK AO2 SLP063 T01060083,KBLI,2018-10-28T06:53:00Z,48.8,-122.53,10.6,8.3,0,4,,10.0,29.698818,1006.3,,TRUE,TRUE,,,,,,,OVC,2900,,,,,,,MVFR,,,,,,,,,,,,METAR,50.0
KBKV 280653Z AUTO 35005KT 10SM CLR 14/11 A3010 RMK AO2 SLP192 T01390111,KBKV,2018-10-28T06:53:00Z,28.47,-82.45,13.9,11.1,350,5,,10.0,30.100393,1019.2,,TRUE,TRUE,,,,,,,CLR,,,,,,,,VFR,,,,,,,,,,,,METAR,20.0
KBKE 280653Z AUTO 08006KT 10SM CLR 11/07 A2999 RMK AO2 SLP151 T01060067 PNO $,KBKE,2018-10-28T06:53:00Z,44.85,-117.82,10.6,6.7,80,6,,10.0,29.991142,1015.1,,TRUE,TRUE,TRUE,,,,,,CLR,,,,,,,,VFR,,,,,,,,,,,,METAR,1024.0
KBIL 280653Z 22009KT 10SM CLR 06/02 A3010 RMK AO2 SLP197 T00560022 401560056,KBIL,2018-10-28T06:53:00Z,45.8,-108.55,5.6,2.2,220,9,,10.0,30.100393,1019.7,,,TRUE,,,,,,,CLR,,,,,,,,VFR,,,,15.6,5.6,,,,,,,METAR,1091.0
KBHM 280653Z 00000KT 9SM FEW048 08/08 A3010 RMK AO2 SLP192 T00830078,KBHM,2018-10-28T06:53:00Z,33.57,-86.75,8.3,7.8,0,0,,9.0,30.100393,1019.2,,,TRUE,,,,,,,FEW,4800,,,,,,,VFR,,,,,,,,,,,,METAR,197.0
KBFI 280653Z 16007KT 7SM -RA SCT016 BKN036 OVC045 13/12 A2977 RMK AO2 RAE24B45 SLP079 P0003 T01280117,KBFI,2018-10-28T06:53:00Z,47.55,-122.32,12.8,11.7,160,7,,7.0,29.769686,1007.9,,,TRUE,,,,,,-RA,SCT,1600,BKN,3600,OVC,4500,,,VFR,,,,,,0.03,,,,,,METAR,4.0
KBCE 280653Z AUTO 29006KT 10SM CLR 00/M02 A3036 RMK AO2 SLP209 T00001017 401721017,KBCE,2018-10-28T06:53:00Z,37.7,-112.15,0.0,-1.7,290,6,,10.0,30.360237,1020.9,,TRUE,TRUE,,,,,,,CLR,,,,,,,,VFR,,,,17.2,-1.7,,,,,,,METAR,2312.0
KAXN 280653Z AUTO 31021G33KT 10SM BKN016 OVC021 07/03 A2972 RMK AO2 PK WND 31035/0631 SLP070 T00720033,KAXN,2018-10-28T06:53:00Z,45.87,-95.4,7.2,3.3,310,21,33,10.0,29.719488,1007.0,,TRUE,TRUE,,,,,,,BKN,1600,OVC,2100,,,,,MVFR,,,,,,,,,,,,METAR,433.0
KAWM 280653Z AUTO 18005KT 8SM CLR 11/11 A3001 RMK AO2 SLP159 T01110111 $,KAWM,2018-10-28T06:53:00Z,35.13,-90.23,11.1,11.1,180,5,,8.0,30.008858,1015.9,,TRUE,TRUE,TRUE,,,,,,CLR,,,,,,,,VFR,,,,,,,,,,,,METAR,65.0
KATY 280653Z AUTO 28014G21KT 10SM CLR 05/03 A2986 RMK AO2 SLP116 T00500033,KATY,2018-10-28T06:53:00Z,44.9,-97.15,5.0,3.3,280,14,21,10.0,29.861221,1011.6,,TRUE,TRUE,,,,,,,CLR,,,,,,,,VFR,,,,,,,,,,,,METAR,532.0
KASX 280653Z AUTO 11004KT 5SM -RA BR OVC018 07/04 A2968 RMK AO2 RAB49 SLP056 P0000 T00670044,KASX,2018-10-28T06:53:00Z,46.55,-90.92,6.7,4.4,110,4,,5.0,29.681103,1005.6,,TRUE,TRUE,,,,,,-RA BR,OVC,1800,,,,,,,MVFR,,,,,,0.005,,,,,,METAR,251.0
KARB 280653Z AUTO 28004KT 10SM OVC017 04/03 A2983 RMK AO2 SLP107 T00390033,KARB,2018-10-28T06:53:00Z,42.22,-83.73,3.9,3.3,280,4,,10.0,29.828741,1010.7,,TRUE,TRUE,,,,,,,OVC,1700,,,,,,,MVFR,,,,,,,,,,,,METAR,251.0
KAPF 280653Z AUTO 02003KT 10SM CLR 20/17 A3006 RMK AO2 SLP176 T02000167,KAPF,2018-10-28T06:53:00Z,26.15,-81.77,20.0,16.7,20,3,,10.0,30.059055,1017.6,,TRUE,TRUE,,,,,,,CLR,,,,,,,,VFR,,,,,,,,,,,,METAR,3.0
KANB 280653Z AUTO 24003KT 10SM CLR 08/07 A3008 RMK AO2 SLP190 T00780072,KANB,2018-10-28T06:53:00Z,33.58,-85.85,7.8,7.2,240,3,,10.0,30.079725,1019.0,,TRUE,TRUE,,,,,,,CLR,,,,,,,,VFR,,,,,,,,,,,,METAR,183.0
KAMW 280653Z AUTO 30016G22KT 10SM BKN110 12/09 A2981 RMK AO2 SLP091 T01220089,KAMW,2018-10-28T06:53:00Z,41.98,-93.62,12.2,8.9,300,16,22,10.0,29.811024,1009.1,,TRUE,TRUE,,,,,,,BKN,11000,,,,,,,VFR,,,,,,,,,,,,METAR,279.0
KAMG 280653Z AUTO 00000KT 9SM CLR 08/07 A3008 RMK AO2 SLP184 T00830067,KAMG,2018-10-28T06:53:00Z,31.53,-82.5,8.3,6.7,0,0,,9.0,30.079725,1018.4,,TRUE,TRUE,,,,,,,CLR,,,,,,,,VFR,,,,,,,,,,,,METAR,59.0
KALW 280653Z AUTO 19008KT 10SM R20/5500VP6000FT CLR 12/08 A2983 RMK AO2 SLP101 T01220083,KALW,2018-10-28T06:53:00Z,46.1,-118.28,12.2,8.3,190,8,,10.0,29.828741,1010.1,,TRUE,TRUE,,,,,,,CLR,,,,,,,,VFR,,,,,,,,,,,,METAR,363.0
KAGS 280653Z 26006KT 10SM CLR 11/09 A3000 RMK AO2 SLP159 T01110089,KAGS,2018-10-28T06:53:00Z,33.37,-81.97,11.1,8.9,260,6,,10.0,30.0,1015.9,,,TRUE,,,,,,,CLR,,,,,,,,VFR,,,,,,,,,,,,METAR,44.0
KAGC 280653Z 28007KT 5SM -RA BR OVC006 07/07 A2973 RMK AO2 CIG 004V009 SLP076 P0002 T00720067,KAGC,2018-10-28T06:53:00Z,40.35,-79.92,7.2,6.7,280,7,,5.0,29.731298,1007.6,,,TRUE,,,,,,-RA BR,OVC,600,,,,,,,IFR,,,,,,0.02,,,,,,METAR,389.0
KADG 280653Z AUTO 33005KT 10SM OVC015 05/03 A2987 RMK AO2 SLP120 T00500028 TSNO,KADG,2018-10-28T06:53:00Z,41.87,-84.08,5.0,2.8,330,5,,10.0,29.870079,1012.0,,TRUE,TRUE,,,TRUE,,,,OVC,1500,,,,,,,MVFR,,,,,,,,,,,,METAR,241.0
KACV 280653Z AUTO 14004KT 10SM FEW060 SCT100 BKN120 17/13 A3003 RMK AO2 SLP171 T01720133,KACV,2018-10-28T06:53:00Z,40.98,-124.1,17.2,13.3,140,4,,10.0,30.029528,1017.1,,TRUE,TRUE,,,,,,,FEW,6000,SCT,10000,BKN,12000,,,VFR,,,,,,,,,,,,METAR,67.0
KABY 280653Z AUTO 00000KT 10SM CLR 08/07 A3013 RMK AO2 SLP201 T00780067,KABY,2018-10-28T06:53:00Z,31.53,-84.2,7.8,6.7,0,0,,10.0,30.129921,1020.1,,TRUE,TRUE,,,,,,,CLR,,,,,,,,VFR,,,,,,,,,,,,METAR,58.0
KABR 280653Z AUTO 30016G23KT 10SM CLR 06/01 A2992 RMK AO2 SLP136 T00610006,KABR,2018-10-28T06:53:00Z,45.45,-98.42,6.1,0.6,300,16,23,10.0,29.920275,1013.6,,TRUE,TRUE,,,,,,,CLR,,,,,,,,VFR,,,,,,,,,,,,METAR,397.0
KEET 280653Z AUTO 00000KT 7SM CLR 09/08 A3009 RMK AO2 SLP187 T00890083,KEET,2018-10-28T06:53:00Z,33.18,-86.78,8.9,8.3,0,0,,7.0,30.088583,1018.7,,TRUE,TRUE,,,,,,,CLR,,,,,,,,VFR,,,,,,,,,,,,METAR,173.0
KECP 280653Z AUTO 00000KT 10SM CLR 09/08 A3012 RMK AO2 SLP210 T00890078,KECP,2018-10-28T06:53:00Z,30.35,-85.8,8.9,7.8,0,0,,10.0,30.121063,1021.0,,TRUE,TRUE,,,,,,,CLR,,,,,,,,VFR,,,,,,,,,,,,METAR,21.0
KDTW 280653Z 30005KT 10SM FEW008 OVC015 06/03 A2983 RMK AO2 SLP105 T00560028,KDTW,2018-10-28T06:53:00Z,42.23,-83.33,5.6,2.8,300,5,,10.0,29.828741,1010.5,,,TRUE,,,,,,,FEW,800,OVC,1500,,,,,MVFR,,,,,,,,,,,,METAR,195.0
KDTS 280653Z AUTO 00000KT 10SM CLR 13/11 A3012 RMK AO2 SLP199 T01280106,KDTS,2018-10-28T06:53:00Z,30.4,-86.47,12.8,10.6,0,0,,10.0,30.121063,1019.9,,TRUE,TRUE,,,,,,,CLR,,,,,,,,VFR,,,,,,,,,,,,SPECI,5.0
KDNL 280653Z AUTO 28004KT 10SM CLR 11/08 A3001 RMK AO2 SLP159 T01110078,KDNL,2018-10-28T06:53:00Z,33.47,-82.03,11.1,7.8,280,4,,10.0,30.008858,1015.9,,TRUE,TRUE,,,,,,,CLR,,,,,,,,VFR,,,,,,,,,,,,METAR,130.0
KDLS 280653Z AUTO 33008KT 10SM -RA OVC090 13/12 A2983 RMK AO2 RAB26 SLP103 P0002 T01280117,KDLS,2018-10-28T06:53:00Z,45.62,-121.17,12.8,11.7,330,8,,10.0,29.828741,1010.3,,TRUE,TRUE,,,,,,-RA,OVC,9000,,,,,,,VFR,,,,,,0.02,,,,,,METAR,71.0
KDLN 280653Z AUTO 19006KT 10SM CLR 03/02 A3011 RMK AO2 SLP188 T00280017 401170017,KDLN,2018-10-28T06:53:00Z,45.25,-112.55,2.8,1.7,190,6,,10.0,30.109253,1018.8,,TRUE,TRUE,,,,,,,CLR,,,,,,,,VFR,,,,11.7,1.7,,,,,,,METAR,1591.0
KDKK 280653Z AUTO 11004KT 10SM -RA OVC013 03/03 A2975 RMK AO2 RAB00 SLP080 P0000 T00330028,KDKK,2018-10-28T06:53:00Z,42.5,-79.28,3.3,2.8,110,4,,10.0,29.749016,1008.0,,TRUE,TRUE,,,,,,-RA,OVC,1300,,,,,,,MVFR,,,,,,0.005,,,,,,METAR,202.0
KDHN 280653Z AUTO 26005KT 10SM CLR 12/09 A3015 RMK AO2 SLP206 T01170089,KDHN,2018-10-28T06:53:00Z,31.32,-85.45,11.7,8.9,260,5,,10.0,30.15059,1020.6,,TRUE,TRUE,,,,,,,CLR,,,,,,,,VFR,,,,,,,,,,,,METAR,113.0
KDFI 280653Z AUTO 00000KT 10SM OVC038 06/04 A2988 RMK AO2 SLP121 T00610039,KDFI,2018-10-28T06:53:00Z,41.33,-84.43,6.1,3.9,0,0,,10.0,29.878937,1012.1,,TRUE,TRUE,,,,,,,OVC,3800,,,,,,,VFR,,,,,,,,,,,,METAR,219.0
KDEW 280653Z AUTO 03009KT 10SM -RA BKN042 OVC065 07/04 A2992 RMK AO2 RAB0556 SLP138 P0002 T00670044 $,KDEW,2018-10-28T06:53:00Z,47.97,-117.43,6.7,4.4,30,9,,10.0,29.920275,1013.8,,TRUE,TRUE,TRUE,,,,,-RA,BKN,4200,OVC,6500,,,,,VFR,,,,,,0.02,,,,,,METAR,674.0
KDET 280653Z 31003KT 10SM BKN018 OVC025 05/03 A2983 RMK AO2 SLP104 T00500033,KDET,2018-10-28T06:53:00Z,42.4,-83.02,5.0,3.3,310,3,,10.0,29.828741,1010.4,,,TRUE,,,,,,,BKN,1800,OVC,2500,,,,,MVFR,,,,,,,,,,,,METAR,190.0
KDAB 280653Z 33005KT 10SM SCT150 14/13 A3008 RMK AO2 SLP185 T01390128,KDAB,2018-10-28T06:53:00Z,29.18,-81.07,13.9,12.8,330,5,,10.0,30.079725,1018.5,,,TRUE,,,,,,,SCT,15000,,,,,,,VFR,,,,,,,,,,,,METAR,9.0
KCUB 280653Z AUTO 00000KT 10SM CLR 09/07 A2998 RMK AO2 SLP151 T00940072,KCUB,2018-10-28T06:53:00Z,33.97,-81.0,9.4,7.2,0,0,,10.0,29.97933,1015.1,,TRUE,TRUE,,,,,,,CLR,,,,,,,,VFR,,,,,,,,,,,,METAR,56.0
KCSV 280653Z AUTO 00000KT 1/2SM FG VV001 04/04 A3003 RMK AO2 SLP170 T00440039,KCSV,2018-10-28T06:53:00Z,35.95,-85.08,4.4,3.9,0,0,,0.5,30.029528,1017.0,,TRUE,TRUE,,,,,,FG,OVX,0,,,,,,,LIFR,,,,,,,,,,,100,METAR,570.0
KCRG 280653Z AUTO 30007KT 10SM CLR 13/09 A3008 RMK AO2 SLP187 T01330089,KCRG,2018-10-28T06:53:00Z,30.33,-81.52,13.3,8.9,300,7,,10.0,30.079725,1018.7,,TRUE,TRUE,,,,,,,CLR,,,,,,,,VFR,,,,,,,,,,,,METAR,13.0
KCRE 280653Z AUTO 26005KT 10SM CLR 12/09 A2994 RMK AO1 SLP139 T01170094,KCRE,2018-10-28T06:53:00Z,33.82,-78.72,11.7,9.4,260,5,,10.0,29.940945,1013.9,,TRUE,TRUE,,,,,,,CLR,,,,,,,,VFR,,,,,,,,,,,,METAR,10.0
KCNY 280653Z AUTO 25003KT 10SM CLR 07/03 A3020 RMK AO2 SLP205 T00720033 401940033,KCNY,2018-10-28T06:53:00Z,38.77,-109.75,7.2,3.3,250,3,,10.0,30.200787,1020.5,,TRUE,TRUE,,,,,,,CLR,,,,,,,,VFR,,,,19.4,3.3,,,,,,,METAR,1390.0
KCHA 280653Z AUTO 00000KT 10SM CLR 08/07 A3006 RMK AO2 SLP177 T00830067 $,KCHA,2018-10-28T06:53:00Z,35.03,-85.2,8.3,6.7,0,0,,10.0,30.059055,1017.7,,TRUE,TRUE,TRUE,,,,,,CLR,,,,,,,,VFR,,,,,,,,,,,,METAR,210.0
KCEW 280653Z AUTO 00000KT 7SM CLR 08/07 A3014 RMK AO2 SLP204 T00780067,KCEW,2018-10-28T06:53:00Z,30.78,-86.52,7.8,6.7,0,0,,7.0,30.138779,1020.4,,TRUE,TRUE,,,,,,,CLR,,,,,,,,VFR,,,,,,,,,,,,METAR,55.0
KCDC 280653Z AUTO 18006KT 10SM CLR 08/M02 A3023 RMK AO2 SLP191 T00831022 402170011,KCDC,2018-10-28T06:53:00Z,37.7,-113.1,8.3,-2.2,180,6,,10.0,30.230314,1019.1,,TRUE,TRUE,,,,,,,CLR,,,,,,,,VFR,,,,21.7,1.1,,,,,,,METAR,1714.0
KCCR 280653Z 10SM CLR 17/13 A3006 RMK AO2 SLP164 T01720128 $,KCCR,2018-10-28T06:53:00Z,38.0,-122.05,17.2,12.8,,,,10.0,30.059055,1016.4,,,TRUE,TRUE,,,,,,CLR,,,,,,,,VFR,,,,,,,,,,,,METAR,11.0
KBWG 280653Z AUTO 20004KT 6SM BR CLR 06/04 A3001 RMK AO2 SLP164 T00610044,KBWG,2018-10-28T06:53:00Z,36.97,-86.42,6.1,4.4,200,4,,6.0,30.008858,1016.4,,TRUE,TRUE,,,,,,BR,CLR,,,,,,,,VFR,,,,,,,,,,,,METAR,168.0
KBTM 280653Z AUTO 00000KT 10SM CLR M01/M04 A3012 RMK AO2 SLP200 T10111044 401391017,KBTM,2018-10-28T06:53:00Z,45.97,-112.5,-1.1,-4.4,0,0,,10.0,30.121063,1020.0,,TRUE,TRUE,,,,,,,CLR,,,,,,,,VFR,,,,13.9,-1.7,,,,,,,METAR,1688.0
KMLP 280653Z AUTO VRB05KT 10SM -RA FEW017 BKN038 OVC100 02/M01 A2999 RMK AO2 RAB46 SLP116 P0000 T00221006,KMLP,2018-10-28T06:53:00Z,47.45,-115.67,2.2,-0.6,0,5,,10.0,29.991142,1011.6,,TRUE,TRUE,,,,,,-RA,FEW,1700,BKN,3800,OVC,10000,,,VFR,,,,,,0.005,,,,,,METAR,1837.0
KMLB 280653Z AUTO 32007KT 10SM CLR 16/11 A3007 RMK AO2 SLP180 T01560111,KMLB,2018-10-28T06:53:00Z,28.1,-80.65,15.6,11.1,320,7,,10.0,30.070866,1018.0,,TRUE,TRUE,,,,,,,CLR,,,,,,,,VFR,,,,,,,,,,,,METAR,11.0
KMKL 280653Z AUTO 00000KT 8SM CLR 07/06 A3002 RMK AO2 SLP165 T00670061,KMKL,2018-10-28T06:53:00Z,35.6,-88.92,6.7,6.1,0,0,,8.0,30.02067,1016.5,,TRUE,TRUE,,,,,,,CLR,,,,,,,,VFR,,,,,,,,,,,,METAR,128.0
KMIC 280653Z AUTO 27012G19KT 10SM BKN019 OVC025 09/07 A2959 RMK AO2 PK WND 28028/0626 SLP023 T00890067,KMIC,2018-10-28T06:53:00Z,45.07,-93.35,8.9,6.7,270,12,19,10.0,29.589567,1002.3,,TRUE,TRUE,,,,,,,BKN,1900,OVC,2500,,,,,MVFR,,,,,,,,,,,,METAR,265.0
KMIA 280653Z VRB04KT 10SM FEW090 22/18 A3004 RMK AO2 SLP173 T02170178,KMIA,2018-10-28T06:53:00Z,25.8,-80.28,21.7,17.8,0,4,,10.0,30.041338,1017.3,,,TRUE,,,,,,,FEW,9000,,,,,,,VFR,,,,,,,,,,,,METAR,3.0
KMHE 280653Z AUTO 26009KT 10SM CLR 06/02 A2997 RMK AO2 SLP153 T00560017,KMHE,2018-10-28T06:53:00Z,43.77,-98.02,5.6,1.7,260,9,,10.0,29.970472,1015.3,,TRUE,TRUE,,,,,,,CLR,,,,,,,,VFR,,,,,,,,,,,,METAR,397.0
KJBR 280653Z AUTO 24003KT 10SM CLR 13/12 A2999 RMK AO2 SLP154 T01280122,KJBR,2018-10-28T06:53:00Z,35.83,-90.65,12.8,12.2,240,3,,10.0,29.991142,1015.4,,TRUE,TRUE,,,,,,,CLR,,,,,,,,VFR,,,,,,,,,,,,METAR,79.0
KIDA 280653Z AUTO 20006KT 10SM CLR 09/04 A3015 RMK AO2 SLP189 T00890039 401830067,KIDA,2018-10-28T06:53:00Z,43.52,-112.07,8.9,3.9,200,6,,10.0,30.15059,1018.9,,TRUE,TRUE,,,,,,,CLR,,,,,,,,VFR,,,,18.3,6.7,,,,,,,METAR,1453.0
KICR 280653Z AUTO 26009KT 10SM CLR 04/M02 A3005 RMK AO2 SLP175 T00391017,KICR,2018-10-28T06:53:00Z,43.38,-99.85,3.9,-1.7,260,9,,10.0,30.050198,1017.5,,TRUE,TRUE,,,,,,,CLR,,,,,,,,VFR,,,,,,,,,,,,METAR,621.0
KIAG 280653Z AUTO 03008KT 10SM -RA OVC006 03/02 A2975 RMK AO2 CIG 004V010 SLP084 P0004 T00280017,KIAG,2018-10-28T06:53:00Z,43.12,-78.93,2.8,1.7,30,8,,10.0,29.749016,1008.4,,TRUE,TRUE,,,,,,-RA,OVC,600,,,,,,,IFR,,,,,,0.04,,,,,,METAR,182.0
KHZY 280653Z AUTO 02003KT 10SM OVC021 05/04 A2976 RMK AO2 RAB13E27 SLP082 P0000 T00500044,KHZY,2018-10-28T06:53:00Z,41.78,-80.7,5.0,4.4,20,3,,10.0,29.760826,1008.2,,TRUE,TRUE,,,,,,,OVC,2100,,,,,,,MVFR,,,,,,0.005,,,,,,METAR,276.0
PHLI 280653Z 05013KT 10SM FEW017 SCT024 SCT039 26/22 A3003 RMK AO2 SLP164 T02560217,PHLI,2018-10-28T06:53:00Z,21.97,-159.33,25.6,21.7,50,13,,10.0,30.029528,1016.4,,,TRUE,,,,,,,FEW,1700,SCT,2400,SCT,3900,,,VFR,,,,,,,,,,,,METAR,45.0
PHKO 280653Z 29005KT 10SM SCT030 27/23 A2996 RMK AO2 SLP145 T02670233,PHKO,2018-10-28T06:53:00Z,19.73,-156.05,26.7,23.3,290,5,,10.0,29.958662,1014.5,,,TRUE,,,,,,,SCT,3000,,,,,,,VFR,,,,,,,,,,,,METAR,27.0
PASN 280653Z AUTO 34010KT 10SM BKN043 OVC050 02/M04 A3014 RMK AO2 SLP208 T00221039 TSNO,PASN,2018-10-28T06:53:00Z,57.15,-170.22,2.2,-3.9,340,10,,10.0,30.138779,1020.8,,TRUE,TRUE,,,TRUE,,,,BKN,4300,OVC,5000,,,,,VFR,,,,,,,,,,,,METAR,29.0
PASI 280653Z 00000KT 10SM FEW050 12/M02 A2938 RMK AO2 SLP949 T01221017,PASI,2018-10-28T06:53:00Z,57.07,-135.35,12.2,-1.7,0,0,,10.0,29.379921,994.9,,,TRUE,,,,,,,FEW,5000,,,,,,,VFR,,,,,,,,,,,,METAR,5.0
PASC 280653Z 35004KT 9SM -SN OVC085 M08/M09 A2976 RMK AO2 SLP080 P0000 T10831094 $,PASC,2018-10-28T06:53:00Z,70.2,-148.47,-8.3,-9.4,350,4,,9.0,29.760826,1008.0,,,TRUE,TRUE,,,,,-SN,OVC,8500,,,,,,,VFR,,,,,,0.005,,,,,,METAR,15.0
PAOT 280653Z 34013KT 10SM CLR M04/M08 A2986 RMK AO2 SLP112 T10391078 $,PAOT,2018-10-28T06:53:00Z,66.87,-162.58,-3.9,-7.8,340,13,,10.0,29.861221,1011.2,,,TRUE,TRUE,,,,,,CLR,,,,,,,,VFR,,,,,,,,,,,,METAR,3.0
PAOR 280653Z 00000KT 10SM SCT090 BKN150 M09/M10 A2964 RMK AO2 SLP079 T10891100 $,PAOR,2018-10-28T06:53:00Z,62.97,-141.93,-8.9,-10.0,0,0,,10.0,29.639763,1007.9,,,TRUE,TRUE,,,,,,SCT,9000,BKN,15000,,,,,VFR,,,,,,,,,,,,METAR,523.0
PAOM 280653Z AUTO 31006KT 10SM CLR M06/M08 A2999 RMK AO2 SLP156 T10561083 TSNO,PAOM,2018-10-28T06:53:00Z,64.5,-165.43,-5.6,-8.3,310,6,,10.0,29.991142,1015.6,,TRUE,TRUE,,,TRUE,,,,CLR,,,,,,,,VFR,,,,,,,,,,,,METAR,11.0
PANC 280653Z 33004KT 10SM CLR 03/01 A2956 RMK AO2 SLP013 T00280006,PANC,2018-10-28T06:53:00Z,61.17,-150.0,2.8,0.6,330,4,,10.0,29.56004,1001.3,,,TRUE,,,,,,,CLR,,,,,,,,VFR,,,,,,,,,,,,METAR,38.0
PAMR 280653Z 01003KT 10SM CLR 01/M01 A2957 RMK AO2 SLP013 T00061011,PAMR,2018-10-28T06:53:00Z,61.22,-149.85,0.6,-1.1,10,3,,10.0,29.568897,1001.3,,,TRUE,,,,,,,CLR,,,,,,,,VFR,,,,,,,,,,,,METAR,41.0
PALH 280653Z AUTO 10SM CLR 02/00 A2958 RMK AO2 SLP016 T00170000 TSNO $,PALH,2018-10-28T06:53:00Z,61.18,-149.97,1.7,0.0,,,,10.0,29.58071,1001.6,,TRUE,TRUE,TRUE,,TRUE,,,,CLR,,,,,,,,VFR,,,,,,,,,,,,METAR,22.0
PAKT 280653Z AUTO 10021G32KT 060V140 10SM CLR 13/M04 A2934 RMK AO2 PK WND 07032/0651 WSHFT 0627 SLP935 T01331039 TSNO,PAKT,2018-10-28T06:53:00Z,55.35,-131.7,13.3,-3.9,100,21,32,10.0,29.338583,993.5,,TRUE,TRUE,,,TRUE,,,,CLR,,,,,,,,VFR,,,,,,,,,,,,METAR,28.0
PAIL 280653Z AUTO 33010KT 10SM SCT070 03/01 A2960 RMK AO2 SLP025 T00330006 TSNO,PAIL,2018-10-28T06:53:00Z,59.75,-154.92,3.3,0.6,330,10,,10.0,29.601377,1002.5,,TRUE,TRUE,,,TRUE,,,,SCT,7000,,,,,,,VFR,,,,,,,,,,,,METAR,49.0
PAHO 280653Z AUTO 00000KT 10SM FEW065 OVC090 04/02 A2951 RMK AO2 SLP992 T00440017 TSNO,PAHO,2018-10-28T06:53:00Z,59.63,-151.47,4.4,1.7,0,0,,10.0,29.509842,999.2,,TRUE,TRUE,,,TRUE,,,,FEW,6500,OVC,9000,,,,,VFR,,,,,,,,,,,,METAR,28.0
PAGY 280653Z AUTO 02009G18KT 10SM CLR 09/M01 A2964 RMK AO2 SLP036 T00891006 TSNO,PAGY,2018-10-28T06:53:00Z,59.47,-135.3,8.9,-0.6,20,9,18,10.0,29.639763,1003.6,,TRUE,TRUE,,,TRUE,,,,CLR,,,,,,,,VFR,,,,,,,,,,,,METAR,5.0
PAGK 280653Z AUTO 35005KT 10SM FEW110 M04/M06 A2961 RMK AO2 SLP054 T10441061 TSNO,PAGK,2018-10-28T06:53:00Z,62.15,-145.45,-4.4,-6.1,350,5,,10.0,29.610237,1005.4,,TRUE,TRUE,,,TRUE,,,,FEW,11000,,,,,,,VFR,,,,,,,,,,,,METAR,481.0
PAFA 280653Z 18003KT 2 1/2SM BR BKN002 OVC008 M01/M01 A2964 RMK AO2 SLP047 T10061006 $,PAFA,2018-10-28T06:53:00Z,64.8,-147.85,-0.6,-0.6,180,3,,2.5,29.639763,1004.7,,,TRUE,TRUE,,,,,BR,BKN,200,OVC,800,,,,,LIFR,,,,,,,,,,,,METAR,132.0
PAEN 280653Z AUTO 36009KT 10SM CLR 04/03 A2955 RMK AO2 SLP008 T00390028 TSNO,PAEN,2018-10-28T06:53:00Z,60.57,-151.25,3.9,2.8,360,9,,10.0,29.551182,1000.8,,TRUE,TRUE,,,TRUE,,,,CLR,,,,,,,,VFR,,,,,,,,,,,,METAR,27.0
PAEG 280653Z AUTO 19003KT 10SM CLR M04/M06 A2968 RMK AO2 SLP062 T10441056 TSNO $,PAEG,2018-10-28T06:53:00Z,64.78,-141.15,-4.4,-5.6,190,3,,10.0,29.681103,1006.2,,TRUE,TRUE,TRUE,,TRUE,,,,CLR,,,,,,,,VFR,,,,,,,,,,,,METAR,268.0
PADE 280653Z AUTO 32017KT 10SM FEW042 FEW050 M01/M08 A2986 RMK AO2 PK WND 32027/0602 UPB0559E09SNB00E01B09E10 SLP112 P0000 T10111078 TSNO,PADE,2018-10-28T06:53:00Z,66.07,-162.77,-1.1,-7.8,320,17,,10.0,29.861221,1011.2,,TRUE,TRUE,,,TRUE,,,,FEW,4200,FEW,5000,,,,,VFR,,,,,,0.005,,,,,,METAR,5.0
PACV 280653Z 06004KT 8SM -RA OVC036 06/04 A2954 RMK AO2 SLP004 P0005 T00610044,PACV,2018-10-28T06:53:00Z,60.5,-145.47,6.1,4.4,60,4,,8.0,29.53937,1000.4,,,TRUE,,,,,,-RA,OVC,3600,,,,,,,VFR,,,,,,0.05,,,,,,METAR,12.0
PACD 280653Z AUTO 35017G27KT 10SM OVC045 03/M03 A2989 RMK AO2 PK WND 35035/0604 SLP122 T00331028 TSNO,PACD,2018-10-28T06:53:00Z,55.2,-162.72,3.3,-2.8,350,17,27,10.0,29.890747,1012.2,,TRUE,TRUE,,,TRUE,,,,OVC,4500,,,,,,,VFR,,,,,,,,,,,,METAR,30.0
PABT 280653Z 00000KT 5SM -SN BR OVC030 M04/M04 A2965 RMK AO2 SLP054 T10391044 PNO $,PABT,2018-10-28T06:53:00Z,66.92,-151.52,-3.9,-4.4,0,0,,5.0,29.648623,1005.4,,,TRUE,TRUE,,,,,-SN BR,OVC,3000,,,,,,,MVFR,,,,,,,,,,,,METAR,195.0
PHJR 280653Z 07004KT 10SM CLR 25/22 A3000 RMK AO2 SLP164 T02500217,PHJR,2018-10-28T06:53:00Z,21.32,-158.07,25.0,21.7,70,4,,10.0,30.0,1016.4,,,TRUE,,,,,,,CLR,,,,,,,,VFR,,,,,,,,,,,,METAR,15.0
PAYA 280653Z AUTO 00000KT 10SM CLR 03/02 A2948 RMK AO2 SLP983 T00330022 TSNO,PAYA,2018-10-28T06:53:00Z,59.52,-139.67,3.3,2.2,0,0,,10.0,29.480314,998.3,,TRUE,TRUE,,,TRUE,,,,CLR,,,,,,,,VFR,,,,,,,,,,,,METAR,11.0
PAWI 280653Z AUTO 35011KT 10SM FEW029 OVC055 M05/M08 A2981 RMK AO2 SNE38 SLP095 P0000 T10501083 TSNO,PAWI,2018-10-28T06:53:00Z,70.62,-159.85,-5.0,-8.3,350,11,,10.0,29.811024,1009.5,,TRUE,TRUE,,,TRUE,,,,FEW,2900,OVC,5500,,,,,VFR,,,,,,0.005,,,,,,METAR,27.0
PAWD 280653Z AUTO 34014KT 10SM OVC080 08/03 A2949 RMK AO2 SLP985 T00830028 TSNO $,PAWD,2018-10-28T06:53:00Z,60.12,-149.42,8.3,2.8,340,14,,10.0,29.489174,998.5,,TRUE,TRUE,TRUE,,TRUE,,,,OVC,8000,,,,,,,VFR,,,,,,,,,,,,METAR,23.0
PATO 280653Z AUTO 00000KT 10SM FEW110 03/02 RMK AO2 SLPNO T00280022 TSNO $,PATO,2018-10-28T06:53:00Z,60.78,-148.85,2.8,2.2,0,0,,10.0,,,,TRUE,TRUE,TRUE,,TRUE,,,,FEW,11000,,,,,,,VFR,,,,,,,,,,,,METAR,31.0
PASO 280653Z AUTO 00000KT 9SM SCT095 03/02 A2951 RMK AO2 SLP992 T00280017 TSNO,PASO,2018-10-28T06:53:00Z,59.45,-151.7,2.8,1.7,0,0,,9.0,29.509842,999.2,,TRUE,TRUE,,,TRUE,,,,SCT,9500,,,,,,,VFR,,,,,,,,,,,,METAR,9.0
KP68 280653Z AUTO 22006KT 08/M04 A3019 RMK AO1 SLP167 T00781044,KP68,2018-10-28T06:53:00Z,39.6,-116.0,7.8,-4.4,220,6,,,30.188976,1016.7,,TRUE,TRUE,,,,,,,,,,,,,,,,,,,,,,,,,,,METAR,1809.0
KGNV 280653Z AUTO 30004KT 10SM CLR 11/09 A3012 RMK AO2 SLP199 T01060094,KGNV,2018-10-28T06:53:00Z,29.7,-82.28,10.6,9.4,300,4,,10.0,30.121063,1019.9,,TRUE,TRUE,,,,,,,CLR,,,,,,,,VFR,,,,,,,,,,,,METAR,45.0
KGMU 280653Z 00000KT 10SM CLR 08/06 A2998 RMK AO2 SLP148 T00830056,KGMU,2018-10-28T06:53:00Z,34.85,-82.35,8.3,5.6,0,0,,10.0,29.97933,1014.8,,,TRUE,,,,,,,CLR,,,,,,,,VFR,,,,,,,,,,,,METAR,315.0
KGLR 280653Z AUTO 00000KT 10SM FEW007 OVC029 01/01 A2983 RMK AO2 SLP113 T00110011,KGLR,2018-10-28T06:53:00Z,45.02,-84.68,1.1,1.1,0,0,,10.0,29.828741,1011.3,,TRUE,TRUE,,,,,,,FEW,700,OVC,2900,,,,,MVFR,,,,,,,,,,,,METAR,407.0
KGLH 280653Z AUTO 21004KT 10SM CLR 12/11 A3004 RMK AO2 SLP180 T01220106,KGLH,2018-10-28T06:53:00Z,33.5,-90.98,12.2,10.6,210,4,,10.0,30.041338,1018.0,,TRUE,TRUE,,,,,,,CLR,,,,,,,,VFR,,,,,,,,,,,,METAR,45.0
KBPK 280653Z AUTO 00000KT 10SM CLR 10/08 A2996 RMK AO2 SLP143 T01000083,KBPK,2018-10-28T06:53:00Z,36.37,-92.47,10.0,8.3,0,0,,10.0,29.958662,1014.3,,TRUE,TRUE,,,,,,,CLR,,,,,,,,VFR,,,,,,,,,,,,METAR,280.0
KGSP 280653Z AUTO 00000KT 10SM CLR 06/05 A2997 RMK AO2 SLP147 T00610050,KGSP,2018-10-28T06:53:00Z,34.9,-82.22,6.1,5.0,0,0,,10.0,29.970472,1014.7,,TRUE,TRUE,,,,,,,CLR,,,,,,,,VFR,,,,,,,,,,,,METAR,287.0
KGRI 280653Z AUTO 34013G24KT 10SM CLR 11/04 A3005 RMK AO2 PK WND 34027/0643 SLP173 T01060039,KGRI,2018-10-28T06:53:00Z,40.97,-98.32,10.6,3.9,340,13,24,10.0,30.050198,1017.3,,TRUE,TRUE,,,,,,,CLR,,,,,,,,VFR,,,,,,,,,,,,METAR,561.0
KGVL 280653Z AUTO 27004KT 10SM CLR 08/07 A3002 RMK AO2 SLP163 T00780067,KGVL,2018-10-28T06:53:00Z,34.27,-83.83,7.8,6.7,270,4,,10.0,30.02067,1016.3,,TRUE,TRUE,,,,,,,CLR,,,,,,,,VFR,,,,,,,,,,,,METAR,386.0
KGTF 280653Z 20009KT 10SM CLR 03/M07 A3004 RMK AO2 SLP181 T00331067 401670006,KGTF,2018-10-28T06:53:00Z,47.47,-111.38,3.3,-6.7,200,9,,10.0,30.041338,1018.1,,,TRUE,,,,,,,CLR,,,,,,,,VFR,,,,16.7,0.6,,,,,,,METAR,1119.0
KHKA 280653Z AUTO 19004KT 9SM CLR 11/09 A3000 RMK AO2 SLP157 T01060089 $,KHKA,2018-10-28T06:53:00Z,35.93,-89.83,10.6,8.9,190,4,,9.0,30.0,1015.7,,TRUE,TRUE,TRUE,,,,,,CLR,,,,,,,,VFR,,,,,,,,,,,,METAR,78.0
KHJO 280653Z AUTO 06004KT 5SM HZ CLR 14/12 A3003 RMK AO2 SLP171 T01440117,KHJO,2018-10-28T06:53:00Z,36.32,-119.62,14.4,11.7,60,4,,5.0,30.029528,1017.1,,TRUE,TRUE,,,,,,HZ,CLR,,,,,,,,MVFR,,,,,,,,,,,,METAR,74.0
KHIO 280653Z 19006KT 9SM -RA FEW050 BKN065 OVC080 16/15 A2980 RMK AO2 SLP088 P0006 T01560150,KHIO,2018-10-28T06:53:00Z,45.55,-122.95,15.6,15.0,190,6,,9.0,29.799213,1008.8,,,TRUE,,,,,,-RA,FEW,5000,BKN,6500,OVC,8000,,,VFR,,,,,,0.06,,,,,,METAR,68.0
KHIB 280653Z AUTO 07004KT 4SM -RA BR OVC036 04/04 A2966 RMK AO2 SLP054 P0003 T00440039,KHIB,2018-10-28T06:53:00Z,47.38,-92.83,4.4,3.9,70,4,,4.0,29.660433,1005.4,,TRUE,TRUE,,,,,,-RA BR,OVC,3600,,,,,,,MVFR,,,,,,0.03,,,,,,METAR,412.0
KHEI 280653Z AUTO 31005KT 10SM FEW100 M02/M05 A3002 RMK AO2 UPB16E25 SLP180 P0000 T10221050 401501022,KHEI,2018-10-28T06:53:00Z,46.02,-102.65,-2.2,-5.0,310,5,,10.0,30.02067,1018.0,,TRUE,TRUE,,,,,,,FEW,10000,,,,,,,VFR,,,,15.0,-2.2,0.005,,,,,,METAR,828.0
KGZH 280653Z AUTO 00000KT 9SM CLR 09/08 A3012 RMK AO2 SLP199 T00890078,KGZH,2018-10-28T06:53:00Z,31.42,-87.05,8.9,7.8,0,0,,9.0,30.121063,1019.9,,TRUE,TRUE,,,,,,,CLR,,,,,,,,VFR,,,,,,,,,,,,METAR,78.0
KGWO 280653Z AUTO 00000KT 9SM CLR 11/10 A3006 RMK AO2 SLP177 T01110100,KGWO,2018-10-28T06:53:00Z,33.5,-90.08,11.1,10.0,0,0,,9.0,30.059055,1017.7,,TRUE,TRUE,,,,,,,CLR,,,,,,,,VFR,,,,,,,,,,,,METAR,44.0
KHOT 280653Z AUTO 00000KT 10SM CLR 10/09 A3002 RMK AO2 SLP163 T01000094,KHOT,2018-10-28T06:53:00Z,34.48,-93.1,10.0,9.4,0,0,,10.0,30.02067,1016.3,,TRUE,TRUE,,,,,,,CLR,,,,,,,,VFR,,,,,,,,,,,,METAR,162.0
KHLN 280653Z AUTO 00000KT 10SM CLR 02/M03 A3008 RMK AO2 SLP205 T00221028 401610017,KHLN,2018-10-28T06:53:00Z,46.6,-111.98,2.2,-2.8,0,0,,10.0,30.079725,1020.5,,TRUE,TRUE,,,,,,,CLR,,,,,,,,VFR,,,,16.1,1.7,,,,,,,METAR,1182.0
KHKY 280653Z AUTO 00000KT 10SM OVC045 08/05 A2992 RMK AO2 SLP119 T00830050,KHKY,2018-10-28T06:53:00Z,35.75,-81.38,8.3,5.0,0,0,,10.0,29.920275,1011.9,,TRUE,TRUE,,,,,,,OVC,4500,,,,,,,VFR,,,,,,,,,,,,METAR,354.0
KHKS 280653Z AUTO 00000KT 10SM CLR 11/11 A3009 RMK AO2 SLP182 T01110111 $,KHKS,2018-10-28T06:53:00Z,32.33,-90.22,11.1,11.1,0,0,,10.0,30.088583,1018.2,,TRUE,TRUE,TRUE,,,,,,CLR,,,,,,,,VFR,,,,,,,,,,,,METAR,108.0
KHQM 280653Z AUTO 18012KT 6SM BR BKN011 OVC100 15/14 A2975 RMK AO2 SLP076 T01500139,KHQM,2018-10-28T06:53:00Z,46.97,-123.93,15.0,13.9,180,12,,6.0,29.749016,1007.6,,TRUE,TRUE,,,,,,BR,BKN,1100,OVC,10000,,,,,MVFR,,,,,,,,,,,,METAR,7.0
KHRI 280653Z AUTO 21005KT 10SM FEW100 12/09 A2983 RMK AO2 SLP100 T01170089,KHRI,2018-10-28T06:53:00Z,45.83,-119.27,11.7,8.9,210,5,,10.0,29.828741,1010.0,,TRUE,TRUE,,,,,,,FEW,10000,,,,,,,VFR,,,,,,,,,,,,METAR,195.0
KHRO 280653Z AUTO 11003KT 10SM CLR 09/07 A2998 RMK AO2 SLP147 T00940072,KHRO,2018-10-28T06:53:00Z,36.27,-93.15,9.4,7.2,110,3,,10.0,29.97933,1014.7,,TRUE,TRUE,,,,,,,CLR,,,,,,,,VFR,,,,,,,,,,,,METAR,417.0
KHSV 280653Z AUTO 00000KT 5SM BR CLR 08/08 A3006 RMK AO2 SLP177 T00830078,KHSV,2018-10-28T06:53:00Z,34.65,-86.78,8.3,7.8,0,0,,5.0,30.059055,1017.7,,TRUE,TRUE,,,,,,BR,CLR,,,,,,,,MVFR,,,,,,,,,,,,METAR,191.0
KHSI 280653Z AUTO 10SM CLR 11/05 A3003 RMK AO2 SLP163 T01110050,KHSI,2018-10-28T06:53:00Z,40.6,-98.43,11.1,5.0,,,,10.0,30.029528,1016.3,,TRUE,TRUE,,,,,,,CLR,,,,,,,,VFR,,,,,,,,,,,,METAR,591.0
KHTL 280653Z AUTO 00000KT 10SM OVC005 02/01 A2984 RMK AO2 SLP113 T00220011,KHTL,2018-10-28T06:53:00Z,44.35,-84.67,2.2,1.1,0,0,,10.0,29.840551,1011.3,,TRUE,TRUE,,,,,,,OVC,500,,,,,,,IFR,,,,,,,,,,,,METAR,351.0
KHVN 280653Z AUTO 30005KT 3SM BR OVC006 08/07 A2964 RMK AO2 CIG 004V010 SLP035 T00780067,KHVN,2018-10-28T06:53:00Z,41.27,-72.87,7.8,6.7,300,5,,3.0,29.639763,1003.5,,TRUE,TRUE,,,,,,BR,OVC,600,,,,,,,IFR,,,,,,,,,,,,METAR,4.0
KHVR 280653Z AUTO 26003KT 10SM CLR M03/M07 A3004 RMK AO2 SLP190 T10331067 401671044,KHVR,2018-10-28T06:53:00Z,48.55,-109.77,-3.3,-6.7,260,3,,10.0,30.041338,1019.0,,TRUE,TRUE,,,,,,,CLR,,,,,,,,VFR,,,,16.7,-4.4,,,,,,,METAR,787.0
KHWO 280653Z AUTO 33007KT 10SM BKN075 22/18 A3006 RMK AO2 SLP178 T02220178,KHWO,2018-10-28T06:53:00Z,26.0,-80.23,22.2,17.8,330,7,,10.0,30.059055,1017.8,,TRUE,TRUE,,,,,,,BKN,7500,,,,,,,VFR,,,,,,,,,,,,METAR,2.0
KELY 280653Z AUTO 17011KT 10SM CLR 03/M06 A3025 RMK AO2 SLP182 T00331061,KELY,2018-10-28T06:53:00Z,39.3,-114.85,3.3,-6.1,170,11,,10.0,30.250984,1018.2,,TRUE,TRUE,,,,,,,CLR,,,,,,,,VFR,,,,,,,,,,,,METAR,1906.0
KEQY 280653Z AUTO 24005KT 10SM CLR 06/04 A2993 RMK AO2 SLP147 T00610044,KEQY,2018-10-28T06:53:00Z,35.02,-80.62,6.1,4.4,240,5,,10.0,29.929134,1014.7,,TRUE,TRUE,,,,,,,CLR,,,,,,,,VFR,,,,,,,,,,,,METAR,212.0
KEVW 280653Z AUTO 18006KT 10SM CLR 08/M01 A3027 RMK AO2 SLP180 T00831011 401720028,KEVW,2018-10-28T06:53:00Z,41.27,-111.03,8.3,-1.1,180,6,,10.0,30.268702,1018.0,,TRUE,TRUE,,,,,,,CLR,,,,,,,,VFR,,,,17.2,2.8,,,,,,,METAR,2177.0
KEYW 280653Z AUTO 36007KT 10SM FEW028 27/20 A3004 RMK AO2 SLP172 T02670200,KEYW,2018-10-28T06:53:00Z,24.55,-81.75,26.7,20.0,360,7,,10.0,30.041338,1017.2,,TRUE,TRUE,,,,,,,FEW,2800,,,,,,,VFR,,,,,,,,,,,,METAR,5.0
KFAR 280653Z 30006KT 10SM SCT012 03/03 A2981 RMK AO2 SLP102 T00330033,KFAR,2018-10-28T06:53:00Z,46.93,-96.82,3.3,3.3,300,6,,10.0,29.811024,1010.2,,,TRUE,,,,,,,SCT,1200,,,,,,,VFR,,,,,,,,,,,,METAR,277.0
KFAT 280653Z 07003KT 10SM CLR 18/09 A3002 RMK AO2 SLP163 T01780089,KFAT,2018-10-28T06:53:00Z,36.78,-119.72,17.8,8.9,70,3,,10.0,30.02067,1016.3,,,TRUE,,,,,,,CLR,,,,,,,,VFR,,,,,,,,,,,,METAR,104.0
KFCM 280653Z AUTO 28015G26KT 10SM OVC023 09/06 A2962 RMK AO2 PK WND 27035/0627 SLP032 T00890056,KFCM,2018-10-28T06:53:00Z,44.83,-93.47,8.9,5.6,280,15,26,10.0,29.619095,1003.2,,TRUE,TRUE,,,,,,,OVC,2300,,,,,,,MVFR,,,,,,,,,,,,METAR,280.0
KFFC 280653Z AUTO 00000KT 7SM SCT044 SCT050 07/07 A3008 RMK AO2 SLP186 T00720067,KFFC,2018-10-28T06:53:00Z,33.35,-84.57,7.2,6.7,0,0,,7.0,30.079725,1018.6,,TRUE,TRUE,,,,,,,SCT,4400,SCT,5000,,,,,VFR,,,,,,,,,,,,METAR,262.0
KFHR 280653Z AUTO 11007KT 10SM OVC011 12/10 A2969 RMK AO2 SLP054 T01220100,KFHR,2018-10-28T06:53:00Z,48.52,-123.03,12.2,10.0,110,7,,10.0,29.68996,1005.4,,TRUE,TRUE,,,,,,,OVC,1100,,,,,,,MVFR,,,,,,,,,,,,METAR,32.0
KFLL 280653Z 33009KT 10SM BKN075 BKN250 21/18 A3003 RMK AO2 SLP169 T02110183,KFLL,2018-10-28T06:53:00Z,26.07,-80.15,21.1,18.3,330,9,,10.0,30.029528,1016.9,,,TRUE,,,,,,,BKN,7500,BKN,25000,,,,,VFR,,,,,,,,,,,,METAR,3.0
KFLO 280653Z AUTO 27005KT 10SM FEW065 11/08 A2995 RMK AO2 SLP140 T01060078,KFLO,2018-10-28T06:53:00Z,34.18,-79.73,10.6,7.8,270,5,,10.0,29.949802,1014.0,,TRUE,TRUE,,,,,,,FEW,6500,,,,,,,VFR,,,,,,,,,,,,METAR,44.0
KFMY 280653Z AUTO 09003KT 10SM CLR 18/16 A3005 RMK AO2 SLP178 T01830161,KFMY,2018-10-28T06:53:00Z,26.58,-81.87,18.3,16.1,90,3,,10.0,30.050198,1017.8,,TRUE,TRUE,,,,,,,CLR,,,,,,,,VFR,,,,,,,,,,,,METAR,4.0
KFNT 280653Z AUTO 31007KT 10SM BKN008 OVC011 04/03 A2984 RMK AO2 CIG 004V011 SLP111 T00390028,KFNT,2018-10-28T06:53:00Z,42.97,-83.75,3.9,2.8,310,7,,10.0,29.840551,1011.1,,TRUE,TRUE,,,,,,,BKN,800,OVC,1100,,,,,IFR,,,,,,,,,,,,METAR,233.0
KFOK 280653Z AUTO 26013KT 6SM BR OVC005 10/09 A2965 RMK AO2 RAB36E48 PRESRR SLP039 P0001 T01000089,KFOK,2018-10-28T06:53:00Z,40.85,-72.62,10.0,8.9,260,13,,6.0,29.648623,1003.9,,TRUE,TRUE,,,,,,BR,OVC,500,,,,,,,IFR,,,,,,0.01,,,,,,METAR,33.0
KFPR 280653Z AUTO 32003KT 10SM CLR 13/12 A3006 RMK AO2 SLP178 T01330117,KFPR,2018-10-28T06:53:00Z,27.5,-80.38,13.3,11.7,320,3,,10.0,30.059055,1017.8,,TRUE,TRUE,,,,,,,CLR,,,,,,,,VFR,,,,,,,,,,,,METAR,13.0
KFRG 280653Z AUTO 25008KT 4SM BR OVC005 09/08 A2967 RMK AO2 CIG 004V009 SLP047 T00890083,KFRG,2018-10-28T06:53:00Z,40.73,-73.42,8.9,8.3,250,8,,4.0,29.66929,1004.7,,TRUE,TRUE,,,,,,BR,OVC,500,,,,,,,IFR,,,,,,,,,,,,METAR,21.0
KFSM 280653Z AUTO 00000KT 10SM CLR 12/11 A3000 RMK AO2 SLP156 T01170106,KFSM,2018-10-28T06:53:00Z,35.33,-94.37,11.7,10.6,0,0,,10.0,30.0,1015.6,,TRUE,TRUE,,,,,,,CLR,,,,,,,,VFR,,,,,,,,,,,,METAR,140.0
KFTY 280653Z 20003KT 10SM CLR 08/08 A3005 RMK AO2 SLP175 T00780078 $,KFTY,2018-10-28T06:53:00Z,33.78,-84.52,7.8,7.8,200,3,,10.0,30.050198,1017.5,,,TRUE,TRUE,,,,,,CLR,,,,,,,,VFR,,,,,,,,,,,,METAR,263.0
KFYV 280653Z AUTO 20007KT 10SM CLR 09/07 A2999 RMK AO2 SLP148 T00940072,KFYV,2018-10-28T06:53:00Z,36.02,-94.17,9.4,7.2,200,7,,10.0,29.991142,1014.8,,TRUE,TRUE,,,,,,,CLR,,,,,,,,VFR,,,,,,,,,,,,METAR,379.0
KFXE 280653Z 33006KT 10SM SCT075 21/18 A3004 RMK AO2 SLP175 T02110178,KFXE,2018-10-28T06:53:00Z,26.2,-80.18,21.1,17.8,330,6,,10.0,30.041338,1017.5,,,TRUE,,,,,,,SCT,7500,,,,,,,VFR,,,,,,,,,,,,METAR,6.0
KGEG 280653Z 05008KT 10SM -RA SCT045 OVC055 07/04 A2989 RMK AO2 SLP124 P0001 T00720039,KGEG,2018-10-28T06:53:00Z,47.62,-117.53,7.2,3.9,50,8,,10.0,29.890747,1012.4,,,TRUE,,,,,,-RA,SCT,4500,OVC,5500,,,,,VFR,,,,,,0.01,,,,,,METAR,735.0
KPNS 280653Z 00000KT 10SM CLR 15/10 A3012 RMK AO2 SLP200 T01500100,KPNS,2018-10-28T06:53:00Z,30.48,-87.18,15.0,10.0,0,0,,10.0,30.121063,1020.0,,,TRUE,,,,,,,CLR,,,,,,,,VFR,,,,,,,,,,,,METAR,38.0
KGEY 280653Z AUTO 11003KT 10SM FEW110 04/M02 A3014 RMK AO2 SLP208 T00391017 401610033,KGEY,2018-10-28T06:53:00Z,44.52,-108.08,3.9,-1.7,110,3,,10.0,30.138779,1020.8,,TRUE,TRUE,,,,,,,FEW,11000,,,,,,,VFR,,,,16.1,3.3,,,,,,,METAR,1191.0
KGFK 280653Z AUTO 28005KT 10SM CLR 02/01 A2979 RMK AO2 SLP096 T00170006,KGFK,2018-10-28T06:53:00Z,47.95,-97.18,1.7,0.6,280,5,,10.0,29.790354,1009.6,,TRUE,TRUE,,,,,,,CLR,,,,,,,,VFR,,,,,,,,,,,,METAR,258.0
KGGW 280653Z AUTO 32007KT 10SM CLR 02/M02 A3003 RMK AO2 SLP182 T00221017 401610011,KGGW,2018-10-28T06:53:00Z,48.22,-106.62,2.2,-1.7,320,7,,10.0,30.029528,1018.2,,TRUE,TRUE,,,,,,,CLR,,,,,,,,VFR,,,,16.1,1.1,,,,,,,METAR,694.0
KGIF 280653Z AUTO 01005KT 10SM CLR 17/12 A3008 RMK AO2 SLP185 T01670122,KGIF,2018-10-28T06:53:00Z,28.07,-81.75,16.7,12.2,10,5,,10.0,30.079725,1018.5,,TRUE,TRUE,,,,,,,CLR,,,,,,,,VFR,,,,,,,,,,,,METAR,43.0
KPIE 280653Z AUTO 04004KT 10SM SCT040 19/M02 A3008 RMK AO2 SLP184 T01941022 $,KPIE,2018-10-28T06:53:00Z,27.92,-82.68,19.4,-2.2,40,4,,10.0,30.079725,1018.4,,TRUE,TRUE,TRUE,,,,,,SCT,4000,,,,,,,VFR,,,,,,,,,,,,METAR,4.0
KPIH 280653Z AUTO 34004KT 10SM CLR 06/02 A3013 RMK AO2 SLP183 T00560022 402000056,KPIH,2018-10-28T06:53:00Z,42.92,-112.57,5.6,2.2,340,4,,10.0,30.129921,1018.3,,TRUE,TRUE,,,,,,,CLR,,,,,,,,VFR,,,,20.0,5.6,,,,,,,METAR,1359.0
KPIR 280653Z AUTO 30010KT 10SM CLR 06/00 A3002 RMK AO2 SLP169 T00610000,KPIR,2018-10-28T06:53:00Z,44.38,-100.28,6.1,0.0,300,10,,10.0,30.02067,1016.9,,TRUE,TRUE,,,,,,,CLR,,,,,,,,VFR,,,,,,,,,,,,METAR,526.0
KPMP 280653Z AUTO 34007KT 10SM BKN080 22/16 A3004 RMK AO2 SLP173 T02170161,KPMP,2018-10-28T06:53:00Z,26.25,-80.12,21.7,16.1,340,7,,10.0,30.041338,1017.3,,TRUE,TRUE,,,,,,,BKN,8000,,,,,,,VFR,,,,,,,,,,,,METAR,6.0
KPOU 280653Z AUTO 36005KT 3SM BR BKN005 OVC025 06/05 A2966 RMK AO2 SLP040 T00560050,KPOU,2018-10-28T06:53:00Z,41.63,-73.88,5.6,5.0,360,5,,3.0,29.660433,1004.0,,TRUE,TRUE,,,,,,BR,BKN,500,OVC,2500,,,,,IFR,,,,,,,,,,,,METAR,46.0
KPSC 280653Z AUTO 31012KT 5SM -RA BKN100 11/08 A2985 RMK AO2 RAE02B27 SLP107 P0000 T01110078,KPSC,2018-10-28T06:53:00Z,46.27,-119.12,11.1,7.8,310,12,,5.0,29.84941,1010.7,,TRUE,TRUE,,,,,,-RA,BKN,10000,,,,,,,MVFR,,,,,,0.005,,,,,,METAR,121.0
KPRB 280653Z AUTO 03003KT 10SM CLR 13/09 A3004 RMK AO2 SLP168 T01330089,KPRB,2018-10-28T06:53:00Z,35.67,-120.63,13.3,8.9,30,3,,10.0,30.041338,1016.8,,TRUE,TRUE,,,,,,,CLR,,,,,,,,VFR,,,,,,,,,,,,METAR,245.0
KPUC 280653Z AUTO 02008KT 10SM CLR 07/02 A3026 RMK AO2 SLP230 T00670022 401670022,KPUC,2018-10-28T06:53:00Z,39.62,-110.75,6.7,2.2,20,8,,10.0,30.259842,1023.0,,TRUE,TRUE,,,,,,,CLR,,,,,,,,VFR,,,,16.7,2.2,,,,,,,METAR,2091.0
KPTK 280653Z AUTO 29005KT 10SM FEW006 SCT018 OVC025 03/03 A2981 RMK AO2 SLP102 T00330028,KPTK,2018-10-28T06:53:00Z,42.67,-83.42,3.3,2.8,290,5,,10.0,29.811024,1010.2,,TRUE,TRUE,,,,,,,FEW,600,SCT,1800,OVC,2500,,,MVFR,,,,,,,,,,,,METAR,299.0
KRBG 280653Z AUTO 20004KT 10SM FEW041 FEW070 OVC090 17/13 A2989 RMK AO2 RAE45 SLP121 P0005 T01720133,KRBG,2018-10-28T06:53:00Z,43.23,-123.35,17.2,13.3,200,4,,10.0,29.890747,1012.1,,TRUE,TRUE,,,,,,,FEW,4100,FEW,7000,OVC,9000,,,VFR,,,,,,0.05,,,,,,METAR,154.0
KPUW 280653Z AUTO 09014KT 10SM BKN100 11/06 A2990 RMK AO2 SLP125 T01060056,KPUW,2018-10-28T06:53:00Z,46.75,-117.12,10.6,5.6,90,14,,10.0,29.899607,1012.5,,TRUE,TRUE,,,,,,,BKN,10000,,,,,,,VFR,,,,,,,,,,,,METAR,773.0
KRDD 280653Z AUTO 00000KT 10SM CLR 14/08 A3000 RMK AO2 SLP155 T01440083,KRDD,2018-10-28T06:53:00Z,40.52,-122.3,14.4,8.3,0,0,,10.0,30.0,1015.5,,TRUE,TRUE,,,,,,,CLR,,,,,,,,VFR,,,,,,,,,,,,METAR,155.0
KRIW 280653Z AUTO 36005KT 10SM CLR 03/01 A3018 RMK AO2 SLP189 T00330006 402060028 $,KRIW,2018-10-28T06:53:00Z,43.07,-108.47,3.3,0.6,360,5,,10.0,30.180119,1018.9,,TRUE,TRUE,TRUE,,,,,,CLR,,,,,,,,VFR,,,,20.6,2.8,,,,,,,METAR,1697.0
KRWI 280653Z AUTO 25005KT 10SM CLR 10/08 A2987 RMK AO2 SLP114 T01000078,KRWI,2018-10-28T06:53:00Z,35.85,-77.9,10.0,7.8,250,5,,10.0,29.870079,1011.4,,TRUE,TRUE,,,,,,,CLR,,,,,,,,VFR,,,,,,,,,,,,METAR,47.0
KRUE 280653Z AUTO 00000KT 4SM BR CLR 09/09 A3000 RMK AO2 SLP153 T00890089,KRUE,2018-10-28T06:53:00Z,35.25,-93.1,8.9,8.9,0,0,,4.0,30.0,1015.3,,TRUE,TRUE,,,,,,BR,CLR,,,,,,,,MVFR,,,,,,,,,,,,METAR,115.0
KRSW 280653Z AUTO 04003KT 10SM CLR 19/16 A3006 RMK AO2 SLP177 T01890156,KRSW,2018-10-28T06:53:00Z,26.53,-81.75,18.9,15.6,40,3,,10.0,30.059055,1017.7,,TRUE,TRUE,,,,,,,CLR,,,,,,,,VFR,,,,,,,,,,,,METAR,10.0
KRXE 280653Z AUTO 20006KT 10SM CLR 10/03 A3014 RMK AO2 SLP185 T01000028 401560078,KRXE,2018-10-28T06:53:00Z,43.83,-111.8,10.0,2.8,200,6,,10.0,30.138779,1018.5,,TRUE,TRUE,,,,,,,CLR,,,,,,,,VFR,,,,15.6,7.8,,,,,,,METAR,1480.0
KSAV 280653Z AUTO 27006KT 10SM CLR 10/09 A3005 RMK AO2 SLP175 T01000089,KSAV,2018-10-28T06:53:00Z,32.12,-81.2,10.0,8.9,270,6,,10.0,30.050198,1017.5,,TRUE,TRUE,,,,,,,CLR,,,,,,,,VFR,,,,,,,,,,,,METAR,14.0
KSAC 280653Z AUTO 19006KT 10SM CLR 17/14 A3001 RMK AO2 SLP162 T01670139,KSAC,2018-10-28T06:53:00Z,38.5,-121.5,16.7,13.9,190,6,,10.0,30.008858,1016.2,,TRUE,TRUE,,,,,,,CLR,,,,,,,,VFR,,,,,,,,,,,,METAR,11.0
KSEG 280653Z AUTO 00000KT 10SM OVC018 06/05 A2971 RMK AO2 SLP064 T00610050,KSEG,2018-10-28T06:53:00Z,40.82,-76.87,6.1,5.0,0,0,,10.0,29.71063,1006.4,,TRUE,TRUE,,,,,,,OVC,1800,,,,,,,MVFR,,,,,,,,,,,,METAR,134.0
KSFF 280653Z AUTO 28005KT 10SM FEW047 SCT055 OVC070 08/07 A2990 RMK AO2 RAE41 SLP126 P0001 T00830067,KSFF,2018-10-28T06:53:00Z,47.68,-117.32,8.3,6.7,280,5,,10.0,29.899607,1012.6,,TRUE,TRUE,,,,,,,FEW,4700,SCT,5500,OVC,7000,,,VFR,,,,,,0.01,,,,,,METAR,609.0
KSFB 280653Z AUTO 33005KT 10SM CLR 15/12 A3007 RMK AO2 SLP183 T01500122,KSFB,2018-10-28T06:53:00Z,28.77,-81.22,15.0,12.2,330,5,,10.0,30.070866,1018.3,,TRUE,TRUE,,,,,,,CLR,,,,,,,,VFR,,,,,,,,,,,,METAR,17.0
KSHR 280653Z AUTO 00000KT 10SM CLR 01/M07 A3012 RMK AO2 SLP216 T00111067 401111022,KSHR,2018-10-28T06:53:00Z,44.77,-106.97,1.1,-6.7,0,0,,10.0,30.121063,1021.6,,TRUE,TRUE,,,,,,,CLR,,,,,,,,VFR,,,,11.1,-2.2,,,,,,,METAR,1202.0
KSMF 280653Z 16006KT 10SM SCT250 17/13 A3000 RMK AO2 SLP157 T01670133,KSMF,2018-10-28T06:53:00Z,38.7,-121.6,16.7,13.3,160,6,,10.0,30.0,1015.7,,,TRUE,,,,,,,SCT,25000,,,,,,,VFR,,,,,,,,,,,,METAR,6.0
KSJC 280653Z 21003KT 10SM FEW005 FEW130 16/14 A3008 RMK AO2 SLP194 LAST T01560139 $,KSJC,2018-10-28T06:53:00Z,37.37,-121.92,15.6,13.9,210,3,,10.0,30.079725,1019.4,,,TRUE,TRUE,,,,,,FEW,500,FEW,13000,,,,,VFR,,,,,,,,,,,,METAR,24.0
KSIY 280653Z AUTO 00000KT 10SM CLR 14/04 A3003 RMK AO2 SLP168 T01440044,KSIY,2018-10-28T06:53:00Z,41.77,-122.47,14.4,4.4,0,0,,10.0,30.029528,1016.8,,TRUE,TRUE,,,,,,,CLR,,,,,,,,VFR,,,,,,,,,,,,METAR,807.0
KSNS 280653Z AUTO 35006KT 8SM CLR 15/14 A3005 RMK AO2 SLP184 T01500139,KSNS,2018-10-28T06:53:00Z,36.67,-121.6,15.0,13.9,350,6,,8.0,30.050198,1018.4,,TRUE,TRUE,,,,,,,CLR,,,,,,,,VFR,,,,,,,,,,,,METAR,30.0
KSPG 280653Z AUTO 04006KT 10SM CLR 21/16 A3006 RMK AO2 SLP177 T02060161,KSPG,2018-10-28T06:53:00Z,27.77,-82.63,20.6,16.1,40,6,,10.0,30.059055,1017.7,,TRUE,TRUE,,,,,,,CLR,,,,,,,,VFR,,,,,,,,,,,,METAR,2.0
KSPB 280653Z AUTO 00000KT 4SM -RA BR SCT015 OVC065 14/14 A2977 RMK AO2 SLP080 P0005 T01440144,KSPB,2018-10-28T06:53:00Z,45.77,-122.87,14.4,14.4,0,0,,4.0,29.769686,1008.0,,TRUE,TRUE,,,,,,-RA BR,SCT,1500,OVC,6500,,,,,MVFR,,,,,,0.05,,,,,,METAR,14.0
KSPW 280653Z AUTO 30015KT 10SM CLR 08/05 A2986 RMK AO2 PK WND 30029/0601 SLP112 T00830050,KSPW,2018-10-28T06:53:00Z,43.17,-95.22,8.3,5.0,300,15,,10.0,29.861221,1011.2,,TRUE,TRUE,,,,,,,CLR,,,,,,,,VFR,,,,,,,,,,,,METAR,403.0
KSRQ 280653Z AUTO 36004KT 10SM FEW038 20/14 A3005 RMK AO2 SLP175 T02000144,KSRQ,2018-10-28T06:53:00Z,27.4,-82.57,20.0,14.4,360,4,,10.0,30.050198,1017.5,,TRUE,TRUE,,,,,,,FEW,3800,,,,,,,VFR,,,,,,,,,,,,METAR,18.0
KSTC 280653Z AUTO 29019G29KT 10SM -RA OVC018 07/06 A2960 RMK AO2 PK WND 30031/0643 RAB39 SLP037 P0001 T00720056 $,KSTC,2018-10-28T06:53:00Z,45.55,-94.05,7.2,5.6,290,19,29,10.0,29.601377,1003.7,,TRUE,TRUE,TRUE,,,,,-RA,OVC,1800,,,,,,,MVFR,,,,,,0.01,,,,,,METAR,314.0
KSSI 280653Z AUTO 28006KT 10SM CLR 14/08 A3007 RMK AO2 SLP182 T01390083,KSSI,2018-10-28T06:53:00Z,31.15,-81.38,13.9,8.3,280,6,,10.0,30.070866,1018.2,,TRUE,TRUE,,,,,,,CLR,,,,,,,,VFR,,,,,,,,,,,,METAR,6.0
KSTP 280653Z AUTO 27017G29KT 10SM BKN017 BKN022 OVC029 10/07 A2961 RMK AO2 PK WND 28029/0653 SLP026 T01000072,KSTP,2018-10-28T06:53:00Z,44.93,-93.05,10.0,7.2,270,17,29,10.0,29.610237,1002.6,,TRUE,TRUE,,,,,,,BKN,1700,BKN,2200,OVC,2900,,,MVFR,,,,,,,,,,,,METAR,219.0
KSTS 280653Z AUTO 00000KT 1/2SM FG VV001 12/12 A3005 RMK AO2 SLP169 T01170117,KSTS,2018-10-28T06:53:00Z,38.5,-122.82,11.7,11.7,0,0,,0.5,30.050198,1016.9,,TRUE,TRUE,,,,,,FG,OVX,0,,,,,,,LIFR,,,,,,,,,,,100,METAR,39.0
KTCL 280653Z AUTO 00000KT 8SM CLR 09/08 A3010 RMK AO2 SLP189 T00890078,KTCL,2018-10-28T06:53:00Z,33.22,-87.62,8.9,7.8,0,0,,8.0,30.100393,1018.9,,TRUE,TRUE,,,,,,,CLR,,,,,,,,VFR,,,,,,,,,,,,METAR,49.0
KTDZ 280653Z AUTO 31008KT 10SM OVC020 06/03 A2986 RMK AO2 SLP114 T00560033,KTDZ,2018-10-28T06:53:00Z,41.57,-83.48,5.6,3.3,310,8,,10.0,29.861221,1011.4,,TRUE,TRUE,,,,,,,OVC,2000,,,,,,,MVFR,,,,,,,,,,,,METAR,189.0
KTIW 280653Z AUTO VRB03KT 6SM -RA BR FEW002 SCT049 OVC070 10/10 A2976 RMK AO2 RAB0556E17B27 SLP078 P0004 T01000100,KTIW,2018-10-28T06:53:00Z,47.27,-122.58,10.0,10.0,0,3,,6.0,29.760826,1007.8,,TRUE,TRUE,,,,,,-RA BR,FEW,200,SCT,4900,OVC,7000,,,VFR,,,,,,0.04,,,,,,METAR,89.0
KTLH 280653Z AUTO 00000KT 10SM CLR 09/09 A3012 RMK AO2 SLP198 T00940089,KTLH,2018-10-28T06:53:00Z,30.4,-84.35,9.4,8.9,0,0,,10.0,30.121063,1019.8,,TRUE,TRUE,,,,,,,CLR,,,,,,,,VFR,,,,,,,,,,,,METAR,19.0
KTRI 280653Z 24010KT 10SM BKN025 OVC047 08/06 A2998 RMK AO2 SLP140 T00830061,KTRI,2018-10-28T06:53:00Z,36.48,-82.4,8.3,6.1,240,10,,10.0,29.97933,1014.0,,,TRUE,,,,,,,BKN,2500,OVC,4700,,,,,MVFR,,,,,,,,,,,,METAR,474.0
KTPA 280653Z 04004KT 10SM CLR 17/13 A3009 RMK AO2 SLP188 T01720133,KTPA,2018-10-28T06:53:00Z,27.97,-82.53,17.2,13.3,40,4,,10.0,30.088583,1018.8,,,TRUE,,,,,,,CLR,,,,,,,,VFR,,,,,,,,,,,,METAR,11.0
KTOI 280653Z AUTO 00000KT 8SM CLR 08/08 A3012 RMK AO2 SLP197 T00830078,KTOI,2018-10-28T06:53:00Z,31.85,-86.02,8.3,7.8,0,0,,8.0,30.121063,1019.7,,TRUE,TRUE,,,,,,,CLR,,,,,,,,VFR,,,,,,,,,,,,SPECI,118.0
KTMB 280653Z AUTO 35007KT 10SM CLR 21/17 A3004 RMK AO2 SLP173 T02110167,KTMB,2018-10-28T06:53:00Z,25.65,-80.43,21.1,16.7,350,7,,10.0,30.041338,1017.3,,TRUE,TRUE,,,,,,,CLR,,,,,,,,VFR,,,,,,,,,,,,METAR,2.0
KTTN 280653Z AUTO 26004KT 10SM OVC009 08/07 A2969 RMK AO2 CIG 005V011 SLP049 T00830072,KTTN,2018-10-28T06:53:00Z,40.28,-74.82,8.3,7.2,260,4,,10.0,29.68996,1004.9,,TRUE,TRUE,,,,,,,OVC,900,,,,,,,IFR,,,,,,,,,,,,METAR,59.0
KTVL 280653Z AUTO 19005KT 10SM CLR 11/01 A3023 RMK AO2 SLP186 T01110006,KTVL,2018-10-28T06:53:00Z,38.9,-120.0,11.1,0.6,190,5,,10.0,30.230314,1018.6,,TRUE,TRUE,,,,,,,CLR,,,,,,,,VFR,,,,,,,,,,,,METAR,1924.0
KTVC 280653Z AUTO 13003KT 10SM OVC033 04/02 A2983 RMK AO2 SLP107 T00440017,KTVC,2018-10-28T06:53:00Z,44.73,-85.57,4.4,1.7,130,3,,10.0,29.828741,1010.7,,TRUE,TRUE,,,,,,,OVC,3300,,,,,,,VFR,,,,,,,,,,,,METAR,190.0
KTUP 280653Z AUTO 00000KT 10SM CLR 09/08 A3005 RMK AO2 SLP174 T00940083 $,KTUP,2018-10-28T06:53:00Z,34.27,-88.77,9.4,8.3,0,0,,10.0,30.050198,1017.4,,TRUE,TRUE,TRUE,,,,,,CLR,,,,,,,,VFR,,,,,,,,,,,,METAR,105.0
KTYS 280653Z 21006KT 10SM SCT050 07/07 A3002 RMK AO2 SLP166 T00720067,KTYS,2018-10-28T06:53:00Z,35.82,-83.98,7.2,6.7,210,6,,10.0,30.02067,1016.6,,,TRUE,,,,,,,SCT,5000,,,,,,,VFR,,,,,,,,,,,,METAR,302.0
KTVR 280653Z AUTO 00000KT 10SM CLR 12/11 A3008 RMK AO2 SLP192 T01170106,KTVR,2018-10-28T06:53:00Z,32.35,-91.03,11.7,10.6,0,0,,10.0,30.079725,1019.2,,TRUE,TRUE,,,,,,,CLR,,,,,,,,VFR,,,,,,,,,,,,METAR,26.0
KMLS 280653Z AUTO 29008KT 10SM CLR 02/M01 A3006 RMK AO2 SLP188 T00171011 401500011,KMLS,2018-10-28T06:53:00Z,46.43,-105.88,1.7,-1.1,290,8,,10.0,30.059055,1018.8,,TRUE,TRUE,,,,,,,CLR,,,,,,,,VFR,,,,15.0,1.1,,,,,,,METAR,801.0
KMOD 280653Z AUTO 36006KT 10SM CLR 19/13 A3002 RMK AO2 SLP163 T01890133,KMOD,2018-10-28T06:53:00Z,37.62,-120.95,18.9,13.3,360,6,,10.0,30.02067,1016.3,,TRUE,TRUE,,,,,,,CLR,,,,,,,,VFR,,,,,,,,,,,,METAR,29.0
KMMV 280653Z AUTO 26013KT 6SM -RA BR SCT055 OVC070 14/14 A2981 RMK AO2 SLP095 P0020 T01440139,KMMV,2018-10-28T06:53:00Z,45.2,-123.13,14.4,13.9,260,13,,6.0,29.811024,1009.5,,TRUE,TRUE,,,,,,-RA BR,SCT,5500,OVC,7000,,,,,VFR,,,,,,0.2,,,,,,METAR,48.0
KMSP 280653Z 29014G29KT 10SM SCT019 OVC026 09/07 A2961 RMK AO2 PK WND 28034/0638 SLP029 T00940067,KMSP,2018-10-28T06:53:00Z,44.88,-93.23,9.4,6.7,290,14,29,10.0,29.610237,1002.9,,,TRUE,,,,,,,SCT,1900,OVC,2600,,,,,MVFR,,,,,,,,,,,,METAR,265.0
KMSO 280653Z AUTO 13004KT 10SM CLR 05/02 A3005 RMK AO2 SLP181 T00500022 401500028,KMSO,2018-10-28T06:53:00Z,46.92,-114.1,5.0,2.2,130,4,,10.0,30.050198,1018.1,,TRUE,TRUE,,,,,,,CLR,,,,,,,,VFR,,,,15.0,2.8,,,,,,,METAR,975.0
KMYV 280653Z AUTO 16006KT 10SM CLR 18/13 A3000 RMK AO2 SLP162 T01780128,KMYV,2018-10-28T06:53:00Z,39.1,-121.57,17.8,12.8,160,6,,10.0,30.0,1016.2,,TRUE,TRUE,,,,,,,CLR,,,,,,,,VFR,,,,,,,,,,,,METAR,21.0
KMTH 280653Z AUTO 01008KT 10SM FEW027 BKN033 BKN044 24/19 A3003 RMK AO2 SLP169 T02440194,KMTH,2018-10-28T06:53:00Z,24.73,-81.05,24.4,19.4,10,8,,10.0,30.029528,1016.9,,TRUE,TRUE,,,,,,,FEW,2700,BKN,3300,BKN,4400,,,VFR,,,,,,,,,,,,METAR,2.0
KOAK 280653Z 27003KT 10SM BKN008 16/14 A3009 RMK AO2 SLP187 T01610144 $,KOAK,2018-10-28T06:53:00Z,37.72,-122.23,16.1,14.4,270,3,,10.0,30.088583,1018.7,,,TRUE,TRUE,,,,,,BKN,800,,,,,,,IFR,,,,,,,,,,,,METAR,26.0
KOGB 280653Z AUTO 24004KT 10SM CLR 09/08 A2999 RMK AO2 SLP155 T00940078,KOGB,2018-10-28T06:53:00Z,33.47,-80.85,9.4,7.8,240,4,,10.0,29.991142,1015.5,,TRUE,TRUE,,,,,,,CLR,,,,,,,,VFR,,,,,,,,,,,,METAR,59.0
KODX 280653Z AUTO 33012KT 10SM CLR 08/02 A3006 RMK AO2 SLP177 T00780022 $,KODX,2018-10-28T06:53:00Z,41.62,-98.95,7.8,2.2,330,12,,10.0,30.059055,1017.7,,TRUE,TRUE,TRUE,,,,,,CLR,,,,,,,,VFR,,,,,,,,,,,,METAR,631.0
KOLF 280653Z AUTO 22007KT 10SM CLR M02/M02 A3005 RMK AO2 SLP189 T10171022 401611017 $,KOLF,2018-10-28T06:53:00Z,48.1,-105.58,-1.7,-2.2,220,7,,10.0,30.050198,1018.9,,TRUE,TRUE,TRUE,,,,,,CLR,,,,,,,,VFR,,,,16.1,-1.7,,,,,,,METAR,604.0
KOGD 280653Z AUTO 16005KT 10SM CLR 11/01 A3014 RMK AO2 SLP173 T01060011 402060061,KOGD,2018-10-28T06:53:00Z,41.2,-112.02,10.6,1.1,160,5,,10.0,30.138779,1017.3,,TRUE,TRUE,,,,,,,CLR,,,,,,,,VFR,,,,20.6,6.1,,,,,,,METAR,1353.0
KOMK 280653Z AUTO 36007KT 9SM -RA OVC035 08/07 A2995 RMK AO2 SLP148 P0007 T00780072,KOMK,2018-10-28T06:53:00Z,48.47,-119.52,7.8,7.2,360,7,,9.0,29.949802,1014.8,,TRUE,TRUE,,,,,,-RA,OVC,3500,,,,,,,VFR,,,,,,0.07,,,,,,METAR,395.0
KONO 280653Z AUTO 28003KT 10SM CLR 09/06 A3000 RMK AO2 SLP158 T00890056 402060083,KONO,2018-10-28T06:53:00Z,44.02,-117.02,8.9,5.6,280,3,,10.0,30.0,1015.8,,TRUE,TRUE,,,,,,,CLR,,,,,,,,VFR,,,,20.6,8.3,,,,,,,METAR,667.0
KPAH 280653Z AUTO VRB03KT 9SM CLR 10/07 A2996 RMK AO2 SLP145 T01000072,KPAH,2018-10-28T06:53:00Z,37.07,-88.77,10.0,7.2,0,3,,9.0,29.958662,1014.5,,TRUE,TRUE,,,,,,,CLR,,,,,,,,VFR,,,,,,,,,,,,METAR,119.0
KOVE 280653Z AUTO 08006KT 10SM CLR 19/10 A3001 RMK AO2 SLP162 T01940100 $,KOVE,2018-10-28T06:53:00Z,39.5,-121.62,19.4,10.0,80,6,,10.0,30.008858,1016.2,,TRUE,TRUE,TRUE,,,,,,CLR,,,,,,,,VFR,,,,,,,,,,,,METAR,58.0
KORL 280653Z AUTO 35006KT 10SM CLR 16/12 A3007 RMK AO2 SLP188 T01610117,KORL,2018-10-28T06:53:00Z,28.55,-81.33,16.1,11.7,350,6,,10.0,30.070866,1018.8,,TRUE,TRUE,,,,,,,CLR,,,,,,,,VFR,,,,,,,,,,,,METAR,37.0
KOPF 280653Z AUTO 34009KT SCT075 22/18 A3005 RMK AO2 SLP176 T02170178 $,KOPF,2018-10-28T06:53:00Z,25.92,-80.28,21.7,17.8,340,9,,,30.050198,1017.6,,TRUE,TRUE,TRUE,,,,,,SCT,7500,,,,,,,,,,,,,,,,,,,METAR,16.0
KPGD 280653Z AUTO 07003KT 10SM CLR 17/15 A3007 RMK AO2 SLP184 T01720150,KPGD,2018-10-28T06:53:00Z,26.92,-82.0,17.2,15.0,70,3,,10.0,30.070866,1018.4,,TRUE,TRUE,,,,,,,CLR,,,,,,,,VFR,,,,,,,,,,,,METAR,7.0
KPDX 280653Z 23009KT 2 1/2SM RA BR SCT008 BKN016 OVC034 17/15 A2979 RMK AO2 SLP085 P0042 T01670150,KPDX,2018-10-28T06:53:00Z,45.6,-122.62,16.7,15.0,230,9,,2.5,29.790354,1008.5,,,TRUE,,,,,,RA BR,SCT,800,BKN,1600,OVC,3400,,,IFR,,,,,,0.42,,,,,,METAR,7.0
KPDT 280653Z AUTO 32007KT 10SM CLR 11/09 A2983 RMK AO2 SLP092 T01110089 $,KPDT,2018-10-28T06:53:00Z,45.7,-118.83,11.1,8.9,320,7,,10.0,29.828741,1009.2,,TRUE,TRUE,TRUE,,,,,,CLR,,,,,,,,VFR,,,,,,,,,,,,METAR,462.0
KPDK 280653Z AUTO 25005KT 10SM CLR 08/07 A3004 RMK AO2 SLP174 T00830072,KPDK,2018-10-28T06:53:00Z,33.88,-84.3,8.3,7.2,250,5,,10.0,30.041338,1017.4,,TRUE,TRUE,,,,,,,CLR,,,,,,,,VFR,,,,,,,,,,,,METAR,302.0
KPBI 280653Z 32010KT 10SM SCT250 19/16 A3005 RMK AO2 SLP174 T01890156 $,KPBI,2018-10-28T06:53:00Z,26.68,-80.1,18.9,15.6,320,10,,10.0,30.050198,1017.4,,,TRUE,TRUE,,,,,,SCT,25000,,,,,,,VFR,,,,,,,,,,,,METAR,6.0
KPBG 280653Z AUTO 34011KT 10SM -RA OVC011 02/01 A2971 RMK AO2 RAB49 SLP065 P0000 T00220011,KPBG,2018-10-28T06:53:00Z,44.65,-73.47,2.2,1.1,340,11,,10.0,29.71063,1006.5,,TRUE,TRUE,,,,,,-RA,OVC,1100,,,,,,,MVFR,,,,,,0.005,,,,,,METAR,72.0
KPBF 280653Z AUTO 20003KT 10SM CLR 13/12 A3003 RMK AO2 SLP167 T01330122,KPBF,2018-10-28T06:53:00Z,34.18,-91.93,13.3,12.2,200,3,,10.0,30.029528,1016.7,,TRUE,TRUE,,,,,,,CLR,,,,,,,,VFR,,,,,,,,,,,,METAR,62.0
KVCB 280653Z AUTO 21006KT 10SM CLR 18/13 A3002 RMK AO2 SLP162 T01780133,KVCB,2018-10-28T06:53:00Z,38.38,-121.95,17.8,13.3,210,6,,10.0,30.02067,1016.2,,TRUE,TRUE,,,,,,,CLR,,,,,,,,VFR,,,,,,,,,,,,METAR,33.0
KUIL 280653Z AUTO 19009KT 7SM -RA BKN005 OVC015 13/13 A2968 RMK AO2 RAB44 CIG 004V007 SLP050 P0000 T01330128 $,KUIL,2018-10-28T06:53:00Z,47.93,-124.55,13.3,12.8,190,9,,7.0,29.681103,1005.0,,TRUE,TRUE,TRUE,,,,,-RA,BKN,500,OVC,1500,,,,,IFR,,,,,,0.005,,,,,,METAR,54.0
KVRB 280653Z AUTO 34004KT 10SM CLR 16/13 A3006 RMK AO2 SLP179 T01560133,KVRB,2018-10-28T06:53:00Z,27.65,-80.42,15.6,13.3,340,4,,10.0,30.059055,1017.9,,TRUE,TRUE,,,,,,,CLR,,,,,,,,VFR,,,,,,,,,,,,METAR,10.0
KVPC 280653Z AUTO 00000KT 10SM SCT037 OVC048 08/07 A3006 RMK AO2 SLP174 T00830072,KVPC,2018-10-28T06:53:00Z,34.13,-84.85,8.3,7.2,0,0,,10.0,30.059055,1017.4,,TRUE,TRUE,,,,,,,SCT,3700,OVC,4800,,,,,VFR,,,,,,,,,,,,METAR,222.0
KVEL 280653Z AUTO 28004KT 10SM CLR 06/01 A3022 RMK AO2 SLP210 T00610011 401720011,KVEL,2018-10-28T06:53:00Z,40.45,-109.52,6.1,1.1,280,4,,10.0,30.221457,1021.0,,TRUE,TRUE,,,,,,,CLR,,,,,,,,VFR,,,,17.2,1.1,,,,,,,METAR,1604.0
KWRL 280653Z AUTO 22003KT 10SM BKN095 OVC110 07/02 A3014 RMK AO2 SLP197 T00670017 401720011,KWRL,2018-10-28T06:53:00Z,43.97,-107.95,6.7,1.7,220,3,,10.0,30.138779,1019.7,,TRUE,TRUE,,,,,,,BKN,9500,OVC,11000,,,,,VFR,,,,17.2,1.1,,,,,,,METAR,1271.0
KWVI 280653Z AUTO 33003KT 10SM CLR 14/12 A3005 RMK AO2 SLP176 T01390122,KWVI,2018-10-28T06:53:00Z,36.93,-121.78,13.9,12.2,330,3,,10.0,30.050198,1017.6,,TRUE,TRUE,,,,,,,CLR,,,,,,,,VFR,,,,,,,,,,,,METAR,43.0
KYKM 280653Z AUTO 26006KT 6SM RA BR OVC038 09/08 A2988 RMK AO2 RAE15B40 SLP121 P0001 T00940078,KYKM,2018-10-28T06:53:00Z,46.57,-120.53,9.4,7.8,260,6,,6.0,29.878937,1012.1,,TRUE,TRUE,,,,,,RA BR,OVC,3800,,,,,,,VFR,,,,,,0.01,,,,,,METAR,324.0
KYIP 280653Z 30006KT 10SM OVC017 06/04 A2984 RMK AO2 SLP105 T00610039,KYIP,2018-10-28T06:53:00Z,42.23,-83.53,6.1,3.9,300,6,,10.0,29.840551,1010.5,,,TRUE,,,,,,,OVC,1700,,,,,,,MVFR,,,,,,,,,,,,METAR,215.0
KXNA 280653Z AUTO 19004KT 10SM CLR 12/06 A2998 RMK AO2 SLP143 T01220061,KXNA,2018-10-28T06:53:00Z,36.28,-94.3,12.2,6.1,190,4,,10.0,29.97933,1014.3,,TRUE,TRUE,,,,,,,CLR,,,,,,,,VFR,,,,,,,,,,,,METAR,392.0
TIST 280653Z AUTO 05005KT 10SM CLR 26/23 A2992 RMK AO2 SLP132 T02610228 $,TIST,2018-10-28T06:53:00Z,18.33,-64.98,26.1,22.8,50,5,,10.0,29.920275,1013.2,,TRUE,TRUE,TRUE,,,,,,CLR,,,,,,,,VFR,,,,,,,,,,,,SPECI,7.0
KZZV 280653Z AUTO 29008KT 10SM BKN020 OVC030 07/04 A2985 RMK AO2 SLP111 T00670044,KZZV,2018-10-28T06:53:00Z,39.95,-81.9,6.7,4.4,290,8,,10.0,29.84941,1011.1,,TRUE,TRUE,,,,,,,BKN,2000,OVC,3000,,,,,MVFR,,,,,,,,,,,,METAR,268.0
KPNC 280653Z AUTO 21006KT 10SM CLR 15/09 A2993 RMK AO2 SLP126 T01500094 $,KPNC,2018-10-28T06:53:00Z,36.73,-97.1,15.0,9.4,210,6,,10.0,29.929134,1012.6,,TRUE,TRUE,TRUE,,,,,,CLR,,,,,,,,VFR,,,,,,,,,,,,METAR,308.0
KRHI 280653Z AUTO 13008KT 7SM OVC011 06/03 A2973 RMK AO2 SLP075 T00610028,KRHI,2018-10-28T06:53:00Z,45.63,-89.48,6.1,2.8,130,8,,7.0,29.731298,1007.5,,TRUE,TRUE,,,,,,,OVC,1100,,,,,,,MVFR,,,,,,,,,,,,METAR,485.0
KSEA 280653Z 16009KT 6SM -RA BR SCT011 BKN027 OVC060 13/12 A2977 RMK AO2 RAE09B38 SLP086 P0002 T01280117 $,KSEA,2018-10-28T06:53:00Z,47.45,-122.32,12.8,11.7,160,9,,6.0,29.769686,1008.6,,,TRUE,TRUE,,,,,-RA BR,SCT,1100,BKN,2700,OVC,6000,,,MVFR,,,,,,0.02,,,,,,SPECI,136.0
KMWN 280653Z 12030KT 1/16SM -FZRA FZFG VV001 M01/M01 RMK VRY LGT GICG,KMWN,2018-10-28T06:53:00Z,44.27,-71.3,-1.0,-1.0,120,30,,0.06,,,,,,,,,,,-FZRA FZFG,OVX,0,,,,,,,LIFR,,,,,,,,,,,100,SPECI,1910.0
KPWA 280653Z AUTO 21010KT 10SM CLR 17/12 A2998 RMK AO2 SLP142 T01670117,KPWA,2018-10-28T06:53:00Z,35.53,-97.65,16.7,11.7,210,10,,10.0,29.97933,1014.2,,TRUE,TRUE,,,,,,,CLR,,,,,,,,VFR,,,,,,,,,,,,METAR,397.0
K6R6 280653Z AUTO 35005KT 15/14 A3011 RMK AO1 SLP168 T01500144,K6R6,2018-10-28T06:53:00Z,30.05,-102.22,15.0,14.4,350,5,,,30.109253,1016.8,,TRUE,TRUE,,,,,,,,,,,,,,,,,,,,,,,,,,,METAR,701.0
KLHQ 280653Z AUTO 26005KT 9SM OVC039 06/06 A2988 RMK AO2 SLP120 T00610056,KLHQ,2018-10-28T06:53:00Z,39.75,-82.67,6.1,5.6,260,5,,9.0,29.878937,1012.0,,TRUE,TRUE,,,,,,,OVC,3900,,,,,,,VFR,,,,,,,,,,,,METAR,260.0
KLFT 280653Z AUTO 00000KT 7SM CLR 16/15 A3011 RMK AO2 SLP195 T01560150,KLFT,2018-10-28T06:53:00Z,30.2,-92.0,15.6,15.0,0,0,,7.0,30.109253,1019.5,,TRUE,TRUE,,,,,,,CLR,,,,,,,,VFR,,,,,,,,,,,,METAR,11.0
KLFK 280653Z AUTO 00000KT 10SM CLR 15/14 A3007 RMK AO2 SLP181 T01500144,KLFK,2018-10-28T06:53:00Z,31.23,-94.75,15.0,14.4,0,0,,10.0,30.070866,1018.1,,TRUE,TRUE,,,,,,,CLR,,,,,,,,VFR,,,,,,,,,,,,METAR,88.0
KLEB 280653Z AUTO 00000KT 10SM SCT001 OVC012 04/02 A2967 RMK AO2 RAE0557 SLP054 P0000 T00390017,KLEB,2018-10-28T06:53:00Z,43.63,-72.3,3.9,1.7,0,0,,10.0,29.66929,1005.4,,TRUE,TRUE,,,,,,,SCT,100,OVC,1200,,,,,MVFR,,,,,,0.005,,,,,,METAR,171.0
KLCH 280653Z AUTO 00000KT 7SM CLR 16/15 A3010 RMK AO2 SLP200 T01560150,KLCH,2018-10-28T06:53:00Z,30.13,-93.22,15.6,15.0,0,0,,7.0,30.100393,1020.0,,TRUE,TRUE,,,,,,,CLR,,,,,,,,VFR,,,,,,,,,,,,METAR,4.0
KLBX 280653Z AUTO 21003KT 1/2SM FG CLR 16/16 A3012 RMK AO2 SLP198 T01610161,KLBX,2018-10-28T06:53:00Z,29.12,-95.47,16.1,16.1,210,3,,0.5,30.121063,1019.8,,TRUE,TRUE,,,,,,FG,CLR,,,,,,,,LIFR,,,,,,,,,,,,METAR,6.0
KLBF 280653Z AUTO 35008KT 10SM FEW120 10/02 A3012 RMK AO2 SLP186 T01000017,KLBF,2018-10-28T06:53:00Z,41.12,-100.67,10.0,1.7,350,8,,10.0,30.121063,1018.6,,TRUE,TRUE,,,,,,,FEW,12000,,,,,,,VFR,,,,,,,,,,,,METAR,847.0
KLBB 280653Z 26005KT 10SM CLR 11/07 A3010 RMK AO2 SLP158 T01110072,KLBB,2018-10-28T06:53:00Z,33.67,-101.82,11.1,7.2,260,5,,10.0,30.100393,1015.8,,,TRUE,,,,,,,CLR,,,,,,,,VFR,,,,,,,,,,,,METAR,993.0
KLAX 280653Z 00000KT 2 1/2SM BR OVC005 17/16 A3001 RMK AO2 SLP159 OVC V BKN T01720156 $,KLAX,2018-10-28T06:53:00Z,33.93,-118.38,17.2,15.6,0,0,,2.5,30.008858,1015.9,,,TRUE,TRUE,,,,,BR,OVC,500,,,,,,,IFR,,,,,,,,,,,,METAR,46.0
KSDB 280653Z AUTO 29009KT 10SM CLR 19/M03 A3019 RMK AO2 SLP166 T01941028,KSDB,2018-10-28T06:53:00Z,34.75,-118.72,19.4,-2.8,290,9,,10.0,30.188976,1016.6,,TRUE,TRUE,,,,,,,CLR,,,,,,,,VFR,,,,,,,,,,,,METAR,1377.0
KNQX 280653Z AUTO 36012KT 10SM FEW030 26/19 A3004 RMK AO2 SLP169 T02610194,KNQX,2018-10-28T06:53:00Z,24.57,-81.67,26.1,19.4,360,12,,10.0,30.041338,1016.9,,TRUE,TRUE,,,,,,,FEW,3000,,,,,,,VFR,,,,,,,,,,,,SPECI,2.0
KCQC 280653Z AUTO 29013KT 10SM CLR 06/M01 A3031 RMK AO2 SLP205 T00611011 401940017,KCQC,2018-10-28T06:53:00Z,35.0,-105.67,6.1,-1.1,290,13,,10.0,30.31004,1020.5,,TRUE,TRUE,,,,,,,CLR,,,,,,,,VFR,,,,19.4,1.7,,,,,,,SPECI,2160.0
TJNR 280653Z AUTO 06007KT 10SM FEW022 SCT043 27/24 A2995 RMK AO2 SLP140 T02670239,TJNR,2018-10-28T06:53:00Z,18.25,-65.63,26.7,23.9,60,7,,10.0,29.949802,1014.0,,TRUE,TRUE,,,,,,,FEW,2200,SCT,4300,,,,,VFR,,,,,,,,,,,,SPECI,12.0
KMWT 280653Z AUTO 00000KT 10SM CLR 09/08 A3001 RMK AO2 SLP157 T00890078,KMWT,2018-10-28T06:53:00Z,34.55,-93.58,8.9,7.8,0,0,,10.0,30.008858,1015.7,,TRUE,TRUE,,,,,,,CLR,,,,,,,,VFR,,,,,,,,,,,,METAR,214.0
KSSF 280653Z AUTO 00000KT 10SM CLR 16/13 A3010 RMK AO2 SLP184 T01610133 $,KSSF,2018-10-28T06:53:00Z,29.33,-98.47,16.1,13.3,0,0,,10.0,30.100393,1018.4,,TRUE,TRUE,TRUE,,,,,,CLR,,,,,,,,VFR,,,,,,,,,,,,METAR,176.0
TISX 280653Z AUTO 36004KT 10SM CLR 25/23 A2993 RMK AO2 SLP134 T02500233,TISX,2018-10-28T06:53:00Z,17.7,-64.8,25.0,23.3,360,4,,10.0,29.929134,1013.4,,TRUE,TRUE,,,,,,,CLR,,,,,,,,VFR,,,,,,,,,,,,SPECI,19.0
KFAY 280653Z 27006KT 10SM CLR 11/08 A2991 RMK AO2 SLP123 T01060078 $,KFAY,2018-10-28T06:53:00Z,34.98,-78.88,10.6,7.8,270,6,,10.0,29.911417,1012.3,,,TRUE,TRUE,,,,,,CLR,,,,,,,,VFR,,,,,,,,,,,,METAR,55.0
PATK 280653Z AUTO 02003KT 10SM CLR 01/M03 A2959 RMK AO2 SLP026 T00061028 TSNO $,PATK,2018-10-28T06:53:00Z,62.3,-150.1,0.6,-2.8,20,3,,10.0,29.589567,1002.6,,TRUE,TRUE,TRUE,,TRUE,,,,CLR,,,,,,,,VFR,,,,,,,,,,,,METAR,109.0
PAVL 280653Z AUTO 33010KT 10SM CLR M05/M07 A2991 RMK AO2 SLP128 T10501072 TSNO,PAVL,2018-10-28T06:53:00Z,67.73,-164.55,-5.0,-7.2,330,10,,10.0,29.911417,1012.8,,TRUE,TRUE,,,TRUE,,,,CLR,,,,,,,,VFR,,,,,,,,,,,,METAR,3.0
KTWF 280653Z AUTO 17004KT 10SM CLR 07/04 A3008 RMK AO2 SLP154 T00720044 401830061,KTWF,2018-10-28T06:53:00Z,42.48,-114.48,7.2,4.4,170,4,,10.0,30.079725,1015.4,,TRUE,TRUE,,,,,,,CLR,,,,,,,,VFR,,,,18.3,6.1,,,,,,,METAR,1266.0
KBMQ 280653Z AUTO 00000KT 10SM CLR 15/12 A3013 RMK AO2 SLP189 T01500122,KBMQ,2018-10-28T06:53:00Z,30.73,-98.23,15.0,12.2,0,0,,10.0,30.129921,1018.9,,TRUE,TRUE,,,,,,,CLR,,,,,,,,VFR,,,,,,,,,,,,METAR,389.0
KBMG 280653Z AUTO 00000KT 8SM CLR 04/04 A2992 RMK AO2 SLP134 T00440039 $,KBMG,2018-10-28T06:53:00Z,39.15,-86.62,4.4,3.9,0,0,,8.0,29.920275,1013.4,,TRUE,TRUE,TRUE,,,,,,CLR,,,,,,,,VFR,,,,,,,,,,,,METAR,257.0
KBIV 280653Z AUTO 12004KT 10SM OVC050 06/03 A2986 RMK AO2 SLP113 T00560033,KBIV,2018-10-28T06:53:00Z,42.75,-86.1,5.6,3.3,120,4,,10.0,29.861221,1011.3,,TRUE,TRUE,,,,,,,OVC,5000,,,,,,,VFR,,,,,,,,,,,,METAR,208.0
KBGR 280653Z 04016G23KT 4SM -RA BR OVC009 03/02 A2980 RMK AO2 CIG 006V010 PRESFR SLP092 P0002 T00280017 $,KBGR,2018-10-28T06:53:00Z,44.8,-68.82,2.8,1.7,40,16,23,4.0,29.799213,1009.2,,,TRUE,TRUE,,,,,-RA BR,OVC,900,,,,,,,IFR,,,,,,0.02,,,,,,METAR,57.0
KTCS 280653Z AUTO 29007KT 10SM CLR 12/04 A3022 RMK AO2 SLP179 T01220044 402330089,KTCS,2018-10-28T06:53:00Z,33.23,-107.27,12.2,4.4,290,7,,10.0,30.221457,1017.9,,TRUE,TRUE,,,,,,,CLR,,,,,,,,VFR,,,,23.3,8.9,,,,,,,METAR,1469.0
KTCC 280653Z AUTO 25006KT 10SM CLR 11/07 A3008 RMK AO2 SLP146 T01060072 402610061,KTCC,2018-10-28T06:53:00Z,35.18,-103.6,10.6,7.2,250,6,,10.0,30.079725,1014.6,,TRUE,TRUE,,,,,,,CLR,,,,,,,,VFR,,,,26.1,6.1,,,,,,,METAR,1235.0
KSWO 280653Z AUTO 21004KT 10SM CLR 15/09 A2994 RMK AO2 SLP131 T01500094 $,KSWO,2018-10-28T06:53:00Z,36.17,-97.08,15.0,9.4,210,4,,10.0,29.940945,1013.1,,TRUE,TRUE,TRUE,,,,,,CLR,,,,,,,,VFR,,,,,,,,,,,,METAR,290.0
KNFW 280652Z AUTO 00000KT 10SM CLR 17/14 A3002 RMK AO2 SLP150 T01720144 TSNO $,KNFW,2018-10-28T06:52:00Z,32.78,-97.43,17.2,14.4,0,0,,10.0,30.02067,1015.0,,TRUE,TRUE,TRUE,,TRUE,,,,CLR,,,,,,,,VFR,,,,,,,,,,,,SPECI,198.0
KAQW 280652Z AUTO 00000KT 9SM OVC019 04/03 A2965 RMK AO2 RAE29 SLP045 P0000 T00440033,KAQW,2018-10-28T06:52:00Z,42.7,-73.17,4.4,3.3,0,0,,9.0,29.648623,1004.5,,TRUE,TRUE,,,,,,,OVC,1900,,,,,,,MVFR,,,,,,0.005,,,,,,SPECI,199.0
KPVC 280652Z AUTO 22007KT 2 1/2SM -RA BR OVC002 13/13 A2962 RMK AO2 RAB13E25B52 SLPNO P0000 T01330133,KPVC,2018-10-28T06:52:00Z,42.07,-70.22,13.3,13.3,220,7,,2.5,29.619095,,,TRUE,TRUE,,,,,,-RA BR,OVC,200,,,,,,,LIFR,,,,,,0.005,,,,,,SPECI,2.0
KVTN 280652Z AUTO 28007KT 10SM CLR 01/M02 A3009 RMK AO2 SLP191 T00111017,KVTN,2018-10-28T06:52:00Z,42.87,-100.55,1.1,-1.7,280,7,,10.0,30.088583,1019.1,,TRUE,TRUE,,,,,,,CLR,,,,,,,,VFR,,,,,,,,,,,,METAR,788.0
KSUX 280652Z AUTO 33020G25KT 10SM CLR 10/06 A2994 RMK AO2 PK WND 33027/0636 SLP137 T01000061,KSUX,2018-10-28T06:52:00Z,42.38,-96.38,10.0,6.1,330,20,25,10.0,29.940945,1013.7,,TRUE,TRUE,,,,,,,CLR,,,,,,,,VFR,,,,,,,,,,,,METAR,338.0
PABA 280652Z AUTO 21007KT 10SM OVC007 M07/M08 A2978 RMK AO2 SNE30 SLP070 P0000 T10721083 FZRANO TSNO,PABA,2018-10-28T06:52:00Z,70.13,-143.58,-7.2,-8.3,210,7,,10.0,29.778543,1007.0,,TRUE,TRUE,,,TRUE,TRUE,,,OVC,700,,,,,,,IFR,,,,,,0.005,,,,,,METAR,2.0
KCZZ 280652Z AUTO 05006KT 12/M03 A3007 RMK AO1 SLP149 T01221028,KCZZ,2018-10-28T06:52:00Z,32.63,-116.47,12.2,-2.8,50,6,,,30.070866,1014.9,,TRUE,TRUE,,,,,,,,,,,,,,,,,,,,,,,,,,,METAR,807.0
KCDJ 280652Z AUTO 21004KT 13/06 A2981 RMK AO1 SLP091 T01330061,KCDJ,2018-10-28T06:52:00Z,39.82,-93.58,13.3,6.1,210,4,,,29.811024,1009.1,,TRUE,TRUE,,,,,,,,,,,,,,,,,,,,,,,,,,,METAR,234.0
KNRB 280652Z AUTO 29008KT 10SM CLR 15/10 A3008 RMK AO2 SLP185 T01500100 $,KNRB,2018-10-28T06:52:00Z,30.38,-81.42,15.0,10.0,290,8,,10.0,30.079725,1018.5,,TRUE,TRUE,TRUE,,,,,,CLR,,,,,,,,VFR,,,,,,,,,,,,SPECI,5.0
KARR 280652Z AUTO 14006KT 4SM BR CLR 06/05 A2983 RMK AO2 SLP102 T00610050 TSNO,KARR,2018-10-28T06:52:00Z,41.77,-88.48,6.1,5.0,140,6,,4.0,29.828741,1010.2,,TRUE,TRUE,,,TRUE,,,BR,CLR,,,,,,,,MVFR,,,,,,,,,,,,METAR,215.0
KREO 280652Z AUTO 00000KT 11/01 A3000 RMK AO1 SLP140 T01110006 402220050,KREO,2018-10-28T06:52:00Z,42.58,-117.87,11.1,0.6,0,0,,,30.0,1014.0,,TRUE,TRUE,,,,,,,,,,,,,,,,,,,22.2,5.0,,,,,,,METAR,1235.0
KN60 280652Z AUTO 30016KT 08/M01 A2994 RMK AO1 SLP145 T00781011,KN60,2018-10-28T06:52:00Z,47.65,-101.43,7.8,-1.1,300,16,,,29.940945,1014.5,,TRUE,TRUE,,,,,,,,,,,,,,,,,,,,,,,,,,,METAR,582.0
KIAD 280652Z 20005KT 10SM -RA OVC065 08/08 A2975 RMK AO2 RAB09E23B43 SLP073 P0000 T00830083 $,KIAD,2018-10-28T06:52:00Z,38.93,-77.45,8.3,8.3,200,5,,10.0,29.749016,1007.3,,,TRUE,TRUE,,,,,-RA,OVC,6500,,,,,,,VFR,,,,,,0.005,,,,,,METAR,93.0
KBAN 280652Z AUTO 00000KT 10SM CLR 03/M08 A3023 RMK AO2 SLP163 T00331078 $,KBAN,2018-10-28T06:52:00Z,38.35,-119.52,3.3,-7.8,0,0,,10.0,30.230314,1016.3,,TRUE,TRUE,TRUE,,,,,,CLR,,,,,,,,VFR,,,,,,,,,,,,METAR,2057.0
KP69 280652Z AUTO 35004KT 08/00 A3000 RMK AO1 SLP157 T00830000,KP69,2018-10-28T06:52:00Z,46.15,-115.6,8.3,0.0,350,4,,,30.0,1015.7,,TRUE,TRUE,,,,,,,,,,,,,,,,,,,,,,,,,,,METAR,480.0
KRAP 280652Z AUTO 27004KT 10SM CLR 02/M02 A3010 RMK AO2 SLP201 T00171022 401940000,KRAP,2018-10-28T06:52:00Z,44.05,-103.05,1.7,-2.2,270,4,,10.0,30.100393,1020.1,,TRUE,TRUE,,,,,,,CLR,,,,,,,,VFR,,,,19.4,,,,,,,,METAR,965.0
KSGF 280652Z 18008KT 10SM CLR 11/06 A2992 RMK AO2 SLP128 T01060061 $,KSGF,2018-10-28T06:52:00Z,37.23,-93.38,10.6,6.1,180,8,,10.0,29.920275,1012.8,,,TRUE,TRUE,,,,,,CLR,,,,,,,,VFR,,,,,,,,,,,,SPECI,390.0
KSPI 280652Z AUTO 20008KT 10SM FEW080 OVC100 11/09 A2986 RMK AO2 RAB21E44 SLP113 P0000 T01110089 $,KSPI,2018-10-28T06:52:00Z,39.85,-89.68,11.1,8.9,200,8,,10.0,29.861221,1011.3,,TRUE,TRUE,TRUE,,,,,,FEW,8000,OVC,10000,,,,,VFR,,,,,,0.005,,,,,,METAR,181.0
KSPS 280652Z AUTO 20007KT 10SM CLR 14/13 A3000 RMK AO2 SLP150 T01390128,KSPS,2018-10-28T06:52:00Z,33.98,-98.5,13.9,12.8,200,7,,10.0,30.0,1015.0,,TRUE,TRUE,,,,,,,CLR,,,,,,,,VFR,,,,,,,,,,,,METAR,308.0
KTOL 280652Z 28005KT 10SM OVC019 06/03 A2985 RMK AO2 SLP113 T00610033,KTOL,2018-10-28T06:52:00Z,41.58,-83.8,6.1,3.3,280,5,,10.0,29.84941,1011.3,,,TRUE,,,,,,,OVC,1900,,,,,,,MVFR,,,,,,,,,,,,METAR,210.0
KTRM 280652Z AUTO 01003KT 10SM CLR 19/07 A2993 RMK AO2 SLP136 T01940067,KTRM,2018-10-28T06:52:00Z,33.63,-116.17,19.4,6.7,10,3,,10.0,29.929134,1013.6,,TRUE,TRUE,,,,,,,CLR,,,,,,,,VFR,,,,,,,,,,,,METAR,-35.0
KGLS 280652Z AUTO 22007KT 10SM CLR 22/20 A3012 RMK AO2 SLP199 T02170200,KGLS,2018-10-28T06:52:00Z,29.27,-94.87,21.7,20.0,220,7,,10.0,30.121063,1019.9,,TRUE,TRUE,,,,,,,CLR,,,,,,,,VFR,,,,,,,,,,,,METAR,6.0
KHIE 280652Z AUTO 11012G23KT 10SM FEW030 BKN048 OVC070 03/00 A2970 RMK AO2 PK WND 09029/0641 SLP067 T00280000,KHIE,2018-10-28T06:52:00Z,44.37,-71.55,2.8,0.0,110,12,23,10.0,29.698818,1006.7,,TRUE,TRUE,,,,,,,FEW,3000,BKN,4800,OVC,7000,,,VFR,,,,,,,,,,,,METAR,318.0
KHUT 280652Z AUTO 30008KT 10SM CLR 13/09 A2994 RMK AO2 SLP122 T01280089,KHUT,2018-10-28T06:52:00Z,38.07,-97.87,12.8,8.9,300,8,,10.0,29.940945,1012.2,,TRUE,TRUE,,,,,,,CLR,,,,,,,,VFR,,,,,,,,,,,,METAR,467.0
KIEN 280652Z AUTO 25003KT 9SM CLR 02/00 A3014 RMK AO2 SLP203 T00220000 402281006,KIEN,2018-10-28T06:52:00Z,43.03,-102.52,2.2,0.0,250,3,,9.0,30.138779,1020.3,,TRUE,TRUE,,,,,,,CLR,,,,,,,,VFR,,,,22.8,-0.6,,,,,,,METAR,998.0
KIOW 280652Z AUTO 00000KT 9SM OVC070 11/09 A2979 RMK AO2 RAE0556B34E43 SLP086 P0000 T01060094 $,KIOW,2018-10-28T06:52:00Z,41.63,-91.55,10.6,9.4,0,0,,9.0,29.790354,1008.6,,TRUE,TRUE,TRUE,,,,,,OVC,7000,,,,,,,VFR,,,,,,0.005,,,,,,METAR,198.0
KISN 280652Z AUTO 30010KT 10SM CLR 03/M02 A2999 RMK AO2 SLP170 T00331017 $,KISN,2018-10-28T06:52:00Z,48.17,-103.63,3.3,-1.7,300,10,,10.0,29.991142,1017.0,,TRUE,TRUE,TRUE,,,,,,CLR,,,,,,,,VFR,,,,,,,,,,,,METAR,579.0
KLWC 280652Z AUTO 28005KT 10SM CLR 13/08 A2989 RMK AO2 SLP116 T01330083,KLWC,2018-10-28T06:52:00Z,39.02,-95.22,13.3,8.3,280,5,,10.0,29.890747,1011.6,,TRUE,TRUE,,,,,,,CLR,,,,,,,,VFR,,,,,,,,,,,,METAR,253.0
KMBG 280652Z AUTO 29011KT 10SM CLR 06/M01 A2997 RMK AO2 SLP153 T00561006,KMBG,2018-10-28T06:52:00Z,45.55,-100.42,5.6,-0.6,290,11,,10.0,29.970472,1015.3,,TRUE,TRUE,,,,,,,CLR,,,,,,,,VFR,,,,,,,,,,,,METAR,510.0
KMEB 280652Z AUTO 28005KT 10SM CLR 09/08 A2994 RMK AO2 SLP137 T00940078,KMEB,2018-10-28T06:52:00Z,34.78,-79.37,9.4,7.8,280,5,,10.0,29.940945,1013.7,,TRUE,TRUE,,,,,,,CLR,,,,,,,,VFR,,,,,,,,,,,,METAR,67.0
KMFD 280652Z AUTO 27007KT 8SM OVC007 04/04 A2983 RMK AO2 CIG 006V012 SLP107 T00440044,KMFD,2018-10-28T06:52:00Z,40.82,-82.52,4.4,4.4,270,7,,8.0,29.828741,1010.7,,TRUE,TRUE,,,,,,,OVC,700,,,,,,,IFR,,,,,,,,,,,,METAR,395.0
KMHK 280652Z AUTO 01006KT 10SM CLR 16/08 A2994 RMK AO2 SLP132 T01610083 $,KMHK,2018-10-28T06:52:00Z,39.13,-96.68,16.1,8.3,10,6,,10.0,29.940945,1013.2,,TRUE,TRUE,TRUE,,,,,,CLR,,,,,,,,VFR,,,,,,,,,,,,METAR,317.0
KMKE 280652Z 15004KT 4SM BR SCT046 BKN060 BKN170 07/04 A2981 RMK AO2 SLP098 T00670044,KMKE,2018-10-28T06:52:00Z,42.95,-87.9,6.7,4.4,150,4,,4.0,29.811024,1009.8,,,TRUE,,,,,,BR,SCT,4600,BKN,6000,BKN,17000,,,MVFR,,,,,,,,,,,,METAR,206.0
KMLI 280652Z AUTO 17003KT 10SM BKN070 OVC085 12/09 A2978 RMK AO2 RAB0554E49 SLP083 P0001 T01170089,KMLI,2018-10-28T06:52:00Z,41.45,-90.52,11.7,8.9,170,3,,10.0,29.778543,1008.3,,TRUE,TRUE,,,,,,,BKN,7000,OVC,8500,,,,,VFR,,,,,,0.01,,,,,,METAR,184.0
KMLF 280652Z AUTO 18006KT 10SM CLR 08/02 A3019 RMK AO2 SLP189 T00780017 402280017,KMLF,2018-10-28T06:52:00Z,38.42,-113.02,7.8,1.7,180,6,,10.0,30.188976,1018.9,,TRUE,TRUE,,,,,,,CLR,,,,,,,,VFR,,,,22.8,1.7,,,,,,,METAR,1534.0
KMWH 280652Z AUTO 35009KT 9SM -RA FEW040 OVC050 09/08 A2987 RMK AO2 SLP116 P0001 T00940078,KMWH,2018-10-28T06:52:00Z,47.2,-119.32,9.4,7.8,350,9,,9.0,29.870079,1011.6,,TRUE,TRUE,,,,,,-RA,FEW,4000,OVC,5000,,,,,VFR,,,,,,0.01,,,,,,METAR,362.0
KOKB 280652Z AUTO 00000KT 1/4SM FG VV002 14/13 A3000 RMK AO2 SLP158 T01390133,KOKB,2018-10-28T06:52:00Z,33.22,-117.35,13.9,13.3,0,0,,0.25,30.0,1015.8,,TRUE,TRUE,,,,,,FG,OVX,0,,,,,,,LIFR,,,,,,,,,,,200,METAR,8.0
KOKC 280652Z 19007KT 10SM CLR 11/10 A2998 RMK AO2 SLP144 T01110100,KOKC,2018-10-28T06:52:00Z,35.38,-97.6,11.1,10.0,190,7,,10.0,29.97933,1014.4,,,TRUE,,,,,,,CLR,,,,,,,,VFR,,,,,,,,,,,,SPECI,390.0
KOMA 280652Z 33018G26KT 10SM CLR 13/07 A2992 RMK AO2 PK WND 32031/0614 SLP129 T01330067,KOMA,2018-10-28T06:52:00Z,41.32,-95.9,13.3,6.7,330,18,26,10.0,29.920275,1012.9,,,TRUE,,,,,,,CLR,,,,,,,,VFR,,,,,,,,,,,,METAR,312.0
KORE 280652Z AUTO 01007KT 7SM -RA OVC009 05/02 A2965 RMK AO2 RAB52 SLP045 P0000 T00500022,KORE,2018-10-28T06:52:00Z,42.57,-72.28,5.0,2.2,10,7,,7.0,29.648623,1004.5,,TRUE,TRUE,,,,,,-RA,OVC,900,,,,,,,IFR,,,,,,0.005,,,,,,METAR,164.0
KPPF 280652Z AUTO 18003KT 10SM CLR 12/09 A2992 RMK AO2 SLP125 T01220089,KPPF,2018-10-28T06:52:00Z,37.33,-95.5,12.2,8.9,180,3,,10.0,29.920275,1012.5,,TRUE,TRUE,,,,,,,CLR,,,,,,,,VFR,,,,,,,,,,,,SPECI,274.0
KPWK 280652Z AUTO 16003KT 5SM BR FEW046 06/04 A2984 RMK AO2 SLP105 T00610039,KPWK,2018-10-28T06:52:00Z,42.12,-87.9,6.1,3.9,160,3,,5.0,29.840551,1010.5,,TRUE,TRUE,,,,,,BR,FEW,4600,,,,,,,MVFR,,,,,,,,,,,,METAR,203.0
KABI 280652Z 19005KT 10SM CLR 17/12 A3008 RMK AO2 SLP165 T01670122,KABI,2018-10-28T06:52:00Z,32.42,-99.68,16.7,12.2,190,5,,10.0,30.079725,1016.5,,,TRUE,,,,,,,CLR,,,,,,,,VFR,,,,,,,,,,,,METAR,548.0
KABQ 280652Z 02003KT 10SM BKN250 12/02 A3026 RMK AO2 SLP200 T01220022 402000072,KABQ,2018-10-28T06:52:00Z,35.05,-106.62,12.2,2.2,20,3,,10.0,30.259842,1020.0,,,TRUE,,,,,,,BKN,25000,,,,,,,VFR,,,,20.0,7.2,,,,,,,METAR,1618.0
KALS 280652Z AUTO 22003KT 10SM CLR 01/M02 A3035 RMK AO2 SLP242 T00061017 401781044,KALS,2018-10-28T06:52:00Z,37.43,-105.87,0.6,-1.7,220,3,,10.0,30.351377,1024.2,,TRUE,TRUE,,,,,,,CLR,,,,,,,,VFR,,,,17.8,-4.4,,,,,,,METAR,2299.0
KAFN 280652Z AUTO VRB04KT 6SM BR OVC003 02/02 A2965 RMK AO2 SLP054 T00220022,KAFN,2018-10-28T06:52:00Z,42.8,-72.0,2.2,2.2,0,4,,6.0,29.648623,1005.4,,TRUE,TRUE,,,,,,BR,OVC,300,,,,,,,LIFR,,,,,,,,,,,,METAR,313.0
KATL 280652Z 27005KT 10SM FEW042 08/06 A3005 RMK AO2 SLP176 T00830061,KATL,2018-10-28T06:52:00Z,33.63,-84.45,8.3,6.1,270,5,,10.0,30.050198,1017.6,,,TRUE,,,,,,,FEW,4200,,,,,,,VFR,,,,,,,,,,,,METAR,296.0
KBIS 280652Z AUTO 30006KT 10SM SCT110 06/M02 A2997 RMK AO2 SLP155 T00561022,KBIS,2018-10-28T06:52:00Z,46.77,-100.75,5.6,-2.2,300,6,,10.0,29.970472,1015.5,,TRUE,TRUE,,,,,,,SCT,11000,,,,,,,VFR,,,,,,,,,,,,METAR,505.0
KBLF 280652Z AUTO 27010G19KT 10SM BKN008 OVC011 03/ A2989 RMK AO2 RAE17 CIG 005V009 SLP125 P0000 T0033 $,KBLF,2018-10-28T06:52:00Z,37.3,-81.2,3.3,,270,10,19,10.0,29.890747,1012.5,,TRUE,TRUE,TRUE,,,,,,BKN,800,OVC,1100,,,,,IFR,,,,,,0.005,,,,,,METAR,873.0
KBLH 280652Z AUTO 34007KT 10SM CLR 19/03 A2996 RMK AO2 SLP141 T01890033,KBLH,2018-10-28T06:52:00Z,33.62,-114.72,18.9,3.3,340,7,,10.0,29.958662,1014.1,,TRUE,TRUE,,,,,,,CLR,,,,,,,,VFR,,,,,,,,,,,,METAR,119.0
KBLU 280652Z AUTO 15005KT 10SM CLR 13/04 A3021 RMK AO2 SLP163 T01280039,KBLU,2018-10-28T06:52:00Z,39.28,-120.7,12.8,3.9,150,5,,10.0,30.209646,1016.3,,TRUE,TRUE,,,,,,,CLR,,,,,,,,VFR,,,,,,,,,,,,METAR,1609.0
KCID 280652Z AUTO 33006KT 10SM OVC065 11/09 A2977 RMK AO2 RAE47 SLP081 P0004 T01060094,KCID,2018-10-28T06:52:00Z,41.88,-91.72,10.6,9.4,330,6,,10.0,29.769686,1008.1,,TRUE,TRUE,,,,,,,OVC,6500,,,,,,,VFR,,,,,,0.04,,,,,,METAR,264.0
KCFV 280652Z AUTO 19008KT 10SM CLR 13/09 A2991 RMK AO2 SLP125 T01330094,KCFV,2018-10-28T06:52:00Z,37.08,-95.57,13.3,9.4,190,8,,10.0,29.911417,1012.5,,TRUE,TRUE,,,,,,,CLR,,,,,,,,VFR,,,,,,,,,,,,METAR,225.0
KCKV 280652Z AUTO 00000KT 1/4SM FG CLR 04/03 A3001 RMK AO2 SLP163 T00440033,KCKV,2018-10-28T06:52:00Z,36.62,-87.42,4.4,3.3,0,0,,0.25,30.008858,1016.3,,TRUE,TRUE,,,,,,FG,CLR,,,,,,,,LIFR,,,,,,,,,,,,METAR,165.0
KCNU 280652Z AUTO 20009KT 10SM CLR 13/09 A2989 RMK AO2 SLP115 T01330094 $,KCNU,2018-10-28T06:52:00Z,37.67,-95.48,13.3,9.4,200,9,,10.0,29.890747,1011.5,,TRUE,TRUE,TRUE,,,,,,CLR,,,,,,,,VFR,,,,,,,,,,,,METAR,297.0
KCVG 280652Z 24004KT 10SM BKN039 OVC047 08/06 A2992 RMK AO2 SLP132 T00830061,KCVG,2018-10-28T06:52:00Z,39.05,-84.67,8.3,6.1,240,4,,10.0,29.920275,1013.2,,,TRUE,,,,,,,BKN,3900,OVC,4700,,,,,VFR,,,,,,,,,,,,METAR,269.0
KFIT 280652Z AUTO VRB04KT 5SM BR OVC008 03/03 A2967 RMK AO2 RAB06E48 SLP051 P0001 T00330028,KFIT,2018-10-28T06:52:00Z,42.55,-71.75,3.3,2.8,0,4,,5.0,29.66929,1005.1,,TRUE,TRUE,,,,,,BR,OVC,800,,,,,,,IFR,,,,,,0.01,,,,,,METAR,103.0
KEST 280652Z AUTO 30018KT 10SM CLR 07/04 A2981 RMK AO2 PK WND 31031/0602 SLP096 T00720039,KEST,2018-10-28T06:52:00Z,43.4,-94.75,7.2,3.9,300,18,,10.0,29.811024,1009.6,,TRUE,TRUE,,,,,,,CLR,,,,,,,,VFR,,,,,,,,,,,,METAR,401.0
KDVN 280652Z AUTO 21005KT 7SM -RA OVC070 11/08 A2979 RMK AO2 SLP085 P0003 T01060083 $,KDVN,2018-10-28T06:52:00Z,41.62,-90.58,10.6,8.3,210,5,,7.0,29.790354,1008.5,,TRUE,TRUE,TRUE,,,,,-RA,OVC,7000,,,,,,,VFR,,,,,,0.03,,,,,,METAR,230.0
KDPA 280652Z 16006KT 3SM BR CLR 07/05 A2982 RMK AO2 SLP099 T00670050,KDPA,2018-10-28T06:52:00Z,41.92,-88.25,6.7,5.0,160,6,,3.0,29.819881,1009.9,,,TRUE,,,,,,BR,CLR,,,,,,,,MVFR,,,,,,,,,,,,METAR,231.0
KDDC 280652Z AUTO 01014G25KT 10SM CLR 13/06 A3003 RMK AO2 SLP148 T01280061,KDDC,2018-10-28T06:52:00Z,37.77,-99.97,12.8,6.1,10,14,25,10.0,30.029528,1014.8,,TRUE,TRUE,,,,,,,CLR,,,,,,,,VFR,,,,,,,,,,,,METAR,789.0
KDCA 280652Z 21003KT 10SM -RA OVC060 11/08 A2975 RMK AO2 SLP075 P0000 T01060083,KDCA,2018-10-28T06:52:00Z,38.85,-77.03,10.6,8.3,210,3,,10.0,29.749016,1007.5,,,TRUE,,,,,,-RA,OVC,6000,,,,,,,VFR,,,,,,0.005,,,,,,METAR,18.0
PKMR 280652Z 15004KT 15SM FEW015 SCT050 OVC300 29/25 A2975 RMK SLP075 T02900246,PKMR,2018-10-28T06:52:00Z,7.08,171.38,29.0,24.6,150,4,,15.0,29.749016,1007.5,,,,,,,,,,FEW,1500,SCT,5000,OVC,30000,,,VFR,,,,,,,,,,,,METAR,4.0
KMDH 280652Z AUTO 16003KT 10SM CLR 07/06 A2994 RMK AO2 SLP139 T00670061,KMDH,2018-10-28T06:52:00Z,37.78,-89.25,6.7,6.1,160,3,,10.0,29.940945,1013.9,,TRUE,TRUE,,,,,,,CLR,,,,,,,,VFR,,,,,,,,,,,,METAR,130.0
KCLT 280652Z 29004KT 10SM FEW130 08/06 A2995 RMK AO2 SLP138 T00780056,KCLT,2018-10-28T06:52:00Z,35.22,-80.95,7.8,5.6,290,4,,10.0,29.949802,1013.8,,,TRUE,,,,,,,FEW,13000,,,,,,,VFR,,,,,,,,,,,,METAR,220.0
KOXC 280651Z AUTO 36007KT OVC005 05/04 A2964 RMK AO2 SLPNO P0001 T00500044 PWINO $,KOXC,2018-10-28T06:51:00Z,41.47,-73.13,5.0,4.4,360,7,,,29.639763,,,TRUE,TRUE,TRUE,,,,TRUE,,OVC,500,,,,,,,,,,,,,0.01,,,,,,SPECI,222.0
KSLK 280651Z AUTO 05007KT 4SM -SN BR OVC005 00/00 A2965 RMK AO2 FZRAB31E43SNB43 SLP057 P0002 I1002 T00000000,KSLK,2018-10-28T06:51:00Z,44.4,-74.2,0.0,0.0,50,7,,4.0,29.648623,1005.7,,TRUE,TRUE,,,,,,-SN BR,OVC,500,,,,,,,IFR,,,,,,0.02,,,,,,SPECI,498.0
KTPL 280651Z AUTO 19005KT 10SM CLR 16/14 A3008 RMK AO2 SLP192 T01610144,KTPL,2018-10-28T06:51:00Z,31.13,-97.4,16.1,14.4,190,5,,10.0,30.079725,1019.2,,TRUE,TRUE,,,,,,,CLR,,,,,,,,VFR,,,,,,,,,,,,METAR,208.0
KJFK 280651Z 25010KT 3SM -DZ BR BKN008 OVC015 09/08 A2969 RMK AO2 SLP055 P0000 T00890078 $,KJFK,2018-10-28T06:51:00Z,40.63,-73.77,8.9,7.8,250,10,,3.0,29.68996,1005.5,,,TRUE,TRUE,,,,,-DZ BR,BKN,800,OVC,1500,,,,,IFR,,,,,,0.005,,,,,,METAR,9.0
KJCT 280651Z AUTO 00000KT 10SM CLR 13/11 A3015 RMK AO2 SLP180 T01280111,KJCT,2018-10-28T06:51:00Z,30.5,-99.77,12.8,11.1,0,0,,10.0,30.15059,1018.0,,TRUE,TRUE,,,,,,,CLR,,,,,,,,VFR,,,,,,,,,,,,METAR,522.0
KILG 280651Z AUTO 21006KT 10SM OVC085 07/06 A2974 RMK AO2 SLP069 T00720061,KILG,2018-10-28T06:51:00Z,39.67,-75.6,7.2,6.1,210,6,,10.0,29.740158,1006.9,,TRUE,TRUE,,,,,,,OVC,8500,,,,,,,VFR,,,,,,,,,,,,METAR,28.0
KHTS 280651Z 25003KT 8SM OVC050 08/07 A2992 RMK AO2 SLP133 T00780067,KHTS,2018-10-28T06:51:00Z,38.37,-82.55,7.8,6.7,250,3,,8.0,29.920275,1013.3,,,TRUE,,,,,,,OVC,5000,,,,,,,VFR,,,,,,,,,,,,METAR,254.0
KHSE 280651Z AUTO 27007G18KT 10SM CLR 16/13 A2984 RMK AO2 SLP104 T01610128 $,KHSE,2018-10-28T06:51:00Z,35.23,-75.62,16.1,12.8,270,7,18,10.0,29.840551,1010.4,,TRUE,TRUE,TRUE,,,,,,CLR,,,,,,,,VFR,,,,,,,,,,,,METAR,3.0
KHDO 280651Z AUTO 01005KT 10SM CLR 14/13 A3013 RMK AO2 SLP190 T01440128,KHDO,2018-10-28T06:51:00Z,29.37,-99.17,14.4,12.8,10,5,,10.0,30.129921,1019.0,,TRUE,TRUE,,,,,,,CLR,,,,,,,,VFR,,,,,,,,,,,,METAR,282.0
KEWR 280651Z 24008KT 6SM -DZ BR BKN006 OVC012 08/07 A2969 RMK AO2 SLP052 P0000 T00780072 $,KEWR,2018-10-28T06:51:00Z,40.68,-74.17,7.8,7.2,240,8,,6.0,29.68996,1005.2,,,TRUE,TRUE,,,,,-DZ BR,BKN,600,OVC,1200,,,,,IFR,,,,,,0.005,,,,,,SPECI,7.0
KELP 280651Z 16004KT 10SM CLR 15/07 A3018 RMK AO2 SLP166 T01500067 402500094,KELP,2018-10-28T06:51:00Z,31.82,-106.38,15.0,6.7,160,4,,10.0,30.180119,1016.6,,,TRUE,,,,,,,CLR,,,,,,,,VFR,,,,25.0,9.4,,,,,,,METAR,1197.0
KEKN 280651Z AUTO 24008G15KT 200V270 9SM -RA BKN017 BKN022 OVC032 05/03 A2982 RMK AO2 SLP107 P0002 T00500028 TSNO,KEKN,2018-10-28T06:51:00Z,38.88,-79.85,5.0,2.8,240,8,15,9.0,29.819881,1010.7,,TRUE,TRUE,,,TRUE,,,-RA,BKN,1700,BKN,2200,OVC,3200,,,MVFR,,,,,,0.02,,,,,,METAR,603.0
KDAW 280651Z AUTO 36012G19KT 10SM OVC009 03/02 A2969 RMK AO2 PK WND 36029/0552 SLP053 T00280022,KDAW,2018-10-28T06:51:00Z,43.28,-70.92,2.8,2.2,360,12,19,10.0,29.68996,1005.3,,TRUE,TRUE,,,,,,,OVC,900,,,,,,,IFR,,,,,,,,,,,,METAR,100.0
KCON 280651Z AUTO 03008G18KT 10SM OVC012 03/02 A2969 RMK AO2 SLP056 T00280017,KCON,2018-10-28T06:51:00Z,43.2,-71.5,2.8,1.7,30,8,18,10.0,29.68996,1005.6,,TRUE,TRUE,,,,,,,OVC,1200,,,,,,,MVFR,,,,,,,,,,,,METAR,103.0
KCMH 280651Z 26006KT 10SM OVC043 07/05 A2987 RMK AO2 SLP117 T00670050,KCMH,2018-10-28T06:51:00Z,40.0,-82.88,6.7,5.0,260,6,,10.0,29.870079,1011.7,,,TRUE,,,,,,,OVC,4300,,,,,,,VFR,,,,,,,,,,,,SPECI,247.0
KBGD 280651Z AUTO 25006KT 10SM CLR 13/06 A3004 RMK AO2 SLP143 T01330056,KBGD,2018-10-28T06:51:00Z,35.7,-101.4,13.3,5.6,250,6,,10.0,30.041338,1014.3,,TRUE,TRUE,,,,,,,CLR,,,,,,,,VFR,,,,,,,,,,,,METAR,927.0
KBDL 280651Z 35008KT 3SM -RA BR BKN006 BKN011 OVC018 05/04 A2965 RMK AO2 SLP039 P0002 T00500044,KBDL,2018-10-28T06:51:00Z,41.93,-72.68,5.0,4.4,350,8,,3.0,29.648623,1003.9,,,TRUE,,,,,,-RA BR,BKN,600,BKN,1100,OVC,1800,,,IFR,,,,,,0.02,,,,,,METAR,60.0
KBAZ 280651Z AUTO 28005KT 10SM CLR 16/13 A3010 RMK AO2 SLP186 T01560133,KBAZ,2018-10-28T06:51:00Z,29.72,-98.05,15.6,13.3,280,5,,10.0,30.100393,1018.6,,TRUE,TRUE,,,,,,,CLR,,,,,,,,VFR,,,,,,,,,,,,METAR,195.0
KALB 280651Z 30003KT 3SM -RA BR BKN005 OVC014 05/04 A2968 RMK AO2 SLP051 P0002 T00500039,KALB,2018-10-28T06:51:00Z,42.75,-73.8,5.0,3.9,300,3,,3.0,29.681103,1005.1,,,TRUE,,,,,,-RA BR,BKN,500,OVC,1400,,,,,IFR,,,,,,0.02,,,,,,METAR,92.0
KACT 280651Z AUTO 22009KT 10SM CLR 16/13 A3006 RMK AO2 SLP171 T01560133,KACT,2018-10-28T06:51:00Z,31.62,-97.23,15.6,13.3,220,9,,10.0,30.059055,1017.1,,TRUE,TRUE,,,,,,,CLR,,,,,,,,VFR,,,,,,,,,,,,METAR,151.0
KABE 280651Z 27004KT 10SM OVC015 07/05 A2969 RMK AO2 SLP054 T00720050,KABE,2018-10-28T06:51:00Z,40.65,-75.45,7.2,5.0,270,4,,10.0,29.68996,1005.4,,,TRUE,,,,,,,OVC,1500,,,,,,,MVFR,,,,,,,,,,,,METAR,114.0
KNYC 280651Z AUTO 10SM OVC006 08/07 A2970 RMK AO2 RAB0559E38 SLP049 P0001 T00780072 $,KNYC,2018-10-28T06:51:00Z,40.78,-73.97,7.8,7.2,,,,10.0,29.698818,1004.9,,TRUE,TRUE,TRUE,,,,,,OVC,600,,,,,,,IFR,,,,,,0.01,,,,,,METAR,11.0
KP58 280651Z AUTO 10003KT 05/04 A2980 RMK AO1 SLP099 T00500039,KP58,2018-10-28T06:51:00Z,44.02,-82.8,5.0,3.9,100,3,,,29.799213,1009.9,,TRUE,TRUE,,,,,,,,,,,,,,,,,,,,,,,,,,,METAR,179.0
KSNT 280651Z AUTO 18003KT 05/M01 A3015 RMK AO1 SLP153 T00501006 401440044,KSNT,2018-10-28T06:51:00Z,44.17,-114.93,5.0,-0.6,180,3,,,30.15059,1015.3,,TRUE,TRUE,,,,,,,,,,,,,,,,,,,14.4,4.4,,,,,,,METAR,1980.0
KSJT 280651Z AUTO 22006KT 10SM CLR 13/12 A3011 RMK AO2 SLP181 T01330117,KSJT,2018-10-28T06:51:00Z,31.37,-100.5,13.3,11.7,220,6,,10.0,30.109253,1018.1,,TRUE,TRUE,,,,,,,CLR,,,,,,,,VFR,,,,,,,,,,,,METAR,576.0
KSAT 280651Z 32004KT 10SM CLR 15/13 A3013 RMK AO2 SLP186 T01500133,KSAT,2018-10-28T06:51:00Z,29.53,-98.47,15.0,13.3,320,4,,10.0,30.129921,1018.6,,,TRUE,,,,,,,CLR,,,,,,,,VFR,,,,,,,,,,,,METAR,243.0
KSAD 280651Z AUTO 02003KT 10SM CLR 14/07 A3013 RMK AO2 SLP167 T01390072 402720089 $,KSAD,2018-10-28T06:51:00Z,32.85,-109.63,13.9,7.2,20,3,,10.0,30.129921,1016.7,,TRUE,TRUE,TRUE,,,,,,CLR,,,,,,,,VFR,,,,27.2,8.9,,,,,,,METAR,962.0
KROW 280651Z AUTO 23003KT 10SM CLR 09/08 A3013 RMK AO2 SLP162 T00940083 402500078,KROW,2018-10-28T06:51:00Z,33.3,-104.5,9.4,8.3,230,3,,10.0,30.129921,1016.2,,TRUE,TRUE,,,,,,,CLR,,,,,,,,VFR,,,,25.0,7.8,,,,,,,METAR,1112.0
KRDU 280651Z 24005KT 10SM CLR 07/06 A2988 RMK AO2 SLP119 T00670056 $,KRDU,2018-10-28T06:51:00Z,35.9,-78.78,6.7,5.6,240,5,,10.0,29.878937,1011.9,,,TRUE,TRUE,,,,,,CLR,,,,,,,,VFR,,,,,,,,,,,,METAR,130.0
KPWM 280651Z AUTO 01010G19KT 5SM BR OVC008 03/02 A2971 RMK AO2 RAB0554E24 SLP063 P0000 T00280022,KPWM,2018-10-28T06:51:00Z,43.65,-70.3,2.8,2.2,10,10,19,5.0,29.71063,1006.3,,TRUE,TRUE,,,,,,BR,OVC,800,,,,,,,IFR,,,,,,0.005,,,,,,METAR,15.0
KPVD 280651Z AUTO 36008KT 3SM BR BKN006 OVC012 08/07 A2964 RMK AO2 SFC VIS 4 RAE49 SLP038 P0000 T00780072,KPVD,2018-10-28T06:51:00Z,41.72,-71.43,7.8,7.2,360,8,,3.0,29.639763,1003.8,,TRUE,TRUE,,,,,,BR,BKN,600,OVC,1200,,,,,IFR,,,,,,0.005,,,,,,METAR,16.0
KPHX 280651Z 00000KT 10SM CLR 22/10 A2999 RMK AO2 SLP140 T02170100 403170172,KPHX,2018-10-28T06:51:00Z,33.43,-112.02,21.7,10.0,0,0,,10.0,29.991142,1014.0,,,TRUE,,,,,,,CLR,,,,,,,,VFR,,,,31.7,17.2,,,,,,,METAR,336.0
KORF 280651Z 22009KT 10SM FEW070 11/11 A2979 RMK AO2 SLP087 T01110106,KORF,2018-10-28T06:51:00Z,36.9,-76.2,11.1,10.6,220,9,,10.0,29.790354,1008.7,,,TRUE,,,,,,,FEW,7000,,,,,,,VFR,,,,,,,,,,,,METAR,14.0
KORD 280651Z 17005KT 5SM BR SCT045 BKN250 07/05 A2983 RMK AO2 SLP103 T00670050,KORD,2018-10-28T06:51:00Z,41.98,-87.93,6.7,5.0,170,5,,5.0,29.828741,1010.3,,,TRUE,,,,,,BR,SCT,4500,BKN,25000,,,,,MVFR,,,,,,,,,,,,SPECI,200.0
KMPV 280651Z AUTO 00000KT 8SM OVC019 01/01 A2971 RMK AO2 RAB38E48 SLP074 P0000 T00110011 $,KMPV,2018-10-28T06:51:00Z,44.2,-72.57,1.1,1.1,0,0,,8.0,29.71063,1007.4,,TRUE,TRUE,TRUE,,,,,,OVC,1900,,,,,,,MVFR,,,,,,0.005,,,,,,METAR,343.0
KLGA 280651Z 27005KT 7SM -DZ BKN006 BKN012 OVC028 08/07 A2967 RMK AO2 SLP047 P0000 T00830072,KLGA,2018-10-28T06:51:00Z,40.78,-73.88,8.3,7.2,270,5,,7.0,29.66929,1004.7,,,TRUE,,,,,,-DZ,BKN,600,BKN,1200,OVC,2800,,,IFR,,,,,,0.005,,,,,,SPECI,11.0
KVCT 280651Z AUTO 21004KT 6SM BR CLR 17/16 A3012 RMK AO2 SLP199 T01720161,KVCT,2018-10-28T06:51:00Z,28.87,-96.93,17.2,16.1,210,4,,6.0,30.121063,1019.9,,TRUE,TRUE,,,,,,BR,CLR,,,,,,,,VFR,,,,,,,,,,,,METAR,31.0
KTEB 280651Z 00000KT 2 1/2SM FEW007 OVC016 08/07 A2967 RMK AO2 RAE44 SLP047 P0000 T00780072 $,KTEB,2018-10-28T06:51:00Z,40.87,-74.05,7.8,7.2,0,0,,2.5,29.66929,1004.7,,,TRUE,TRUE,,,,,,FEW,700,OVC,1600,,,,,IFR,,,,,,0.005,,,,,,METAR,7.0
KSTL 280651Z 00000KT 10SM FEW110 SCT170 13/07 A2989 RMK AO2 SLP117 T01280072 $,KSTL,2018-10-28T06:51:00Z,38.75,-90.37,12.8,7.2,0,0,,10.0,29.890747,1011.7,,,TRUE,TRUE,,,,,,FEW,11000,SCT,17000,,,,,VFR,,,,,,,,,,,,METAR,171.0
KERI 280651Z AUTO 00000KT 10SM OVC023 05/03 A2976 RMK AO2 RAB34E47 SLP081 P0000 T00500033,KERI,2018-10-28T06:51:00Z,42.08,-80.18,5.0,3.3,0,0,,10.0,29.760826,1008.1,,TRUE,TRUE,,,,,,,OVC,2300,,,,,,,MVFR,,,,,,0.005,,,,,,SPECI,222.0
KCSG 280651Z AUTO 00000KT 10SM CLR 09/08 A3009 RMK AO2 SLP187 T00940078 $,KCSG,2018-10-28T06:51:00Z,32.52,-84.95,9.4,7.8,0,0,,10.0,30.088583,1018.7,,TRUE,TRUE,TRUE,,,,,,CLR,,,,,,,,VFR,,,,,,,,,,,,METAR,135.0
KCLE 280651Z 27006KT 10SM OVC016 07/06 A2982 RMK AO2 SLP099 T00720056,KCLE,2018-10-28T06:51:00Z,41.42,-81.85,7.2,5.6,270,6,,10.0,29.819881,1009.9,,,TRUE,,,,,,,OVC,1600,,,,,,,MVFR,,,,,,,,,,,,SPECI,233.0
KCAK 280651Z 28011KT 10SM BKN005 OVC011 07/04 A2978 RMK AO2 SLP089 T00670044,KCAK,2018-10-28T06:51:00Z,40.92,-81.45,6.7,4.4,280,11,,10.0,29.778543,1008.9,,,TRUE,,,,,,,BKN,500,OVC,1100,,,,,IFR,,,,,,,,,,,,METAR,377.0
KBHK 280651Z AUTO 28008KT 10SM CLR 02/M06 A3004 RMK AO2 SLP180 T00171056 401391011,KBHK,2018-10-28T06:51:00Z,46.35,-104.25,1.7,-5.6,280,8,,10.0,30.041338,1018.0,,TRUE,TRUE,,,,,,,CLR,,,,,,,,VFR,,,,13.9,-1.1,,,,,,,METAR,902.0
KAVX 280651Z AUTO 05004KT 10SM CLR 22/M01 A3004 RMK AO2 SLP143 T02171011,KAVX,2018-10-28T06:51:00Z,33.4,-118.42,21.7,-1.1,50,4,,10.0,30.041338,1014.3,,TRUE,TRUE,,,,,,,CLR,,,,,,,,VFR,,,,,,,,,,,,SPECI,482.0
KAHN 280651Z AUTO 00000KT 10SM CLR 08/07 A3002 RMK AO2 SLP165 T00830067,KAHN,2018-10-28T06:51:00Z,33.95,-83.33,8.3,6.7,0,0,,10.0,30.02067,1016.5,,TRUE,TRUE,,,,,,,CLR,,,,,,,,VFR,,,,,,,,,,,,METAR,244.0
PTYA 280651Z VRB05KT 12SM FEW017 BKN130 BKN300 31/26 A2969 RMK SLP056 T03100255,PTYA,2018-10-28T06:51:00Z,9.48,138.08,31.0,25.5,0,5,,12.0,29.68996,1005.6,,,,,,,,,,FEW,1700,BKN,13000,BKN,30000,,,VFR,,,,,,,,,,,,METAR,17.0
KSMX 280651Z AUTO 00000KT 9SM CLR 13/11 A3002 RMK AO2 SLP166 T01330111,KSMX,2018-10-28T06:51:00Z,34.9,-120.45,13.3,11.1,0,0,,9.0,30.02067,1016.6,,TRUE,TRUE,,,,,,,CLR,,,,,,,,VFR,,,,,,,,,,,,METAR,74.0
KSMO 280651Z AUTO 00000KT 3SM HZ OVC003 18/16 A3001 RMK AO2 SLP159 T01830156,KSMO,2018-10-28T06:51:00Z,34.02,-118.45,18.3,15.6,0,0,,3.0,30.008858,1015.9,,TRUE,TRUE,,,,,,HZ,OVC,300,,,,,,,LIFR,,,,,,,,,,,,METAR,57.0
KSAN 280651Z 00000KT 9SM FEW005 18/16 A3001 RMK AO2 SLP162 T01780156,KSAN,2018-10-28T06:51:00Z,32.73,-117.18,17.8,15.6,0,0,,9.0,30.008858,1016.2,,,TRUE,,,,,,,FEW,500,,,,,,,VFR,,,,,,,,,,,,METAR,12.0
KVNY 280651Z AUTO 00000KT 6SM HZ CLR 19/14 A3000 RMK AO2 SLP150 T01940139,KVNY,2018-10-28T06:51:00Z,34.22,-118.48,19.4,13.9,0,0,,6.0,30.0,1015.0,,TRUE,TRUE,,,,,,HZ,CLR,,,,,,,,VFR,,,,,,,,,,,,METAR,245.0
KPIT 280651Z 28007KT 8SM BKN008 OVC015 07/07 A2974 RMK AO2 RAE10 SLP084 P0002 T00670067 $,KPIT,2018-10-28T06:51:00Z,40.5,-80.27,6.7,6.7,280,7,,8.0,29.740158,1008.4,,,TRUE,TRUE,,,,,,BKN,800,OVC,1500,,,,,IFR,,,,,,0.02,,,,,,METAR,357.0
KOXR 280651Z AUTO 00000KT 1/2SM FG VV002 14/14 A2999 RMK AO2 SLP156 T01440139,KOXR,2018-10-28T06:51:00Z,34.2,-119.2,14.4,13.9,0,0,,0.5,29.991142,1015.6,,TRUE,TRUE,,,,,,FG,OVX,0,,,,,,,LIFR,,,,,,,,,,,200,METAR,20.0
KMYL 280651Z AUTO 00000KT 10SM CLR 05/04 A3003 RMK AO2 SLP160 T00500044 401390050,KMYL,2018-10-28T06:51:00Z,44.9,-116.1,5.0,4.4,0,0,,10.0,30.029528,1016.0,,TRUE,TRUE,,,,,,,CLR,,,,,,,,VFR,,,,13.9,5.0,,,,,,,METAR,1533.0
KLGU 280651Z AUTO 00000KT 10SM CLR 06/02 A3016 RMK AO2 SLP191 T00560022 401940011,KLGU,2018-10-28T06:51:00Z,41.78,-111.85,5.6,2.2,0,0,,10.0,30.159449,1019.1,,TRUE,TRUE,,,,,,,CLR,,,,,,,,VFR,,,,19.4,1.1,,,,,,,METAR,1355.0
KIGM 280651Z AUTO 13004KT 10SM CLR 12/M04 A3015 RMK AO2 SLP153 T01221044 402890072,KIGM,2018-10-28T06:51:00Z,35.25,-113.93,12.2,-4.4,130,4,,10.0,30.15059,1015.3,,TRUE,TRUE,,,,,,,CLR,,,,,,,,VFR,,,,28.9,7.2,,,,,,,METAR,1032.0
KYNG 280651Z 30006KT 6SM -RA BR SCT004 BKN012 OVC060 06/06 A2974 RMK AO2 RAE15B44 SLP077 P0001 T00610056,KYNG,2018-10-28T06:51:00Z,41.25,-80.67,6.1,5.6,300,6,,6.0,29.740158,1007.7,,,TRUE,,,,,,-RA BR,SCT,400,BKN,1200,OVC,6000,,,MVFR,,,,,,0.01,,,,,,METAR,360.0
KATT 280651Z AUTO 29003KT 10SM CLR 20/13 A3011 RMK AO2 SLP186 T02000133,KATT,2018-10-28T06:51:00Z,30.32,-97.77,20.0,13.3,290,3,,10.0,30.109253,1018.6,,TRUE,TRUE,,,,,,,CLR,,,,,,,,VFR,,,,,,,,,,,,METAR,201.0
KP59 280651Z AUTO 21007KT 06/03 A2981 RMK AO1 SLP099 T00610033,KP59,2018-10-28T06:51:00Z,47.47,-87.88,6.1,3.3,210,7,,,29.811024,1009.9,,TRUE,TRUE,,,,,,,,,,,,,,,,,,,,,,,,,,,METAR,190.0
PKMJ 280651Z 13006KT 15SM FEW015 SCT050 BKN120 OVC300 29/25 A2975,PKMJ,2018-10-28T06:51:00Z,7.07,171.27,29.0,25.0,130,6,,15.0,29.749016,,,,,,,,,,,FEW,1500,SCT,5000,BKN,12000,OVC,30000,VFR,,,,,,,,,,,,METAR,3.0
PTKK 280651Z VRB04KT 15SM FEW014 SCT120 OVC280 28/25 A2972 RMK SLP066 T02830246,PTKK,2018-10-28T06:51:00Z,7.47,151.85,28.3,24.6,0,4,,15.0,29.719488,1006.6,,,,,,,,,,FEW,1400,SCT,12000,OVC,28000,,,VFR,,,,,,,,,,,,METAR,2.0
MUCU 280651Z 36005KT 340V040 9000 FEW020 25/21 Q1015,MUCU,2018-10-28T06:51:00Z,19.97,-75.83,25.0,21.0,360,5,,5.59,29.970472,,,,,,,,,,,FEW,2000,,,,,,,VFR,,,,,,,,,,,,METAR,76.0
MUCM 280651Z VRB01KT 9000 FEW020 24/23 Q1015,MUCM,2018-10-28T06:51:00Z,21.42,-77.85,24.0,23.0,0,1,,5.59,29.970472,,,,,,,,,,,FEW,2000,,,,,,,VFR,,,,,,,,,,,,METAR,122.0
EGOV 280650Z AUTO 03011KT 9999 FEW050/// 07/01 Q1025,EGOV,2018-10-28T06:50:00Z,53.25,-4.53,7.0,1.0,30,11,,6.21,30.265747,,,TRUE,,,,,,,,FEW,5000,,,,,,,VFR,,,,,,,,,,,,METAR,11.0
NSTU 280650Z VRB03KT 12SM SCT019 BKN110 BKN220 27/24 A2983 RMK SLP103 T02710238,NSTU,2018-10-28T06:50:00Z,-14.33,-170.72,27.1,23.8,0,3,,12.0,29.828741,1010.3,,,,,,,,,,SCT,1900,BKN,11000,BKN,22000,,,VFR,,,,,,,,,,,,METAR,3.0
MMAA 280650Z 01004KT 6SM FEW015 SCT300 26/25 A2994 RMK 8/102 HZY,MMAA,2018-10-28T06:50:00Z,16.75,-99.75,26.0,25.0,10,4,,6.0,29.940945,,,,,,,,,,,FEW,1500,SCT,30000,,,,,VFR,,,,,,,,,,,,METAR,5.0
EGXS 280650Z AUTO 03018KT 9999 // FEW042/// 09/02 Q1021,EGXS,2018-10-28T06:50:00Z,53.48,0.15,9.0,2.0,30,18,,6.21,30.147638,,,TRUE,,,,,,,,FEW,4200,,,,,,,VFR,,,,,,,,,,,,METAR,3.0
EGXP 280650Z AUTO 34009KT 9999 // SCT041/// 03/01 Q1021,EGXP,2018-10-28T06:50:00Z,53.3,-0.55,3.0,1.0,340,9,,6.21,30.147638,,,TRUE,,,,,,,,SCT,4100,,,,,,,VFR,,,,,,,,,,,,METAR,61.0
EGQS 280650Z 33009KT 9999 FEW020CB 06/03 Q1028 BLU,EGQS,2018-10-28T06:50:00Z,57.72,-3.32,6.0,3.0,330,9,,6.21,30.35433,,,,,,,,,,,FEW,2000,,,,,,,VFR,,,,,,,,,,,,METAR,13.0
EGQM 280650Z AUTO 01012KT 9999 FEW033/// 07/02 Q1025 RERA,EGQM,2018-10-28T06:50:00Z,55.42,-1.6,7.0,2.0,10,12,,6.21,30.265747,,,TRUE,,,,,,,,FEW,3300,,,,,,,VFR,,,,,,,,,,,,METAR,23.0
KWDR 280650Z AUTO 28005KT 10SM CLR 09/07 A3005 RMK AO1,KWDR,2018-10-28T06:50:00Z,33.98,-83.67,9.0,7.0,280,5,,10.0,30.050198,,,TRUE,TRUE,,,,,,,CLR,,,,,,,,VFR,,,,,,,,,,,,SPECI,287.0
EGXZ 280650Z AUTO 34010KT 9999 FEW029/// 03/02 Q1024 RERA,EGXZ,2018-10-28T06:50:00Z,54.2,-1.38,3.0,2.0,340,10,,6.21,30.236221,,,TRUE,,,,,,,,FEW,2900,,,,,,,VFR,,,,,,,,,,,,SPECI,28.0
EGXT 280650Z AUTO 01013KT 9999 FEW035/// BKN046/// 05/03 Q1020 RERA,EGXT,2018-10-28T06:50:00Z,52.62,-0.47,5.0,3.0,10,13,,6.21,30.11811,,,TRUE,,,,,,,,FEW,3500,BKN,4600,,,,,VFR,,,,,,,,,,,,SPECI,84.0
EGVO 280650Z AUTO 02010KT 9999 BKN010/// 05/03 Q1017,EGVO,2018-10-28T06:50:00Z,51.23,-0.95,5.0,3.0,20,10,,6.21,30.029528,,,TRUE,,,,,,,,BKN,1000,,,,,,,MVFR,,,,,,,,,,,,SPECI,123.0
EGUW 280650Z AUTO 36006KT 9999 -RA FEW023/// BKN047/// 05/04 Q1018,EGUW,2018-10-28T06:50:00Z,52.12,0.97,5.0,4.0,360,6,,6.21,30.059055,,,TRUE,,,,,,,-RA,FEW,2300,BKN,4700,,,,,VFR,,,,,,,,,,,,SPECI,87.0
EGUB 280650Z AUTO 02011KT 9999 // BKN010/// 05/04 Q1019,EGUB,2018-10-28T06:50:00Z,51.62,-1.07,5.0,4.0,20,11,,6.21,30.088583,,,TRUE,,,,,,,,BKN,1000,,,,,,,MVFR,,,,,,,,,,,,METAR,63.0
EGDX 280650Z AUTO 03012KT 9999 SCT044/// 05/01 Q1020,EGDX,2018-10-28T06:50:00Z,51.4,-3.43,5.0,1.0,30,12,,6.21,30.11811,,,TRUE,,,,,,,,SCT,4400,,,,,,,VFR,,,,,,,,,,,,SPECI,50.0
EGQK 280650Z AUTO 22005KT 9999 FEW039/// 02/01 Q1028,EGQK,2018-10-28T06:50:00Z,57.65,-3.57,2.0,1.0,220,5,,6.21,30.35433,,,TRUE,,,,,,,,FEW,3900,,,,,,,VFR,,,,,,,,,,,,SPECI,7.0
EGOS 280650Z AUTO 33010KT 9999 NCD 02/01 Q1023,EGOS,2018-10-28T06:50:00Z,52.8,-2.67,2.0,1.0,330,10,,6.21,30.206694,,,TRUE,,,,,,,,CLR,,,,,,,,VFR,,,,,,,,,,,,SPECI,76.0
ENHE 280650Z 04005KT 350V070 9999 FEW040 05/M04 Q1027 W///S4,ENHE,2018-10-28T06:50:00Z,65.33,2.33,5.0,-4.0,40,5,,6.21,30.324802,,,,,,,,,,,FEW,4000,,,,,,,VFR,,,,,,,,,,,,METAR,1.0
EGQL 280650Z 31007KT CAVOK 04/01 Q1027 BLU,EGQL,2018-10-28T06:50:00Z,56.38,-2.87,4.0,1.0,310,7,,6.21,30.324802,,,,,,,,,,,CAVOK,,,,,,,,VFR,,,,,,,,,,,,METAR,12.0
PGRO 280650Z 07008KT 7SM SCT013 27/24 A2975,PGRO,2018-10-28T06:50:00Z,14.18,145.25,27.0,24.0,70,8,,7.0,29.749016,,,,,,,,,,,SCT,1300,,,,,,,VFR,,,,,,,,,,,,METAR,185.0
OAKB 280650Z VRB03KT 8000 NSC 22/M02 Q1027 NOSIG RMK A3034 BLU BLU,OAKB,2018-10-28T06:50:00Z,34.55,69.22,22.0,-2.0,0,3,,4.97,30.324802,,,,,,TRUE,,,,,CLR,,,,,,,,MVFR,,,,,,,,,,,,METAR,1791.0
KDAG 280650Z AUTO 27007KT 10SM CLR 18/M02 A3004 RMK AO2 SLP153 T01781017 $,KDAG,2018-10-28T06:50:00Z,34.85,-116.78,17.8,-1.7,270,7,,10.0,30.041338,1015.3,,TRUE,TRUE,TRUE,,,,,,CLR,,,,,,,,VFR,,,,,,,,,,,,METAR,587.0
EKVD 280650Z 02004KT CAVOK M01/M02 Q1020,EKVD,2018-10-28T06:50:00Z,55.42,9.32,-1.0,-2.0,20,4,,6.21,30.11811,,,,,,,,,,,CAVOK,,,,,,,,VFR,,,,,,,,,,,,METAR,45.0
EKBI 280650Z AUTO 36006KT 9999NDV NCD M02/M02 Q1020,EKBI,2018-10-28T06:50:00Z,55.72,9.15,-2.0,-2.0,360,6,,,30.11811,,,TRUE,,,,,,,,CLR,,,,,,,,,,,,,,,,,,,,METAR,66.0
EKRK 280650Z AUTO 04003KT 9999NDV NCD M01/M02 Q1019,EKRK,2018-10-28T06:50:00Z,55.57,12.12,-1.0,-2.0,40,3,,,30.088583,,,TRUE,,,,,,,,CLR,,,,,,,,,,,,,,,,,,,,METAR,44.0
EKAH 280650Z AUTO 34004KT 9999NDV FEW031/// 01/00 Q1021,EKAH,2018-10-28T06:50:00Z,56.28,10.62,1.0,0.0,340,4,,,30.147638,,,TRUE,,,,,,,,FEW,3100,,,,,,,,,,,,,,,,,,,METAR,25.0
EKRN 280650Z AUTO 02004KT 9999NDV FEW034/// 03/01 Q1018,EKRN,2018-10-28T06:50:00Z,55.07,14.75,3.0,1.0,20,4,,,30.059055,,,TRUE,,,,,,,,FEW,3400,,,,,,,,,,,,,,,,,,,METAR,16.0
EKEB 280650Z AUTO 02006KT 9999NDV NCD M01/M02 Q1021,EKEB,2018-10-28T06:50:00Z,55.52,8.55,-1.0,-2.0,20,6,,,30.147638,,,TRUE,,,,,,,,CLR,,,,,,,,,,,,,,,,,,,,METAR,29.0
EKCH 280650Z 05010KT 020V080 9999 -RASN FEW012 BKN033 02/M00 Q1020 NOSIG,EKCH,2018-10-28T06:50:00Z,55.62,12.67,2.0,0.0,50,10,,6.21,30.11811,,,,,,TRUE,,,,-RA -SN,FEW,1200,BKN,3300,,,,,VFR,,,,,,,,,,,,METAR,5.0
EKSB 280650Z AUTO 03007KT 9999NDV NCD 04/02 Q1019,EKSB,2018-10-28T06:50:00Z,54.97,9.8,4.0,2.0,30,7,,,30.088583,,,TRUE,,,,,,,,CLR,,,,,,,,,,,,,,,,,,,,METAR,23.0
ESGJ 280650Z AUTO 04009KT 9999 FEW014/// OVC057/// M00/M02 Q1021,ESGJ,2018-10-28T06:50:00Z,57.77,14.07,0.0,-2.0,40,9,,6.21,30.147638,,,TRUE,,,,,,,,FEW,1400,OVC,5700,,,,,VFR,,,,,,,,,,,,METAR,232.0
ESGG 280650Z 03007KT CAVOK M02/M03 Q1022 R03/19//95,ESGG,2018-10-28T06:50:00Z,57.67,12.3,-2.0,-3.0,30,7,,6.21,30.177166,,,,,,,,,,,CAVOK,,,,,,,,VFR,,,,,,,,,,,,METAR,169.0
ESMK 280650Z AUTO 35005KT 3900 -SN FEW007/// 00/M00 Q////,ESMK,2018-10-28T06:50:00Z,55.92,14.07,0.0,0.0,350,5,,2.42,,,,TRUE,,,,,,,-SN,FEW,700,,,,,,,IFR,,,,,,,,,,,,METAR,23.0
ESGT 280650Z AUTO 04014KT 2000 +RA FEW003/// SCT027/// OVC048/// 00/M00 Q1024 RERASN,ESGT,2018-10-28T06:50:00Z,58.32,12.33,0.0,0.0,40,14,,1.24,30.236221,,,TRUE,,,,,,,+RA,FEW,300,SCT,2700,OVC,4800,,,IFR,,,,,,,,,,,,METAR,41.0
ESTL 280650Z AUTO 03004KT 9999 FEW011/// SCT031/// OVC035/// 01/M00 Q1020,ESTL,2018-10-28T06:50:00Z,56.07,13.2,1.0,0.0,30,4,,6.21,30.11811,,,TRUE,,,,,,,,FEW,1100,SCT,3100,OVC,3500,,,VFR,,,,,,,,,,,,METAR,43.0
ESTA 280650Z AUTO 04007KT 9999 OVC053/// 01/M01 Q1020,ESTA,2018-10-28T06:50:00Z,56.28,12.83,1.0,-1.0,40,7,,6.21,30.11811,,,TRUE,,,,,,,,OVC,5300,,,,,,,VFR,,,,,,,,,,,,METAR,47.0
ESMX 280650Z AUTO 01007KT 9999 BKN008/// M00/M02 Q1020,ESMX,2018-10-28T06:50:00Z,56.92,14.72,0.0,-2.0,10,7,,6.21,30.11811,,,TRUE,,,,,,,,BKN,800,,,,,,,IFR,,,,,,,,,,,,METAR,186.0
ESMT 280650Z AUTO 05005KT 9999 FEW073/// 00/M02 Q1021,ESMT,2018-10-28T06:50:00Z,56.67,12.82,0.0,-2.0,50,5,,6.21,30.147638,,,TRUE,,,,,,,,FEW,7300,,,,,,,VFR,,,,,,,,,,,,METAR,30.0
ESMS 280650Z 03003KT 9999 FEW014 SCT025 M02/M02 Q1019,ESMS,2018-10-28T06:50:00Z,55.53,13.37,-2.0,-2.0,30,3,,6.21,30.088583,,,,,,,,,,,FEW,1400,SCT,2500,,,,,VFR,,,,,,,,,,,,METAR,106.0
ESMQ 280650Z 35006KT 2000 -SN FEW005 SCT010 BKN045 M00/M01 Q1020,ESMQ,2018-10-28T06:50:00Z,56.68,16.3,0.0,-1.0,350,6,,1.24,30.11811,,,,,,,,,,-SN,FEW,500,SCT,1000,BKN,4500,,,IFR,,,,,,,,,,,,METAR,16.0
EDDF 280650Z 03016KT 9999 FEW022 05/01 Q1010 BECMG 03015G25KT,EDDF,2018-10-28T06:50:00Z,50.05,8.6,5.0,1.0,30,16,,6.21,29.822834,,,,,,,,,,,FEW,2200,,,,,,,VFR,,,,,,,,,,,,METAR,113.0
EDDH 280650Z 34003KT 9999 FEW020 M01/M02 Q1018 NOSIG,EDDH,2018-10-28T06:50:00Z,53.63,10.0,-1.0,-2.0,340,3,,6.21,30.059055,,,,,,TRUE,,,,,FEW,2000,,,,,,,VFR,,,,,,,,,,,,METAR,16.0
EDDL 280650Z 03010KT 9999 FEW009 BKN011 03/01 Q1015 NOSIG,EDDL,2018-10-28T06:50:00Z,51.3,6.77,3.0,1.0,30,10,,6.21,29.970472,,,,,,TRUE,,,,,FEW,900,BKN,1100,,,,,MVFR,,,,,,,,,,,,METAR,44.0
EDDK 280650Z 35006KT 9999 FEW027 02/M00 Q1013 NOSIG,EDDK,2018-10-28T06:50:00Z,50.87,7.15,2.0,0.0,350,6,,6.21,29.911417,,,,,,TRUE,,,,,FEW,2700,,,,,,,VFR,,,,,,,,,,,,METAR,99.0
EDDM 280650Z 02007KT 340V080 9999 -RA OVC006 02/02 Q1005 NOSIG,EDDM,2018-10-28T06:50:00Z,48.35,11.82,2.0,2.0,20,7,,6.21,29.675198,,,,,,TRUE,,,,-RA,OVC,600,,,,,,,IFR,,,,,,,,,,,,METAR,447.0
EDDN 280650Z 03004KT 360V060 9999 -RA FEW008 BKN013 03/02 Q1009 NOSIG,EDDN,2018-10-28T06:50:00Z,49.5,11.08,3.0,2.0,30,4,,6.21,29.793306,,,,,,TRUE,,,,-RA,FEW,800,BKN,1300,,,,,MVFR,,,,,,,,,,,,METAR,312.0
EDDS 280650Z 06014KT 9999 -RA FEW007 BKN011 04/03 Q1006 NOSIG,EDDS,2018-10-28T06:50:00Z,48.67,9.22,4.0,3.0,60,14,,6.21,29.704725,,,,,,TRUE,,,,-RA,FEW,700,BKN,1100,,,,,MVFR,,,,,,,,,,,,METAR,419.0
EDDP 280650Z 36007KT 3000 -DZ BKN006 03/02 Q1013 BECMG 6000,EDDP,2018-10-28T06:50:00Z,51.43,12.23,3.0,2.0,360,7,,1.86,29.911417,,,,,,,,,,-DZ,BKN,600,,,,,,,IFR,,,,,,,,,,,,METAR,149.0
EDDG 280650Z 04004KT 010V100 CAVOK M00/M01 Q1017 NOSIG,EDDG,2018-10-28T06:50:00Z,52.13,7.7,0.0,-1.0,40,4,,6.21,30.029528,,,,,,TRUE,,,,,CAVOK,,,,,,,,VFR,,,,,,,,,,,,METAR,52.0
EDDE 280650Z 02008KT 9999 OVC006 02/01 Q1013 NOSIG,EDDE,2018-10-28T06:50:00Z,50.98,10.97,2.0,1.0,20,8,,6.21,29.911417,,,,,,TRUE,,,,,OVC,600,,,,,,,IFR,,,,,,,,,,,,METAR,323.0
EDDC 280650Z 02005KT 9999 FEW009 BKN011 03/01 Q1012 TEMPO BKN009,EDDC,2018-10-28T06:50:00Z,51.13,13.75,3.0,1.0,20,5,,6.21,29.88189,,,,,,,,,,,FEW,900,BKN,1100,,,,,MVFR,,,,,,,,,,,,METAR,226.0
EDDB 280650Z 03009KT 9999 BKN008 05/04 Q1014 TEMPO BKN010,EDDB,2018-10-28T06:50:00Z,52.38,13.53,5.0,4.0,30,9,,6.21,29.940945,,,,,,,,,,,BKN,800,,,,,,,IFR,,,,,,,,,,,,METAR,48.0
EDDV 280650Z 01006KT CAVOK 00/M01 Q1017 NOSIG,EDDV,2018-10-28T06:50:00Z,52.47,9.68,0.0,-1.0,10,6,,6.21,30.029528,,,,,,TRUE,,,,,CAVOK,,,,,,,,VFR,,,,,,,,,,,,METAR,54.0
EDDT 280650Z 02006KT 340V050 9999 BKN009 05/04 Q1015 TEMPO SCT009,EDDT,2018-10-28T06:50:00Z,52.57,13.32,5.0,4.0,20,6,,6.21,29.970472,,,,,,,,,,,BKN,900,,,,,,,IFR,,,,,,,,,,,,METAR,37.0
LLHA 280650Z 11010KT CAVOK 21/02 Q1024,LLHA,2018-10-28T06:50:00Z,32.78,35.02,21.0,2.0,110,10,,6.21,30.236221,,,,,,,,,,,CAVOK,,,,,,,,VFR,,,,,,,,,,,,METAR,8.0
LLET 280650Z 01010KT CAVOK 26/04 Q1020,LLET,2018-10-28T06:50:00Z,29.55,34.95,26.0,4.0,10,10,,6.21,30.11811,,,,,,,,,,,CAVOK,,,,,,,,VFR,,,,,,,,,,,,METAR,13.0
LSMS 280650Z VRB02KT 8000 SCT010 OVC040 05/04 Q0999 RMK BLU,LSMS,2018-10-28T06:50:00Z,46.22,7.32,5.0,4.0,0,2,,4.97,29.498032,,,,,,,,,,,SCT,1000,OVC,4000,,,,,MVFR,,,,,,,,,,,,METAR,481.0
LSMP 280650Z AUTO 07014KT 040V100 9999NDV -SHRA OVC012 03/01 Q1001 RMK,LSMP,2018-10-28T06:50:00Z,46.82,6.92,3.0,1.0,70,14,,,29.557087,,,TRUE,,,,,,,-SHRA,OVC,1200,,,,,,,,,,,,,,,,,,,METAR,491.0
EDDW 280650Z 03007KT CAVOK 00/M01 Q1018 NOSIG,EDDW,2018-10-28T06:50:00Z,53.03,8.8,0.0,-1.0,30,7,,6.21,30.059055,,,,,,TRUE,,,,,CAVOK,,,,,,,,VFR,,,,,,,,,,,,METAR,5.0
EDDR 280650Z 05013KT 9999 FEW015 BKN018 05/02 Q1006 BECMG 04015G25KT,EDDR,2018-10-28T06:50:00Z,49.22,7.1,5.0,2.0,50,13,,6.21,29.704725,,,,,,,,,,,FEW,1500,BKN,1800,,,,,MVFR,,,,,,,,,,,,METAR,320.0
EFKT 280650Z AUTO VRB02KT CAVOK M10/M12 Q1023,EFKT,2018-10-28T06:50:00Z,67.7,24.85,-10.0,-12.0,0,2,,6.21,30.206694,,,TRUE,,,,,,,,CAVOK,,,,,,,,VFR,,,,,,,,,,,,METAR,643.0
EFKS 280650Z AUTO 33005KT 250V050 9999 3700 OVC006 M07/M08 Q1019,EFKS,2018-10-28T06:50:00Z,66.0,29.23,-7.0,-8.0,330,5,,6.21,30.088583,,,TRUE,,,,,,,,OVC,600,,,,,,,IFR,,,,,,,,,,,,METAR,263.0
EFKI 280650Z AUTO 01006KT 340V040 9999 BKN008 M04/M07 Q1021,EFKI,2018-10-28T06:50:00Z,64.27,27.67,-4.0,-7.0,10,6,,6.21,30.147638,,,TRUE,,,,,,,,BKN,800,,,,,,,IFR,,,,,,,,,,,,METAR,136.0
EFKE 280650Z AUTO 34005KT 310V010 CAVOK M07/M09 Q1025,EFKE,2018-10-28T06:50:00Z,65.77,24.57,-7.0,-9.0,340,5,,6.21,30.265747,,,TRUE,,,,,,,,CAVOK,,,,,,,,VFR,,,,,,,,,,,,METAR,15.0
EFET 280650Z AUTO 22002KT CAVOK M15/M17 Q1023,EFET,2018-10-28T06:50:00Z,68.37,23.43,-15.0,-17.0,220,2,,6.21,30.206694,,,TRUE,,,,,,,,CAVOK,,,,,,,,VFR,,,,,,,,,,,,METAR,306.0
EFUT 280650Z AUTO 01012KT 320V050 9999 BKN028 M00/M05 Q1016,EFUT,2018-10-28T06:50:00Z,60.88,26.92,0.0,-5.0,10,12,,6.21,30.0,,,TRUE,,,,,,,,BKN,2800,,,,,,,MVFR,,,,,,,,,,,,METAR,100.0
EFSI 280650Z AUTO 36005KT CAVOK M02/M05 Q1022,EFSI,2018-10-28T06:50:00Z,62.7,22.83,-2.0,-5.0,360,5,,6.21,30.177166,,,TRUE,,,,,,,,CAVOK,,,,,,,,VFR,,,,,,,,,,,,METAR,91.0
EFSA 280650Z AUTO 01008KT 340V070 9999 BKN017 M01/M05 Q1017,EFSA,2018-10-28T06:50:00Z,61.95,28.93,-1.0,-5.0,10,8,,6.21,30.029528,,,TRUE,,,,,,,,BKN,1700,,,,,,,MVFR,,,,,,,,,,,,METAR,95.0
EFMI 280650Z AUTO VRB03KT 9999 BKN018 M02/M04 Q1019,EFMI,2018-10-28T06:50:00Z,61.68,27.2,-2.0,-4.0,0,3,,6.21,30.088583,,,TRUE,,,,,,,,BKN,1800,,,,,,,MVFR,,,,,,,,,,,,METAR,138.0
EFLP 280650Z AUTO 02010KT 9999 SCT017 M01/M04 Q1016,EFLP,2018-10-28T06:50:00Z,61.07,28.13,-1.0,-4.0,20,10,,6.21,30.0,,,TRUE,,,,,,,,SCT,1700,,,,,,,VFR,,,,,,,,,,,,METAR,106.0
EFJO 280650Z AUTO 36009KT 320V040 9999 BKN019 M02/M05 Q1018,EFJO,2018-10-28T06:50:00Z,62.67,29.62,-2.0,-5.0,360,9,,6.21,30.059055,,,TRUE,,,,,,,,BKN,1900,,,,,,,MVFR,,,,,,,,,,,,METAR,117.0
EFPO 280650Z AUTO 36004KT 320V060 CAVOK M03/M06 Q1022,EFPO,2018-10-28T06:50:00Z,61.47,21.8,-3.0,-6.0,360,4,,6.21,30.177166,,,TRUE,,,,,,,,CAVOK,,,,,,,,VFR,,,,,,,,,,,,METAR,17.0
EFKK 280650Z AUTO 01002KT CAVOK M06/M07 Q1024,EFKK,2018-10-28T06:50:00Z,63.72,23.13,-6.0,-7.0,10,2,,6.21,30.236221,,,TRUE,,,,,,,,CAVOK,,,,,,,,VFR,,,,,,,,,,,,METAR,25.0
EFHA 280650Z AUTO 33005KT 9999 FEW006 FEW030 M04/M04 Q1020,EFHA,2018-10-28T06:50:00Z,61.85,24.8,-4.0,-4.0,330,5,,6.21,30.11811,,,TRUE,,,,,,,,FEW,600,FEW,3000,,,,,VFR,,,,,,,,,,,,METAR,145.0
EFKU 280650Z AUTO 34010KT 9999 OVC019 M02/M05 Q1020,EFKU,2018-10-28T06:50:00Z,63.02,27.8,-2.0,-5.0,340,10,,6.21,30.11811,,,TRUE,,,,,,,,OVC,1900,,,,,,,MVFR,,,,,,,,,,,,METAR,102.0
EFJY 280650Z AUTO 35004KT 9999 BKN027 M02/M05 Q1020,EFJY,2018-10-28T06:50:00Z,62.4,25.68,-2.0,-5.0,350,4,,6.21,30.11811,,,TRUE,,,,,,,,BKN,2700,,,,,,,MVFR,,,,,,,,,,,,METAR,145.0
LLSD 280650Z 07011KT 040V100 CAVOK 22/00 Q1022,LLSD,2018-10-28T06:50:00Z,32.12,34.78,22.0,0.0,70,11,,6.21,30.177166,,,,,,,,,,,CAVOK,,,,,,,,VFR,,,,,,,,,,,,METAR,14.0
LLOV 280650Z 06012KT CAVOK 21/03 Q1022,LLOV,2018-10-28T06:50:00Z,29.93,34.93,21.0,3.0,60,12,,6.21,30.177166,,,,,,,,,,,CAVOK,,,,,,,,VFR,,,,,,,,,,,,METAR,432.0
LLIB 280650Z 07012KT CAVOK 20/02 Q1026,LLIB,2018-10-28T06:50:00Z,32.98,35.57,20.0,2.0,70,12,,6.21,30.295275,,,,,,,,,,,CAVOK,,,,,,,,VFR,,,,,,,,,,,,METAR,282.0
BGBW 280650Z AUTO 19006KT 140V240 9999NDV FEW029/// SCT033/// BKN040/// BKN065/// 00/M04 Q1008,BGBW,2018-10-28T06:50:00Z,61.17,-45.42,0.0,-4.0,190,6,,,29.763779,,,TRUE,,,,,,,,FEW,2900,SCT,3300,BKN,4000,BKN,6500,,,,,,,,,,,,,METAR,26.0
BGSF 280650Z AUTO 07009KT 9999NDV SCT095/// M02/M07 Q1000,BGSF,2018-10-28T06:50:00Z,67.0,-50.72,-2.0,-7.0,70,9,,,29.52756,,,TRUE,,,,,,,,SCT,9500,,,,,,,,,,,,,,,,,,,METAR,53.0
HLLM 280650Z 21007KT 6000 NSC 22/15 Q1012,HLLM,2018-10-28T06:50:00Z,32.9,13.28,22.0,15.0,210,7,,3.73,29.88189,,,,,,,,,,,CLR,,,,,,,,MVFR,,,,,,,,,,,,METAR,11.0
BGGH 280650Z AUTO 12013KT 100V160 9999NDV -DZ BKN044/// 02/M07 Q0999,BGGH,2018-10-28T06:50:00Z,64.2,-51.68,2.0,-7.0,120,13,,,29.498032,,,TRUE,,,,,,,-DZ,BKN,4400,,,,,,,,,,,,,,,,,,,METAR,70.0
BGJN 280650Z AUTO 14004KT 1500NDV -SN VV009/// M02/M02 Q0999 RESN,BGJN,2018-10-28T06:50:00Z,69.25,-51.07,-2.0,-2.0,140,4,,,29.498032,,,TRUE,,,,,,,-SN,,,,,,,,,,,,,,,,,,,,,METAR,25.0
BGKK 280650Z AUTO VRB02KT 9999NDV SCT032/// BKN054/// M01/M04 Q1001,BGKK,2018-10-28T06:50:00Z,65.57,-37.13,-1.0,-4.0,0,2,,,29.557087,,,TRUE,,,,,,,,SCT,3200,BKN,5400,,,,,,,,,,,,,,,,,METAR,34.0
EGKK 280650Z 01011KT 9999 SCT009 SCT047 06/04 Q1016,EGKK,2018-10-28T06:50:00Z,51.13,-0.17,6.0,4.0,10,11,,6.21,30.0,,,,,,,,,,,SCT,900,SCT,4700,,,,,VFR,,,,,,,,,,,,METAR,62.0
EGBB 280650Z 01008KT 9999 SCT041 04/01 Q1021,EGBB,2018-10-28T06:50:00Z,52.47,-1.75,4.0,1.0,10,8,,6.21,30.147638,,,,,,,,,,,SCT,4100,,,,,,,VFR,,,,,,,,,,,,METAR,99.0
EGCN 280650Z 34007KT 9999 FEW043 02/01 Q1024,EGCN,2018-10-28T06:50:00Z,53.48,-1.0,2.0,1.0,340,7,,6.21,30.236221,,,,,,,,,,,FEW,4300,,,,,,,VFR,,,,,,,,,,,,METAR,17.0
EGCK 280650Z AUTO 05007KT 9999 FEW033/// 06/02 Q1024,EGCK,2018-10-28T06:50:00Z,53.1,4.33,6.0,2.0,50,7,,6.21,30.236221,,,TRUE,,,,,,,,FEW,3300,,,,,,,VFR,,,,,,,,,,,,METAR,0.0
EGMC 280650Z 01012KT 9000 -RA FEW011 BKN029 06/04 Q1017,EGMC,2018-10-28T06:50:00Z,51.57,0.7,6.0,4.0,10,12,,5.59,30.029528,,,,,,,,,,-RA,FEW,1100,BKN,2900,,,,,MVFR,,,,,,,,,,,,METAR,15.0
EGHH 280650Z 03011KT 9999 BKN015 05/03 Q1017,EGHH,2018-10-28T06:50:00Z,50.78,-1.83,5.0,3.0,30,11,,6.21,30.029528,,,,,,,,,,,BKN,1500,,,,,,,MVFR,,,,,,,,,,,,METAR,11.0
EGPD 280650Z 36006KT 330V030 9000 -SHRA BKN026CB 03/02 Q1027 TEMPO SHRA,EGPD,2018-10-28T06:50:00Z,57.2,-2.22,3.0,2.0,360,6,,5.59,30.324802,,,,,,,,,,-SHRA,BKN,2600,,,,,,,MVFR,,,,,,,,,,,,METAR,65.0
EGNX 280650Z 36006KT 330V030 9999 FEW046 02/01 Q1021,EGNX,2018-10-28T06:50:00Z,52.82,-1.32,2.0,1.0,360,6,,6.21,30.147638,,,,,,,,,,,FEW,4600,,,,,,,VFR,,,,,,,,,,,,METAR,94.0
EGNM 280650Z 35009KT 9999 FEW015CB 03/01 Q1023,EGNM,2018-10-28T06:50:00Z,53.87,-1.63,3.0,1.0,350,9,,6.21,30.206694,,,,,,,,,,,FEW,1500,,,,,,,VFR,,,,,,,,,,,,METAR,208.0
EGLC 280650Z AUTO VRB07KT 9999 FEW013/// //////TCU 07/04 Q1017,EGLC,2018-10-28T06:50:00Z,51.5,0.05,7.0,4.0,0,7,,6.21,30.029528,,,TRUE,,,,,,,,FEW,1300,,,,,,,VFR,,,,,,,,,,,,METAR,5.0
EGGW 280650Z AUTO 02012KT 360V070 9999 SCT008 SCT026 04/04 Q1018,EGGW,2018-10-28T06:50:00Z,51.87,-0.37,4.0,4.0,20,12,,6.21,30.059055,,,TRUE,,,,,,,,SCT,800,SCT,2600,,,,,VFR,,,,,,,,,,,,METAR,160.0
EGFF 280650Z AUTO 03015KT 9999 BKN041 06/02 Q1020,EGFF,2018-10-28T06:50:00Z,51.38,-3.35,6.0,2.0,30,15,,6.21,30.11811,,,TRUE,,,,,,,,BKN,4100,,,,,,,VFR,,,,,,,,,,,,METAR,67.0
EGAC 280650Z AUTO 02004KT 9999 NCD 02/01 Q1028,EGAC,2018-10-28T06:50:00Z,54.62,-5.87,2.0,1.0,20,4,,6.21,30.35433,,,TRUE,,,,,,,,CLR,,,,,,,,VFR,,,,,,,,,,,,METAR,5.0
EGAA 280650Z VRB02KT CAVOK M02/M04 Q1028,EGAA,2018-10-28T06:50:00Z,54.63,-6.22,-2.0,-4.0,0,2,,6.21,30.35433,,,,,,,,,,,CAVOK,,,,,,,,VFR,,,,,,,,,,,,METAR,81.0
EGTE 280650Z 02016KT 9999 FEW012 05/02 Q1018,EGTE,2018-10-28T06:50:00Z,50.72,-3.42,5.0,2.0,20,16,,6.21,30.059055,,,,,,,,,,,FEW,1200,,,,,,,VFR,,,,,,,,,,,,METAR,30.0
EGJJ 280650Z 08021KT 020V110 9999 -SHRA SCT016 BKN024 07/04 Q1013 RESHRA,EGJJ,2018-10-28T06:50:00Z,49.22,-2.2,7.0,4.0,80,21,,6.21,29.911417,,,,,,,,,,-SHRA,SCT,1600,BKN,2400,,,,,MVFR,,,,,,,,,,,,METAR,84.0
EGJB 280650Z 02020G31KT 9999 VCSH BKN015 08/05 Q1014,EGJB,2018-10-28T06:50:00Z,49.42,-2.6,8.0,5.0,20,20,31,6.21,29.940945,,,,,,,,,,VCSH,BKN,1500,,,,,,,MVFR,,,,,,,,,,,,METAR,102.0
EGPO 280650Z AUTO 31002KT 9999 FEW034/// 01/M01 Q1029,EGPO,2018-10-28T06:50:00Z,58.22,-6.32,1.0,-1.0,310,2,,6.21,30.383858,,,TRUE,,,,,,,,FEW,3400,,,,,,,VFR,,,,,,,,,,,,METAR,13.0
EGPM 280650Z AUTO 10004KT 9999 SCT033/// 02/00 Q1028,EGPM,2018-10-28T06:50:00Z,60.42,-1.3,2.0,0.0,100,4,,6.21,30.35433,,,TRUE,,,,,,,,SCT,3300,,,,,,,VFR,,,,,,,,,,,,METAR,22.0
EGPL 280650Z AUTO 13004KT 9999 FEW027/// 01/00 Q1029,EGPL,2018-10-28T06:50:00Z,57.47,-7.37,1.0,0.0,130,4,,6.21,30.383858,,,TRUE,,,,,,,,FEW,2700,,,,,,,VFR,,,,,,,,,,,,METAR,6.0
EGPC 280650Z AUTO 03014KT 9999 -RA SCT021/// 05/02 Q1028,EGPC,2018-10-28T06:50:00Z,58.45,-3.07,5.0,2.0,30,14,,6.21,30.35433,,,TRUE,,,,,,,-RA,SCT,2100,,,,,,,VFR,,,,,,,,,,,,METAR,39.0
EGPA 280650Z AUTO 35010KT 9999 FEW028/// SCT048/// 05/03 Q1027,EGPA,2018-10-28T06:50:00Z,58.95,-2.88,5.0,3.0,350,10,,6.21,30.324802,,,TRUE,,,,,,,,FEW,2800,SCT,4800,,,,,VFR,,,,,,,,,,,,METAR,21.0
EGPH 280650Z VRB03KT 9999 FEW045 02/M01 Q1027,EGPH,2018-10-28T06:50:00Z,55.95,-3.35,2.0,-1.0,0,3,,6.21,30.324802,,,,,,,,,,,FEW,4500,,,,,,,VFR,,,,,,,,,,,,METAR,41.0
EGPF 280650Z AUTO VRB02KT 9999 NCD M00/M02 Q1028,EGPF,2018-10-28T06:50:00Z,55.87,-4.42,0.0,-2.0,0,2,,6.21,30.35433,,,TRUE,,,,,,,,CLR,,,,,,,,VFR,,,,,,,,,,,,METAR,8.0
EGLL 280650Z AUTO 03008KT 360V060 9999 FEW044/// //////TCU 06/04 Q1018,EGLL,2018-10-28T06:50:00Z,51.48,-0.45,6.0,4.0,30,8,,6.21,30.059055,,,TRUE,,,,,,,,FEW,4400,,,,,,,VFR,,,,,,,,,,,,METAR,24.0
EGPE 280650Z 22007KT 9999 FEW025 M00/M01 Q1029,EGPE,2018-10-28T06:50:00Z,57.52,-4.03,0.0,-1.0,220,7,,6.21,30.383858,,,,,,,,,,,FEW,2500,,,,,,,VFR,,,,,,,,,,,,METAR,9.0
EGNJ 280650Z 34006KT 9999 SCT035 05/02 Q1022,EGNJ,2018-10-28T06:50:00Z,53.57,-0.35,5.0,2.0,340,6,,6.21,30.177166,,,,,,,,,,,SCT,3500,,,,,,,VFR,,,,,,,,,,,,METAR,31.0
EGNH 280650Z 01012KT 9999 FEW016 05/01 Q1025,EGNH,2018-10-28T06:50:00Z,53.77,-3.02,5.0,1.0,10,12,,6.21,30.265747,,,,,,,,,,,FEW,1600,,,,,,,VFR,,,,,,,,,,,,METAR,10.0
EGCC 280650Z AUTO VRB01KT 9999 NCD 02/00 Q1023 NOSIG,EGCC,2018-10-28T06:50:00Z,53.35,-2.27,2.0,0.0,0,1,,6.21,30.206694,,,TRUE,,,TRUE,,,,,CLR,,,,,,,,VFR,,,,,,,,,,,,METAR,78.0
EGSH 280650Z VRB01KT 9999 VCSH SCT035 SCT048CB 05/04 Q1020 TEMPO SHRA,EGSH,2018-10-28T06:50:00Z,52.68,1.28,5.0,4.0,0,1,,6.21,30.11811,,,,,,,,,,VCSH,SCT,3500,SCT,4800,,,,,VFR,,,,,,,,,,,,METAR,36.0
EGSS 280650Z AUTO 03010KT 9999 -RA FEW035/// SCT043/// //////TCU 05/03 Q1018,EGSS,2018-10-28T06:50:00Z,51.88,0.22,5.0,3.0,30,10,,6.21,30.059055,,,TRUE,,,,,,,-RA,FEW,3500,SCT,4300,,,,,VFR,,,,,,,,,,,,METAR,106.0
EGPK 280650Z 00000KT 9999 FEW032 M03/M04 Q1028,EGPK,2018-10-28T06:50:00Z,55.5,-4.57,-3.0,-4.0,0,0,,6.21,30.35433,,,,,,,,,,,FEW,3200,,,,,,,VFR,,,,,,,,,,,,METAR,20.0
EGGD 280650Z AUTO 03018KT 9999 BKN011 BKN017 04/03 Q1019,EGGD,2018-10-28T06:50:00Z,51.37,-2.72,4.0,3.0,30,18,,6.21,30.088583,,,TRUE,,,,,,,,BKN,1100,BKN,1700,,,,,MVFR,,,,,,,,,,,,METAR,189.0
EGNS 280650Z 36010KT 9999 FEW030 05/01 Q1026 NOSIG,EGNS,2018-10-28T06:50:00Z,54.08,-4.63,5.0,1.0,360,10,,6.21,30.295275,,,,,,TRUE,,,,,FEW,3000,,,,,,,VFR,,,,,,,,,,,,METAR,17.0
EGGP 280650Z 35010KT CAVOK 04/00 Q1024,EGGP,2018-10-28T06:50:00Z,53.32,-2.85,4.0,0.0,350,10,,6.21,30.236221,,,,,,,,,,,CAVOK,,,,,,,,VFR,,,,,,,,,,,,METAR,26.0
EGNT 280650Z 00000KT 9999 -SHRA SCT020 BKN035 04/02 Q1025,EGNT,2018-10-28T06:50:00Z,55.02,-1.7,4.0,2.0,0,0,,6.21,30.265747,,,,,,,,,,-SHRA,SCT,2000,BKN,3500,,,,,VFR,,,,,,,,,,,,METAR,81.0
EGPB 280650Z AUTO 36008KT 9999 SCT032/// BKN047/// 04/01 Q1027,EGPB,2018-10-28T06:50:00Z,59.87,-1.3,4.0,1.0,360,8,,6.21,30.324802,,,TRUE,,,,,,,,SCT,3200,BKN,4700,,,,,VFR,,,,,,,,,,,,METAR,5.0
EGNV 280650Z 33011KT 9999 FEW028 SCT038 03/01 Q1024,EGNV,2018-10-28T06:50:00Z,54.52,-1.42,3.0,1.0,330,11,,6.21,30.236221,,,,,,,,,,,FEW,2800,SCT,3800,,,,,VFR,,,,,,,,,,,,METAR,37.0
ESNN 280650Z AUTO 31005KT 260V340 9999 NCD M03/M06 Q1026,ESNN,2018-10-28T06:50:00Z,62.52,17.43,-3.0,-6.0,310,5,,6.21,30.295275,,,TRUE,,,,,,,,CLR,,,,,,,,VFR,,,,,,,,,,,,METAR,10.0
ESNK 280650Z AUTO 31005KT 9999 NCD M04/M07 Q1027,ESNK,2018-10-28T06:50:00Z,63.03,17.77,-4.0,-7.0,310,5,,6.21,30.324802,,,TRUE,,,,,,,,CLR,,,,,,,,VFR,,,,,,,,,,,,METAR,19.0
ESNG 280650Z AUTO 28005KT 9999 NCD M12/M14 Q1024,ESNG,2018-10-28T06:50:00Z,67.13,20.82,-12.0,-14.0,280,5,,6.21,30.236221,,,TRUE,,,,,,,,CLR,,,,,,,,VFR,,,,,,,,,,,,METAR,310.0
ESNQ 280650Z AUTO 19005KT 9999 NCD M12/M13 Q1023,ESNQ,2018-10-28T06:50:00Z,67.82,20.32,-12.0,-13.0,190,5,,6.21,30.206694,,,TRUE,,,,,,,,CLR,,,,,,,,VFR,,,,,,,,,,,,METAR,452.0
ESNO 280650Z AUTO 36005KT 320V030 9999 NCD M04/M07 Q1025,ESNO,2018-10-28T06:50:00Z,63.38,18.97,-4.0,-7.0,360,5,,6.21,30.265747,,,TRUE,,,,,,,,CLR,,,,,,,,VFR,,,,,,,,,,,,METAR,103.0
PTRO 280650Z 24015G21KT 15SM SCT016TCU BKN120 BKN300 30/24 A2969 RMK TCU ALQDS,PTRO,2018-10-28T06:50:00Z,7.37,134.55,30.0,24.0,240,15,21,15.0,29.68996,,,,,,,,,,,SCT,1600,BKN,12000,BKN,30000,,,VFR,,,,,,,,,,,,METAR,54.0
ESNV 280650Z AUTO 09002KT 9999 NCD M09/M11 Q1026,ESNV,2018-10-28T06:50:00Z,64.58,16.83,-9.0,-11.0,90,2,,6.21,30.295275,,,TRUE,,,,,,,,CLR,,,,,,,,VFR,,,,,,,,,,,,METAR,348.0
ESST 280650Z AUTO 32005KT 9999 NCD M05/M07 Q1026,ESST,2018-10-28T06:50:00Z,60.15,12.98,-5.0,-7.0,320,5,,6.21,30.295275,,,TRUE,,,,,,,,CLR,,,,,,,,VFR,,,,,,,,,,,,METAR,120.0
ESUP 280650Z AUTO 22003KT 9999 NCD M12/M14 Q1024,ESUP,2018-10-28T06:50:00Z,67.25,23.07,-12.0,-14.0,220,3,,6.21,30.236221,,,TRUE,,,,,,,,CLR,,,,,,,,VFR,,,,,,,,,,,,METAR,165.0
ESND 280650Z AUTO 30002KT 9999 OVC037/// M06/M07 Q1026,ESND,2018-10-28T06:50:00Z,62.05,14.42,-6.0,-7.0,300,2,,6.21,30.295275,,,TRUE,,,,,,,,OVC,3700,,,,,,,VFR,,,,,,,,,,,,METAR,359.0
ESKN 280650Z 35009KT 320V020 9999 BKN012 00/M02 Q1022,ESKN,2018-10-28T06:50:00Z,58.78,16.9,0.0,-2.0,350,9,,6.21,30.177166,,,,,,,,,,,BKN,1200,,,,,,,MVFR,,,,,,,,,,,,METAR,43.0
ESOE 280650Z AUTO 02010KT 9999 NCD M00/M03 Q1024,ESOE,2018-10-28T06:50:00Z,59.22,15.05,0.0,-3.0,20,10,,6.21,30.236221,,,TRUE,,,,,,,,CLR,,,,,,,,VFR,,,,,,,,,,,,METAR,57.0
ESOK 280650Z AUTO 36006KT 9999 FEW096/// M02/M06 Q1025,ESOK,2018-10-28T06:50:00Z,59.45,13.33,-2.0,-6.0,360,6,,6.21,30.265747,,,TRUE,,,,,,,,FEW,9600,,,,,,,VFR,,,,,,,,,,,,METAR,107.0
ENSB 280650Z 12009KT 9999 FEW035 M08/M12 Q1015 RMK WIND 1400FT 00000KT,ENSB,2018-10-28T06:50:00Z,78.25,15.47,-8.0,-12.0,120,9,,6.21,29.970472,,,,,,,,,,,FEW,3500,,,,,,,VFR,,,,,,,,,,,,METAR,29.0
ESSA 280650Z 32010KT 9999 FEW006 BKN038 M00/M01 Q1022 R01L/490166 R08/19//95 R01R/19//75 NOSIG,ESSA,2018-10-28T06:50:00Z,59.63,17.93,0.0,-1.0,320,10,,6.21,30.177166,,,,,,TRUE,,,,,FEW,600,BKN,3800,,,,,VFR,,,,,,,,,,,,METAR,61.0
ESSB 280650Z AUTO 32006KT 9999 OVC053/// 00/M01 Q1022,ESSB,2018-10-28T06:50:00Z,59.35,17.93,0.0,-1.0,320,6,,6.21,30.177166,,,TRUE,,,,,,,,OVC,5300,,,,,,,VFR,,,,,,,,,,,,METAR,11.0
ESSP 280650Z 36009KT 9999 SCT017 00/M02 Q1022,ESSP,2018-10-28T06:50:00Z,58.57,16.25,0.0,-2.0,360,9,,6.21,30.177166,,,,,,,,,,,SCT,1700,,,,,,,VFR,,,,,,,,,,,,METAR,8.0
ESSD 280650Z AUTO 32007KT 9999 FEW040/// M02/M05 Q1025,ESSD,2018-10-28T06:50:00Z,60.42,15.5,-2.0,-5.0,320,7,,6.21,30.265747,,,TRUE,,,,,,,,FEW,4000,,,,,,,VFR,,,,,,,,,,,,METAR,161.0
ESSV 280650Z AUTO 03011KT 9999 FEW055/// 03/M01 Q1019,ESSV,2018-10-28T06:50:00Z,57.67,18.35,3.0,-1.0,30,11,,6.21,30.088583,,,TRUE,,,,,,,,FEW,5500,,,,,,,VFR,,,,,,,,,,,,METAR,47.0
ESCF 280650Z AUTO 01009KT 9999 BKN019/// OVC056/// 00/M03 Q1022,ESCF,2018-10-28T06:50:00Z,58.38,15.52,0.0,-3.0,10,9,,6.21,30.177166,,,TRUE,,,,,,,,BKN,1900,OVC,5600,,,,,MVFR,,,,,,,,,,,,METAR,117.0
ESDF 280650Z AUTO 03010KT 9999 NCD 00/M01 Q1019,ESDF,2018-10-28T06:50:00Z,56.27,15.27,0.0,-1.0,30,10,,6.21,30.088583,,,TRUE,,,,,,,,CLR,,,,,,,,VFR,,,,,,,,,,,,METAR,74.0
ESIB 280650Z AUTO 05011KT 9999 -SN SCT020/// OVC062/// 00/00 Q1023,ESIB,2018-10-28T06:50:00Z,58.42,12.68,0.0,0.0,50,11,,6.21,30.206694,,,TRUE,,,,,,,-SN,SCT,2000,OVC,6200,,,,,VFR,,,,,,,,,,,,METAR,74.0
ESPA 280650Z 33004KT CAVOK M06/M08 Q1026,ESPA,2018-10-28T06:50:00Z,65.53,22.12,-6.0,-8.0,330,4,,6.21,30.295275,,,,,,,,,,,CAVOK,,,,,,,,VFR,,,,,,,,,,,,METAR,34.0
ESPE 280650Z AUTO 29001KT 9999 NCD M13/M14 Q1026,ESPE,2018-10-28T06:50:00Z,65.88,20.15,-13.0,-14.0,290,1,,6.21,30.295275,,,TRUE,,,,,,,,CLR,,,,,,,,VFR,,,,,,,,,,,,METAR,182.0
ESSL 280650Z AUTO 01007KT 350V050 9999 SCT019/// OVC049/// 00/M02 Q1022,ESSL,2018-10-28T06:50:00Z,58.38,15.67,0.0,-2.0,10,7,,6.21,30.177166,,,TRUE,,,,,,,,SCT,1900,OVC,4900,,,,,VFR,,,,,,,,,,,,METAR,52.0
ESIA 280650Z AUTO 03011G21KT 9999 SCT024/// BKN058/// 01/M04 Q1023,ESIA,2018-10-28T06:50:00Z,58.52,14.5,1.0,-4.0,30,11,21,6.21,30.206694,,,TRUE,,,,,,,,SCT,2400,BKN,5800,,,,,VFR,,,,,,,,,,,,METAR,94.0
ESCM 280650Z AUTO 34011KT 9999 -SG BKN040/// OVC049/// M01/M01 Q1023 RESN,ESCM,2018-10-28T06:50:00Z,59.87,17.6,-1.0,-1.0,340,11,,6.21,30.206694,,,TRUE,,,,,,,-SG,BKN,4000,OVC,4900,,,,,VFR,,,,,,,,,,,,METAR,41.0
EGTK 280650Z 02014KT 9999 SCT018 BKN024 05/03 Q1019,EGTK,2018-10-28T06:50:00Z,51.83,-1.32,5.0,3.0,20,14,,6.21,30.088583,,,,,,,,,,,SCT,1800,BKN,2400,,,,,MVFR,,,,,,,,,,,,METAR,82.0
ESKM 280650Z AUTO 36006KT 9999 BKN030/// M01/M07 Q1025,ESKM,2018-10-28T06:50:00Z,60.97,14.52,-1.0,-7.0,360,6,,6.21,30.265747,,,TRUE,,,,,,,,BKN,3000,,,,,,,MVFR,,,,,,,,,,,,METAR,193.0
ESGR 280650Z AUTO 03011KT 9999 BKN057/// 00/M05 Q1023,ESGR,2018-10-28T06:50:00Z,58.45,13.97,0.0,-5.0,30,11,,6.21,30.206694,,,TRUE,,,,,,,,BKN,5700,,,,,,,VFR,,,,,,,,,,,,METAR,105.0
ESNZ 280650Z 34005KT 9999 OVC041 M02/M07 Q1026,ESNZ,2018-10-28T06:50:00Z,63.17,14.5,-2.0,-7.0,340,5,,6.21,30.295275,,,,,,,,,,,OVC,4100,,,,,,,VFR,,,,,,,,,,,,METAR,370.0
ESNU 280650Z 32008KT CAVOK M04/M07 Q1026,ESNU,2018-10-28T06:50:00Z,63.78,20.27,-4.0,-7.0,320,8,,6.21,30.295275,,,,,,,,,,,CAVOK,,,,,,,,VFR,,,,,,,,,,,,METAR,14.0
ESNS 280650Z 27004KT 9999 SCT011 M08/M08 Q1026,ESNS,2018-10-28T06:50:00Z,64.62,21.07,-8.0,-8.0,270,4,,6.21,30.295275,,,,,,,,,,,SCT,1100,,,,,,,VFR,,,,,,,,,,,,METAR,49.0
PTTP 280650Z 21003KT 15SM SCT018 BKN300 29/25 A2979 RMK SLP088 T02940245,PTTP,2018-10-28T06:50:00Z,6.97,158.22,29.4,24.5,210,3,,15.0,29.790354,1008.8,,,,,,,,,,SCT,1800,BKN,30000,,,,,VFR,,,,,,,,,,,,METAR,2.0
LGSA 280650Z 25004KT 9999 FEW020 19/16 Q1021,LGSA,2018-10-28T06:50:00Z,35.53,24.13,19.0,16.0,250,4,,6.21,30.147638,,,,,,,,,,,FEW,2000,,,,,,,VFR,,,,,,,,,,,,METAR,135.0
LGLM 280650Z 17012KT 9999 FEW012 SCT020 20/16 Q1022,LGLM,2018-10-28T06:50:00Z,39.92,25.23,20.0,16.0,170,12,,6.21,30.177166,,,,,,,,,,,FEW,1200,SCT,2000,,,,,VFR,,,,,,,,,,,,METAR,5.0
LGKL 280650Z 00000KT 9999 SCT025 20/14 Q1021,LGKL,2018-10-28T06:50:00Z,37.07,22.02,20.0,14.0,0,0,,6.21,30.147638,,,,,,,,,,,SCT,2500,,,,,,,VFR,,,,,,,,,,,,METAR,8.0
LGAD 280650Z 12005KT 9999 FEW020 20/13 Q1021,LGAD,2018-10-28T06:50:00Z,37.92,21.27,20.0,13.0,120,5,,6.21,30.147638,,,,,,,,,,,FEW,2000,,,,,,,VFR,,,,,,,,,,,,METAR,12.0
LGPZ 280650Z 13008KT 9999 FEW025 BKN070 22/15 Q1021,LGPZ,2018-10-28T06:50:00Z,38.92,20.77,22.0,15.0,130,8,,6.21,30.147638,,,,,,,,,,,FEW,2500,BKN,7000,,,,,VFR,,,,,,,,,,,,METAR,4.0
LGZA 280650Z 14012KT 9999 SCT014 BKN020 22/17 Q1020,LGZA,2018-10-28T06:50:00Z,37.75,20.87,22.0,17.0,140,12,,6.21,30.11811,,,,,,,,,,,SCT,1400,BKN,2000,,,,,MVFR,,,,,,,,,,,,METAR,3.0
LGSR 280650Z 13015KT CAVOK 20/13 Q1024 RMK FEW180 BLU,LGSR,2018-10-28T06:50:00Z,36.4,25.48,20.0,13.0,130,15,,6.21,30.236221,,,,,,,,,,,CAVOK,,,,,,,,VFR,,,,,,,,,,,,METAR,40.0
LGRX 280650Z 00000KT 9999 FEW018 18/17 Q1021 RMK FEW200 BLU,LGRX,2018-10-28T06:50:00Z,38.17,21.42,18.0,17.0,0,0,,6.21,30.147638,,,,,,,,,,,FEW,1800,,,,,,,VFR,,,,,,,,,,,,METAR,15.0
LGMT 280650Z 14008KT 100V220 9999 FEW020 19/10 Q1024,LGMT,2018-10-28T06:50:00Z,39.05,26.6,19.0,10.0,140,8,,6.21,30.236221,,,,,,,,,,,FEW,2000,,,,,,,VFR,,,,,,,,,,,,METAR,17.0
LGKV 280650Z 03006KT 9999 FEW015 SCT020 15/13 Q1021,LGKV,2018-10-28T06:50:00Z,40.92,24.62,15.0,13.0,30,6,,6.21,30.147638,,,,,,,,,,,FEW,1500,SCT,2000,,,,,VFR,,,,,,,,,,,,METAR,5.0
LGIO 280650Z /////KT 9999 FEW015 SCT030 17/14 Q1021,LGIO,2018-10-28T06:50:00Z,39.7,20.82,17.0,14.0,,,,6.21,30.147638,,,,,,,,,,,FEW,1500,SCT,3000,,,,,VFR,,,,,,,,,,,,METAR,476.0
LGEL 280650Z 00000KT 9999 FEW012 SCT020 20/18 Q1022,LGEL,2018-10-28T06:50:00Z,38.07,23.55,20.0,18.0,0,0,,6.21,30.177166,,,,,,,,,,,FEW,1200,SCT,2000,,,,,VFR,,,,,,,,,,,,METAR,31.0
LGAL 280650Z 17010KT 9999 FEW015 BKN025 18/14 Q1022,LGAL,2018-10-28T06:50:00Z,40.85,25.95,18.0,14.0,170,10,,6.21,30.177166,,,,,,,,,,,FEW,1500,BKN,2500,,,,,MVFR,,,,,,,,,,,,METAR,3.0
ENWV 280650Z AUTO 06020KT 9999NDV BKN035/// 07/M02 Q1022 W///S4,ENWV,2018-10-28T06:50:00Z,,,7.0,-2.0,60,20,,,30.177166,,,TRUE,,,,,,,,BKN,3500,,,,,,,,,,,,,,,,,,,METAR,
ENUG 280650Z AUTO VRB07KT 9999NDV NCD 01/M04 Q1022 W08/S4,ENUG,2018-10-28T06:50:00Z,,,1.0,-4.0,0,7,,,30.177166,,,TRUE,,,,,,,,CLR,,,,,,,,,,,,,,,,,,,,METAR,
ENLA 280650Z AUTO 09015KT 9999NDV FEW040/// SCT046/// 07/M02 Q1022 W///S4,ENLA,2018-10-28T06:50:00Z,57.1,2.83,7.0,-2.0,90,15,,,30.177166,,,TRUE,,,,,,,,FEW,4000,SCT,4600,,,,,,,,,,,,,,,,,METAR,4.0
ENHM 280650Z 04013KT 020V100 9999 FEW040 06/M03 Q1025 W10/S5,ENHM,2018-10-28T06:50:00Z,59.57,2.23,6.0,-3.0,40,13,,6.21,30.265747,,,,,,,,,,,FEW,4000,,,,,,,VFR,,,,,,,,,,,,METAR,10.0
ENQA 280650Z AUTO 07009KT 030V110 9999NDV NCD 04/M06 Q1026 W05/S5,ENQA,2018-10-28T06:50:00Z,60.65,3.72,4.0,-6.0,70,9,,,30.295275,,,TRUE,,,,,,,,CLR,,,,,,,,,,,,,,,,,,,,METAR,20.0
ENQC 280650Z AUTO 05012KT 9999NDV NCD 05/M06 Q1026 W///S5,ENQC,2018-10-28T06:50:00Z,60.88,3.62,5.0,-6.0,50,12,,,30.295275,,,TRUE,,,,,,,,CLR,,,,,,,,,,,,,,,,,,,,METAR,20.0
ENSE 280650Z AUTO 06016KT 9999NDV FEW042/// 06/M02 Q1027 W///S5,ENSE,2018-10-28T06:50:00Z,61.45,2.15,6.0,-2.0,60,16,,,30.324802,,,TRUE,,,,,,,,FEW,4200,,,,,,,,,,,,,,,,,,,METAR,10.0
ENQR 280650Z AUTO 05014KT 040V100 9999NDV /// 08/01 Q1027 W///S5,ENQR,2018-10-28T06:50:00Z,61.35,2.22,8.0,1.0,50,14,,,30.324802,,,TRUE,,,,,,,,,,,,,,,,,,,,,,,,,,,,METAR,10.0
ENNE 280650Z 01004KT 330V050 9999 FEW030 05/M05 Q1027 W///S4,ENNE,2018-10-28T06:50:00Z,66.03,8.08,5.0,-5.0,10,4,,6.21,30.324802,,,,,,,,,,,FEW,3000,,,,,,,VFR,,,,,,,,,,,,METAR,10.0
EEEI 280650Z 01011KT 9999 FEW014 SCT034 02/M01 Q1016 NOSIG,EEEI,2018-10-28T06:50:00Z,59.27,24.2,2.0,-1.0,10,11,,6.21,30.0,,,,,,TRUE,,,,,FEW,1400,SCT,3400,,,,,VFR,,,,,,,,,,,,METAR,20.0
LIPZ 280650Z 14014KT 9999 -RA BKN070 19/16 Q1000 NOSIG,LIPZ,2018-10-28T06:50:00Z,45.5,12.35,19.0,16.0,140,14,,6.21,29.52756,,,,,,TRUE,,,,-RA,BKN,7000,,,,,,,VFR,,,,,,,,,,,,METAR,6.0
LIPX 280650Z 35007KT 9999 -RA SCT020 BKN050 16/15 Q0999,LIPX,2018-10-28T06:50:00Z,45.38,10.87,16.0,15.0,350,7,,6.21,29.498032,,,,,,,,,,-RA,SCT,2000,BKN,5000,,,,,VFR,,,,,,,,,,,,METAR,68.0
LIPR 280650Z 12005KT 090V150 9999 FEW020 SCT070 19/15 Q1001,LIPR,2018-10-28T06:50:00Z,44.02,12.62,19.0,15.0,120,5,,6.21,29.557087,,,,,,,,,,,FEW,2000,SCT,7000,,,,,VFR,,,,,,,,,,,,METAR,13.0
LIPQ 280650Z 14014KT 9999 BKN080 18/16 Q1002,LIPQ,2018-10-28T06:50:00Z,45.82,13.47,18.0,16.0,140,14,,6.21,29.586615,,,,,,,,,,,BKN,8000,,,,,,,VFR,,,,,,,,,,,,METAR,12.0
LIPH 280650Z 14011KT 8000 -RA BKN080 19/16 Q1000,LIPH,2018-10-28T06:50:00Z,45.63,12.17,19.0,16.0,140,11,,4.97,29.52756,,,,,,,,,,-RA,BKN,8000,,,,,,,MVFR,,,,,,,,,,,,METAR,23.0
LIPE 280650Z 14007KT 110V190 9999 FEW030 SCT070 20/14 Q0998,LIPE,2018-10-28T06:50:00Z,44.52,11.3,20.0,14.0,140,7,,6.21,29.468504,,,,,,,,,,,FEW,3000,SCT,7000,,,,,VFR,,,,,,,,,,,,METAR,42.0
LIPB 280650Z VRB02KT 3500 RA BR FEW005 BKN015 OVC050 10/10 Q1002,LIPB,2018-10-28T06:50:00Z,46.47,11.32,10.0,10.0,0,2,,2.17,29.586615,,,,,,,,,,RA BR,FEW,500,BKN,1500,OVC,5000,,,IFR,,,,,,,,,,,,METAR,241.0
LICJ 280650Z 18012KT 9999 SCT030 24/16 Q1007,LICJ,2018-10-28T06:50:00Z,38.17,13.08,24.0,16.0,180,12,,6.21,29.734253,,,,,,,,,,,SCT,3000,,,,,,,VFR,,,,,,,,,,,,METAR,34.0
LICC 280650Z VRB02KT 9999 SCT025TCU 21/19 Q1011,LICC,2018-10-28T06:50:00Z,37.47,15.05,21.0,19.0,0,2,,6.21,29.852362,,,,,,,,,,,SCT,2500,,,,,,,VFR,,,,,,,,,,,,METAR,17.0
LIBR 280650Z 16016KT 9000 -RA SCT010 BKN045 19/17 Q1013 RERA,LIBR,2018-10-28T06:50:00Z,40.65,17.95,19.0,17.0,160,16,,5.59,29.911417,,,,,,,,,,-RA,SCT,1000,BKN,4500,,,,,VFR,,,,,,,,,,,,METAR,10.0
LIBD 280650Z 19009KT 140V220 9999 FEW020 21/17 Q1011,LIBD,2018-10-28T06:50:00Z,41.12,16.77,21.0,17.0,190,9,,6.21,29.852362,,,,,,,,,,,FEW,2000,,,,,,,VFR,,,,,,,,,,,,METAR,44.0
LIMW 280650Z AUTO VRB02KT 9999 -RA OVC040/// 09/09 Q0997,LIMW,2018-10-28T06:50:00Z,45.73,7.37,9.0,9.0,0,2,,6.21,29.438976,,,TRUE,,,,,,,-RA,OVC,4000,,,,,,,VFR,,,,,,,,,,,,METAR,546.0
LIRQ 280650Z 14007KT 110V180 9999 FEW030 BKN080 21/16 Q0999,LIRQ,2018-10-28T06:50:00Z,43.78,11.18,21.0,16.0,140,7,,6.21,29.498032,,,,,,,,,,,FEW,3000,BKN,8000,,,,,VFR,,,,,,,,,,,,METAR,38.0
LIRN 280650Z VRB08G22KT 9999 BKN035 22/15 Q1008 NOSIG,LIRN,2018-10-28T06:50:00Z,40.88,14.3,22.0,15.0,0,8,22,6.21,29.763779,,,,,,TRUE,,,,,BKN,3500,,,,,,,VFR,,,,,,,,,,,,METAR,72.0
LIRF 280650Z 16021G31KT 9999 FEW025 22/18 Q1003 NOSIG,LIRF,2018-10-28T06:50:00Z,41.78,12.22,22.0,18.0,160,21,31,6.21,29.616142,,,,,,TRUE,,,,,FEW,2500,,,,,,,VFR,,,,,,,,,,,,METAR,3.0
LIRA 280650Z 15019G30KT 9999 R15/1400N SCT015 SCT025 20/16 Q1003,LIRA,2018-10-28T06:50:00Z,41.8,12.58,20.0,16.0,150,19,30,6.21,29.616142,,,,,,,,,,,SCT,1500,SCT,2500,,,,,VFR,,,,,,,,,,,,METAR,101.0
LIML 280650Z 10008KT 8000 -RA FEW015 BKN050 15/14 Q0997 NOSIG,LIML,2018-10-28T06:50:00Z,45.47,9.27,15.0,14.0,100,8,,4.97,29.438976,,,,,,TRUE,,,,-RA,FEW,1500,BKN,5000,,,,,MVFR,,,,,,,,,,,,METAR,103.0
LIMJ 280650Z 34004KT 4000 TSRA BKN015 FEW020CB BKN028 17/16 Q0995,LIMJ,2018-10-28T06:50:00Z,44.42,8.83,17.0,16.0,340,4,,2.49,29.379921,,,,,,,,,,TSRA,BKN,1500,FEW,2000,BKN,2800,,,IFR,,,,,,,,,,,,METAR,3.0
LIMF 280650Z VRB02KT 9999 -RA BKN015 OVC030 13/13 Q0996,LIMF,2018-10-28T06:50:00Z,45.22,7.65,13.0,13.0,0,2,,6.21,29.409449,,,,,,,,,,-RA,BKN,1500,OVC,3000,,,,,MVFR,,,,,,,,,,,,METAR,287.0
LIME 280650Z 07012KT 5000 RA BR BKN030 15/14 Q0998 NOSIG,LIME,2018-10-28T06:50:00Z,45.67,9.68,15.0,14.0,70,12,,3.11,29.468504,,,,,,TRUE,,,,RA BR,BKN,3000,,,,,,,MVFR,,,,,,,,,,,,METAR,237.0
LIMC 280650Z 10014KT 5000 RA BKN004 BKN008 OVC017 14/14 Q0996 NOSIG,LIMC,2018-10-28T06:50:00Z,45.62,8.72,14.0,14.0,100,14,,3.11,29.409449,,,,,,TRUE,,,,RA,BKN,400,BKN,800,OVC,1700,,,LIFR,,,,,,,,,,,,METAR,211.0
LIEO 280650Z VRB02KT 9999 FEW040 15/14 Q0999,LIEO,2018-10-28T06:50:00Z,40.88,9.52,15.0,14.0,0,2,,6.21,29.498032,,,,,,,,,,,FEW,4000,,,,,,,VFR,,,,,,,,,,,,METAR,13.0
LIEE 280650Z 19009KT 9999 FEW060 22/15 Q1000,LIEE,2018-10-28T06:50:00Z,39.25,9.07,22.0,15.0,190,9,,6.21,29.52756,,,,,,,,,,,FEW,6000,,,,,,,VFR,,,,,,,,,,,,METAR,4.0
LIEA 280650Z 23018G29KT 9999 -RA FEW030 19/16 Q0998,LIEA,2018-10-28T06:50:00Z,40.62,8.27,19.0,16.0,230,18,29,6.21,29.468504,,,,,,,,,,-RA,FEW,3000,,,,,,,VFR,,,,,,,,,,,,METAR,23.0
LOXZ 280650Z 04003KT 5000 -RA FEW003ST SCT045SC BKN060SC 07/07 Q1003,LOXZ,2018-10-28T06:50:00Z,47.2,14.75,7.0,7.0,40,3,,3.11,29.616142,,,,,,,,,,-RA,,,,,,,,,,,,,,,,,,,,,METAR,682.0
ELLX 280650Z 04016KT 9999 FEW012 BKN013 04/01 Q1008 NOSIG,ELLX,2018-10-28T06:50:00Z,49.63,6.2,4.0,1.0,40,16,,6.21,29.763779,,,,,,TRUE,,,,,FEW,1200,BKN,1300,,,,,MVFR,,,,,,,,,,,,METAR,379.0
EBOS 280650Z 06014KT 9999 FEW025 04/01 Q1016 NOSIG,EBOS,2018-10-28T06:50:00Z,51.2,2.87,4.0,1.0,60,14,,6.21,30.0,,,,,,TRUE,,,,,FEW,2500,,,,,,,VFR,,,,,,,,,,,,METAR,5.0
EBLG 280650Z 04013KT 8000 BKN006 02/01 Q1013 NOSIG,EBLG,2018-10-28T06:50:00Z,50.63,5.45,2.0,1.0,40,13,,4.97,29.911417,,,,,,TRUE,,,,,BKN,600,,,,,,,IFR,,,,,,,,,,,,METAR,178.0
EBCI 280650Z 04016KT 5000 BR BKN005 02/01 Q1013 NOSIG,EBCI,2018-10-28T06:50:00Z,50.47,4.45,2.0,1.0,40,16,,3.11,29.911417,,,,,,TRUE,,,,BR,BKN,500,,,,,,,IFR,,,,,,,,,,,,METAR,192.0
EBBR 280650Z 04008KT 9999 FEW008 01/M02 Q1014 NOSIG,EBBR,2018-10-28T06:50:00Z,50.9,4.5,1.0,-2.0,40,8,,6.21,29.940945,,,,,,TRUE,,,,,FEW,800,,,,,,,VFR,,,,,,,,,,,,METAR,58.0
EBAW 280650Z 04010KT 9999 FEW010 03/M00 Q1015 NOSIG,EBAW,2018-10-28T06:50:00Z,51.2,4.47,3.0,0.0,40,10,,6.21,29.970472,,,,,,TRUE,,,,,FEW,1000,,,,,,,VFR,,,,,,,,,,,,METAR,14.0
LOWK 280650Z 18009KT 130V220 9999 FEW040 BKN060 17/09 Q1001 NOSIG,LOWK,2018-10-28T06:50:00Z,46.65,14.32,17.0,9.0,180,9,,6.21,29.557087,,,,,,TRUE,,,,,FEW,4000,BKN,6000,,,,,VFR,,,,,,,,,,,,METAR,441.0
LOWG 280650Z VRB02KT 9999 -RA FEW002 OVC012 08/07 Q1005 TEMPO BKN008,LOWG,2018-10-28T06:50:00Z,47.0,15.42,8.0,7.0,0,2,,6.21,29.675198,,,,,,,,,,-RA,FEW,200,OVC,1200,,,,,MVFR,,,,,,,,,,,,METAR,347.0
LOWI 280650Z VRB01KT 8000 -RA FEW005 SCT010 BKN018 03/02 Q1003 TEMPO BKN013,LOWI,2018-10-28T06:50:00Z,47.27,11.33,3.0,2.0,0,1,,4.97,29.616142,,,,,,,,,,-RA,FEW,500,SCT,1000,BKN,1800,,,MVFR,,,,,,,,,,,,METAR,581.0
LOWS 280650Z 29007KT 8000 FEW005 BKN009 OVC012 05/04 Q1004 TEMPO SCT009 BKN012,LOWS,2018-10-28T06:50:00Z,47.78,13.02,5.0,4.0,290,7,,4.97,29.64567,,,,,,,,,,,FEW,500,BKN,900,OVC,1200,,,IFR,,,,,,,,,,,,METAR,430.0
LOWL 280650Z 06009KT 9999 FEW016 OVC021 06/03 Q1004 NOSIG,LOWL,2018-10-28T06:50:00Z,48.22,14.18,6.0,3.0,60,9,,6.21,29.64567,,,,,,TRUE,,,,,FEW,1600,OVC,2100,,,,,MVFR,,,,,,,,,,,,METAR,313.0
LOWW 280650Z 07004KT 4100 -RA BR FEW001 BKN002 07/07 Q1006 BECMG 5000 BKN003,LOWW,2018-10-28T06:50:00Z,48.12,16.57,7.0,7.0,70,4,,2.55,29.704725,,,,,,,,,,-RA BR,FEW,100,BKN,200,,,,,LIFR,,,,,,,,,,,,METAR,190.0
LGSM 280650Z 00000KT 9999 FEW014 13/09 Q1024,LGSM,2018-10-28T06:50:00Z,37.68,26.92,13.0,9.0,0,0,,6.21,30.236221,,,,,,,,,,,FEW,1400,,,,,,,VFR,,,,,,,,,,,,METAR,6.0
ENHF 280650Z 34007KT 310V020 9999 VCSH FEW013CB SCT027 00/M05 Q1021 RMK WIND 1254FT 33019KT,ENHF,2018-10-28T06:50:00Z,70.67,23.67,0.0,-5.0,340,7,,6.21,30.147638,,,,,,,,,,VCSH,FEW,1300,SCT,2700,,,,,VFR,,,,,,,,,,,,METAR,81.0
ENBN 280650Z AUTO 16009KT 9999NDV BKN021/// 00/M05 Q1027,ENBN,2018-10-28T06:50:00Z,65.47,12.22,0.0,-5.0,160,9,,,30.324802,,,TRUE,,,,,,,,BKN,2100,,,,,,,,,,,,,,,,,,,METAR,9.0
ENNA 280650Z AUTO 26005KT 240V300 9999 BKN039/// OVC048/// M01/M05 Q1022 RMK WIND 1800FT 28020KT,ENNA,2018-10-28T06:50:00Z,70.07,24.97,-1.0,-5.0,260,5,,6.21,30.177166,,,TRUE,,,,,,,,BKN,3900,OVC,4800,,,,,VFR,,,,,,,,,,,,METAR,8.0
ENML 280650Z AUTO 02007KT 9999NDV NCD M04/M07 Q1029,ENML,2018-10-28T06:50:00Z,62.75,7.27,-4.0,-7.0,20,7,,,30.383858,,,TRUE,,,,,,,,CLR,,,,,,,,,,,,,,,,,,,,METAR,3.0
ENKR 280650Z AUTO 25009KT 9999 FEW017/// BKN045/// BKN072/// M05/M07 Q1019 RMK WIND 731FT 26014KT,ENKR,2018-10-28T06:50:00Z,69.72,29.88,-5.0,-7.0,250,9,,6.21,30.088583,,,TRUE,,,,,,,,FEW,1700,BKN,4500,BKN,7200,,,VFR,,,,,,,,,,,,METAR,91.0
ENKB 280650Z AUTO 12004KT 080V160 9999 NCD M02/M05 Q1028 RMK WIND 745FT 14012KT,ENKB,2018-10-28T06:50:00Z,63.12,7.82,-2.0,-5.0,120,4,,6.21,30.35433,,,TRUE,,,,,,,,CLR,,,,,,,,VFR,,,,,,,,,,,,METAR,62.0
ENFL 280650Z AUTO 08005KT 9999NDV NCD M01/M06 Q1027,ENFL,2018-10-28T06:50:00Z,61.57,5.02,-1.0,-6.0,80,5,,,30.324802,,,TRUE,,,,,,,,CLR,,,,,,,,,,,,,,,,,,,,METAR,9.0
ENEV 280650Z AUTO 00000KT 9999 OVC021/// M04/M05 Q1026 RMK WIND 1400FT 19007KT,ENEV,2018-10-28T06:50:00Z,68.52,16.67,-4.0,-5.0,0,0,,6.21,30.295275,,,TRUE,,,,,,,,OVC,2100,,,,,,,MVFR,,,,,,,,,,,,METAR,26.0
ENAT 280650Z AUTO 20006KT 160V220 9999 SCT030/// OVC053/// M03/M06 Q1023 RMK WIND 700FT 23005KT,ENAT,2018-10-28T06:50:00Z,69.97,23.37,-3.0,-6.0,200,6,,6.21,30.206694,,,TRUE,,,,,,,,SCT,3000,OVC,5300,,,,,VFR,,,,,,,,,,,,METAR,3.0
EDVE 280650Z VRB02KT CAVOK 00/M01 Q1016,EDVE,2018-10-28T06:50:00Z,52.32,10.55,0.0,-1.0,0,2,,6.21,30.0,,,,,,,,,,,CAVOK,,,,,,,,VFR,,,,,,,,,,,,METAR,88.0
EDJA 280650Z 05012KT 4000 -SN BKN003 00/00 Q1003 RESN,EDJA,2018-10-28T06:50:00Z,47.98,10.23,0.0,0.0,50,12,,2.49,29.616142,,,,,,,,,,-SN,BKN,300,,,,,,,LIFR,,,,,,,,,,,,METAR,633.0
EDHI 280650Z AUTO 03006KT 350V050 9999 // FEW003/// 01/M00 Q1018,EDHI,2018-10-28T06:50:00Z,53.53,9.83,1.0,0.0,30,6,,6.21,30.059055,,,TRUE,,,,,,,,FEW,300,,,,,,,VFR,,,,,,,,,,,,METAR,13.0
ENFB 280650Z AUTO 05017KT 9999NDV FEW045/// 07/M03 Q1027 W///S5,ENFB,2018-10-28T06:50:00Z,61.2,1.83,7.0,-3.0,50,17,,,30.324802,,,TRUE,,,,,,,,FEW,4500,,,,,,,,,,,,,,,,,,,METAR,10.0
ENSL 280650Z 04016KT 9999 SCT035 07/M01 Q1024 W06/S5,ENSL,2018-10-28T06:50:00Z,58.37,1.9,7.0,-1.0,40,16,,6.21,30.236221,,,,,,,,,,,SCT,3500,,,,,,,VFR,,,,,,,,,,,,METAR,50.0
ENGC 280650Z 07018KT 9999 FEW035 07/M02 Q1027 W07/S5,ENGC,2018-10-28T06:50:00Z,61.02,2.02,7.0,-2.0,70,18,,6.21,30.324802,,,,,,,,,,,FEW,3500,,,,,,,VFR,,,,,,,,,,,,METAR,10.0
ENLE 280650Z 05019KT 9999 VCSH FEW025TCU SCT040 07/M03 Q1022 W11/S5,ENLE,2018-10-28T06:50:00Z,56.53,3.22,7.0,-3.0,50,19,,6.21,30.177166,,,,,,,,,,VCSH,FEW,2500,SCT,4000,,,,,VFR,,,,,,,,,,,,METAR,3.0
ENDR 280650Z AUTO 29009KT 06/M00 Q1027,ENDR,2018-10-28T06:50:00Z,64.35,7.8,6.0,0.0,290,9,,,30.324802,,,TRUE,,,,,,,,,,,,,,,,,,,,,,,,,,,,METAR,50.0
EDVK 280650Z 01006KT 320V030 9999 FEW015 BKN024 02/01 Q1014,EDVK,2018-10-28T06:50:00Z,51.38,9.37,2.0,1.0,10,6,,6.21,29.940945,,,,,,,,,,,FEW,1500,BKN,2400,,,,,MVFR,,,,,,,,,,,,METAR,285.0
EDLV 280650Z 04006KT 010V070 CAVOK 02/02 Q1016,EDLV,2018-10-28T06:50:00Z,51.6,6.15,2.0,2.0,40,6,,6.21,30.0,,,,,,,,,,,CAVOK,,,,,,,,VFR,,,,,,,,,,,,METAR,32.0
EDFH 280650Z 04009KT 010V090 9999 BKN010 02/01 Q1009,EDFH,2018-10-28T06:50:00Z,49.95,7.27,2.0,1.0,40,9,,6.21,29.793306,,,,,,,,,,,BKN,1000,,,,,,,MVFR,,,,,,,,,,,,METAR,498.0
EDLW 280650Z 03005KT 360V060 8000 OVC005 02/02 Q1015,EDLW,2018-10-28T06:50:00Z,51.52,7.62,2.0,2.0,30,5,,4.97,29.970472,,,,,,,,,,,OVC,500,,,,,,,IFR,,,,,,,,,,,,METAR,127.0
EDSB 280650Z 03016KT 8000 -RA SCT010 SCT018 OVC021 05/04 Q1006,EDSB,2018-10-28T06:50:00Z,48.78,8.08,5.0,4.0,30,16,,4.97,29.704725,,,,,,,,,,-RA,SCT,1000,SCT,1800,OVC,2100,,,MVFR,,,,,,,,,,,,METAR,124.0
EDNY 280650Z AUTO 02011KT 9999 // FEW017/// BKN030/// OVC100/// 02/01 Q1003,EDNY,2018-10-28T06:50:00Z,47.67,9.52,2.0,1.0,20,11,,6.21,29.616142,,,TRUE,,,,,,,,FEW,1700,BKN,3000,OVC,10000,,,MVFR,,,,,,,,,,,,METAR,424.0
EDMA 280650Z AUTO 04009KT 3300 // BKN006/// OVC034/// 01/00 Q1005,EDMA,2018-10-28T06:50:00Z,48.42,10.92,1.0,0.0,40,9,,2.05,29.675198,,,TRUE,,,,,,,,BKN,600,OVC,3400,,,,,IFR,,,,,,,,,,,,METAR,463.0
EDLP 280650Z 05007KT 9999 BKN014 ///// Q1015,EDLP,2018-10-28T06:50:00Z,51.62,8.62,,,50,7,,6.21,29.970472,,,,,,,,,,,BKN,1400,,,,,,,MVFR,,,,,,,,,,,,METAR,213.0
EDLN 280650Z 02006KT 5000 BR SCT010 03/01 Q1015,EDLN,2018-10-28T06:50:00Z,51.23,6.5,3.0,1.0,20,6,,3.11,29.970472,,,,,,,,,,BR,SCT,1000,,,,,,,MVFR,,,,,,,,,,,,METAR,38.0
EDHL 280650Z VRB01KT 9999 FEW040 M00/M00 Q1018,EDHL,2018-10-28T06:50:00Z,53.8,10.72,0.0,0.0,0,1,,6.21,30.059055,,,,,,,,,,,FEW,4000,,,,,,,VFR,,,,,,,,,,,,METAR,16.0
EDGS 280650Z 05009KT 020V080 9999 BKN010 01/M00 Q1011,EDGS,2018-10-28T06:50:00Z,50.7,8.08,1.0,0.0,50,9,,6.21,29.852362,,,,,,,,,,,BKN,1000,,,,,,,MVFR,,,,,,,,,,,,METAR,602.0
EDAC 280650Z AUTO 03005KT 9999 // SCT012/// OVC026/// 03/01 Q1012,EDAC,2018-10-28T06:50:00Z,50.98,12.5,3.0,1.0,30,5,,6.21,29.88189,,,TRUE,,,,,,,,SCT,1200,OVC,2600,,,,,MVFR,,,,,,,,,,,,METAR,195.0
LXGB 280650Z 27011G21KT 9999 FEW022 BKN110 12/06 Q1003,LXGB,2018-10-28T06:50:00Z,36.13,-5.33,12.0,6.0,270,11,21,6.21,29.616142,,,,,,,,,,,FEW,2200,BKN,11000,,,,,VFR,,,,,,,,,,,,METAR,5.0
LGSO 280650Z AUTO 15012KT //// // ////// 21/14 Q1023 RE//,LGSO,2018-10-28T06:50:00Z,37.42,24.95,21.0,14.0,150,12,,,30.206694,,,TRUE,,,,,,,,,,,,,,,,,,,,,,,,,,,,METAR,72.0
LGPA 280650Z AUTO 16019KT //// // ////// 21/13 Q1023 RE//,LGPA,2018-10-28T06:50:00Z,37.0,25.13,21.0,13.0,160,19,,,30.206694,,,TRUE,,,,,,,,,,,,,,,,,,,,,,,,,,,,METAR,36.0
LGMK 280650Z 11012KT 9999 FEW020 20/15 Q1023,LGMK,2018-10-28T06:50:00Z,37.43,25.35,20.0,15.0,110,12,,6.21,30.206694,,,,,,,,,,,FEW,2000,,,,,,,VFR,,,,,,,,,,,,METAR,123.0
LGKZ 280650Z 00000KT 9999 FEW025 SCT070 12/10 Q1022,LGKZ,2018-10-28T06:50:00Z,40.28,21.83,12.0,10.0,0,0,,6.21,30.177166,,,,,,,,,,,FEW,2500,SCT,7000,,,,,VFR,,,,,,,,,,,,METAR,628.0
LGKP 280650Z AUTO 11013KT //// // ////// 20/13 Q1024 RE//,LGKP,2018-10-28T06:50:00Z,35.42,27.15,20.0,13.0,110,13,,,30.236221,,,TRUE,,,,,,,,,,,,,,,,,,,,,,,,,,,,METAR,20.0
LGKF 280650Z 13013KT 9999 FEW014 SCT020 22/17 Q1020,LGKF,2018-10-28T06:50:00Z,38.12,20.5,22.0,17.0,130,13,,6.21,30.11811,,,,,,,,,,,FEW,1400,SCT,2000,,,,,VFR,,,,,,,,,,,,METAR,18.0
LGKC 280650Z 14009KT 9999 FEW016TCU SCT020 19/16 Q1023,LGKC,2018-10-28T06:50:00Z,36.28,23.02,19.0,16.0,140,9,,6.21,30.206694,,,,,,,,,,,FEW,1600,SCT,2000,,,,,VFR,,,,,,,,,,,,METAR,319.0
LGHI 280650Z 17009KT 9999 SCT020 21/14 Q1023,LGHI,2018-10-28T06:50:00Z,38.32,26.12,21.0,14.0,170,9,,6.21,30.206694,,,,,,,,,,,SCT,2000,,,,,,,VFR,,,,,,,,,,,,METAR,4.0
EEPU 280650Z 35007KT 9999 SCT016 BKN035 02/00 Q1014,EEPU,2018-10-28T06:50:00Z,58.42,24.47,2.0,0.0,350,7,,6.21,29.940945,,,,,,,,,,,SCT,1600,BKN,3500,,,,,VFR,,,,,,,,,,,,METAR,14.0
EETU 280650Z AUTO 35008KT 330V030 9999 OVC024/// 02/M01 Q1012,EETU,2018-10-28T06:50:00Z,58.32,26.68,2.0,-1.0,350,8,,6.21,29.88189,,,TRUE,,,,,,,,OVC,2400,,,,,,,MVFR,,,,,,,,,,,,METAR,67.0
EEKE 280650Z AUTO 36008KT 9999NDV NCD 01/00 Q1016,EEKE,2018-10-28T06:50:00Z,58.23,22.52,1.0,0.0,360,8,,,30.0,,,TRUE,,,,,,,,CLR,,,,,,,,,,,,,,,,,,,,METAR,4.0
LGTS 280650Z VRB02KT 9999 FEW010 BKN030 16/11 Q1021 NOSIG,LGTS,2018-10-28T06:50:00Z,40.52,22.97,16.0,11.0,0,2,,6.21,30.147638,,,,,,TRUE,,,,,FEW,1000,BKN,3000,,,,,MVFR,,,,,,,,,,,,METAR,7.0
LTAG 280650Z 00000KT CAVOK 19/05 Q1026 NOSIG,LTAG,2018-10-28T06:50:00Z,37.0,35.42,19.0,5.0,0,0,,6.21,30.295275,,,,,,TRUE,,,,,CAVOK,,,,,,,,VFR,,,,,,,,,,,,METAR,66.0
LTFH 280650Z 10003KT 060V140 CAVOK 18/09 Q1025 NOSIG,LTFH,2018-10-28T06:50:00Z,41.27,36.55,18.0,9.0,100,3,,6.21,30.265747,,,,,,TRUE,,,,,CAVOK,,,,,,,,VFR,,,,,,,,,,,,METAR,5.0
LTDA 280650Z 11003KT 020V160 CAVOK 14/08 Q1029 NOSIG,LTDA,2018-10-28T06:50:00Z,36.37,36.28,14.0,8.0,110,3,,6.21,30.383858,,,,,,TRUE,,,,,CAVOK,,,,,,,,VFR,,,,,,,,,,,,METAR,82.0
LTCI 280650Z VRB02KT 9999 FEW040 10/M04 Q1032 NOSIG,LTCI,2018-10-28T06:50:00Z,38.45,43.32,10.0,-4.0,0,2,,6.21,30.47244,,,,,,TRUE,,,,,FEW,4000,,,,,,,VFR,,,,,,,,,,,,METAR,1661.0
LTCF 280650Z VRB02KT CAVOK 03/M02 Q1034,LTCF,2018-10-28T06:50:00Z,40.57,43.12,3.0,-2.0,0,2,,6.21,30.531496,,,,,,,,,,,CAVOK,,,,,,,,VFR,,,,,,,,,,,,METAR,1795.0
LTCD 280650Z VRB01KT CAVOK 08/01 Q1033 NOSIG,LTCD,2018-10-28T06:50:00Z,39.72,39.5,8.0,1.0,0,1,,6.21,30.501968,,,,,,TRUE,,,,,CAVOK,,,,,,,,VFR,,,,,,,,,,,,METAR,1215.0
LTCA 280650Z 00000KT CAVOK 11/05 Q1031 NOSIG,LTCA,2018-10-28T06:50:00Z,38.6,39.27,11.0,5.0,0,0,,6.21,30.442913,,,,,,TRUE,,,,,CAVOK,,,,,,,,VFR,,,,,,,,,,,,METAR,882.0
LTBY 280650Z 10009KT CAVOK 09/03 Q1028,LTBY,2018-10-28T06:50:00Z,39.82,30.52,9.0,3.0,100,9,,6.21,30.35433,,,,,,,,,,,CAVOK,,,,,,,,VFR,,,,,,,,,,,,METAR,789.0
LTAY 280650Z 07004KT CAVOK 10/05 Q1027,LTAY,2018-10-28T06:50:00Z,37.77,29.68,10.0,5.0,70,4,,6.21,30.324802,,,,,,,,,,,CAVOK,,,,,,,,VFR,,,,,,,,,,,,METAR,849.0
LTAR 280650Z 10008KT CAVOK 07/01 Q1031,LTAR,2018-10-28T06:50:00Z,39.8,36.9,7.0,1.0,100,8,,6.21,30.442913,,,,,,,,,,,CAVOK,,,,,,,,VFR,,,,,,,,,,,,METAR,1271.0
PGWT 280650Z 08010KT 7SM SCT140 25/25 A2974,PGWT,2018-10-28T06:50:00Z,14.98,145.62,25.0,25.0,80,10,,7.0,29.740158,,,,,,,,,,,SCT,14000,,,,,,,VFR,,,,,,,,,,,,METAR,82.0
KRPH 280650Z AUTO 00000KT 10SM CLR 13/12 A3003 RMK AO2 T01280124,KRPH,2018-10-28T06:50:00Z,33.12,-98.55,12.8,12.4,0,0,,10.0,30.029528,,,TRUE,TRUE,,,,,,,CLR,,,,,,,,VFR,,,,,,,,,,,,SPECI,342.0
LTAP 280650Z VRB01KT CAVOK 10/04 Q1029 NOSIG RMK RWY23 VRB02KT,LTAP,2018-10-28T06:50:00Z,40.83,35.52,10.0,4.0,0,1,,6.21,30.383858,,,,,,TRUE,,,,,CAVOK,,,,,,,,VFR,,,,,,,,,,,,METAR,535.0
LTAN 280650Z 14003KT 110V180 CAVOK 08/03 Q1029 NOSIG,LTAN,2018-10-28T06:50:00Z,37.97,32.53,8.0,3.0,140,3,,6.21,30.383858,,,,,,TRUE,,,,,CAVOK,,,,,,,,VFR,,,,,,,,,,,,METAR,1006.0
LICA 280650Z 05012KT 9999 -RA SCT020 SCT060 20/19 Q1012,LICA,2018-10-28T06:50:00Z,38.88,16.25,20.0,19.0,50,12,,6.21,29.88189,,,,,,,,,,-RA,SCT,2000,SCT,6000,,,,,VFR,,,,,,,,,,,,METAR,15.0
LICB 280650Z 18012KT 8000 FEW020 22/18 Q1012,LICB,2018-10-28T06:50:00Z,37.0,14.62,22.0,18.0,180,12,,4.97,29.88189,,,,,,,,,,,FEW,2000,,,,,,,MVFR,,,,,,,,,,,,METAR,220.0
LICD 280650Z 20013KT CAVOK 24/19 Q1010,LICD,2018-10-28T06:50:00Z,35.5,12.62,24.0,19.0,200,13,,6.21,29.822834,,,,,,,,,,,CAVOK,,,,,,,,VFR,,,,,,,,,,,,METAR,20.0
LICR 280650Z 14018G28KT 7000 -RA BKN030 22/18 Q1012 RMK RETSRA,LICR,2018-10-28T06:50:00Z,38.07,15.65,22.0,18.0,140,18,28,4.35,29.88189,,,,,,,,,,-RA,BKN,3000,,,,,,,MVFR,,,,,,,,,,,,SPECI,21.0
LIMP 280650Z 08006KT 5000 -RA BR BKN040 15/15 Q0998,LIMP,2018-10-28T06:50:00Z,44.82,10.3,15.0,15.0,80,6,,3.11,29.468504,,,,,,,,,,-RA BR,BKN,4000,,,,,,,MVFR,,,,,,,,,,,,METAR,50.0
LIMZ 280650Z VRB01KT 2000 -RA BR OVC015 12/12 Q0996,LIMZ,2018-10-28T06:50:00Z,44.53,7.62,12.0,12.0,0,1,,1.24,29.409449,,,,,,,,,,-RA BR,OVC,1500,,,,,,,IFR,,,,,,,,,,,,METAR,380.0
LIBP 280650Z 10008KT 060V130 9999 SCT080 21/13 Q1003,LIBP,2018-10-28T06:50:00Z,42.42,14.18,21.0,13.0,100,8,,6.21,29.616142,,,,,,,,,,,SCT,8000,,,,,,,VFR,,,,,,,,,,,,METAR,11.0
LIRZ 280650Z 15009KT 9999 FEW020 BKN040 18/15 Q1002,LIRZ,2018-10-28T06:50:00Z,43.1,12.5,18.0,15.0,150,9,,6.21,29.586615,,,,,,,,,,,FEW,2000,BKN,4000,,,,,VFR,,,,,,,,,,,,METAR,205.0
LIPO 280650Z 07011KT 7000 -RA BKN050 16/15 Q0998,LIPO,2018-10-28T06:50:00Z,45.42,10.33,16.0,15.0,70,11,,4.35,29.468504,,,,,,,,,,-RA,BKN,5000,,,,,,,MVFR,,,,,,,,,,,,METAR,109.0
LIPY 280650Z VRB02KT 9999 FEW040 20/11 Q1002,LIPY,2018-10-28T06:50:00Z,43.62,13.37,20.0,11.0,0,2,,6.21,29.586615,,,,,,,,,,,FEW,4000,,,,,,,VFR,,,,,,,,,,,,METAR,10.0
LTCO 280650Z 32003KT 270V060 CAVOK 04/M02 Q1034,LTCO,2018-10-28T06:50:00Z,39.65,43.03,4.0,-2.0,320,3,,6.21,30.531496,,,,,,,,,,,CAVOK,,,,,,,,VFR,,,,,,,,,,,,METAR,1665.0
OOMS 280650Z 05008KT CAVOK 32/20 Q1015 NOSIG,OOMS,2018-10-28T06:50:00Z,23.57,58.27,32.0,20.0,50,8,,6.21,29.970472,,,,,,TRUE,,,,,CAVOK,,,,,,,,VFR,,,,,,,,,,,,METAR,8.0
OOSA 280650Z 15006KT 090V180 8000 SCT025 28/22 Q1017 NOSIG,OOSA,2018-10-28T06:50:00Z,17.02,54.07,28.0,22.0,150,6,,4.97,30.029528,,,,,,TRUE,,,,,SCT,2500,,,,,,,MVFR,,,,,,,,,,,,METAR,20.0
OODQ 280650Z 10010KT 070V130 9999 SCT035 28/22 Q1017 NOSIG,OODQ,2018-10-28T06:50:00Z,19.52,57.65,28.0,22.0,100,10,,6.21,30.029528,,,,,,TRUE,,,,,SCT,3500,,,,,,,VFR,,,,,,,,,,,,METAR,0.0
LTAU 280650Z 00000KT CAVOK 08/02 Q1031 NOSIG RMK RWY07 15003KT 080V220,LTAU,2018-10-28T06:50:00Z,38.77,35.47,8.0,2.0,0,0,,6.21,30.442913,,,,,,TRUE,,,,,CAVOK,,,,,,,,VFR,,,,,,,,,,,,METAR,1054.0
LTAT 280650Z 12003KT 070V180 CAVOK 10/02 Q1032 NOSIG RMK RWY03 VRB02KT,LTAT,2018-10-28T06:50:00Z,38.42,38.07,10.0,2.0,120,3,,6.21,30.47244,,,,,,TRUE,,,,,CAVOK,,,,,,,,VFR,,,,,,,,,,,,METAR,849.0
LTBF 280650Z 00000KT CAVOK 11/05 Q1026 NOSIG,LTBF,2018-10-28T06:50:00Z,39.62,27.92,11.0,5.0,0,0,,6.21,30.295275,,,,,,TRUE,,,,,CAVOK,,,,,,,,VFR,,,,,,,,,,,,METAR,102.0
LTBU 280650Z 13005KT CAVOK 17/13 Q1024 RMK RWY23 18005KT 150V220,LTBU,2018-10-28T06:50:00Z,41.12,27.92,17.0,13.0,130,5,,6.21,30.236221,,,,,,,,,,,CAVOK,,,,,,,,VFR,,,,,,,,,,,,METAR,173.0
LTBQ 280650Z 00000KT CAVOK 16/09 Q1025 NOSIG,LTBQ,2018-10-28T06:50:00Z,40.72,30.07,16.0,9.0,0,0,,6.21,30.265747,,,,,,TRUE,,,,,CAVOK,,,,,,,,VFR,,,,,,,,,,,,METAR,50.0
LTCC 280650Z 34006KT 320V030 CAVOK 15/02 Q1029 NOSIG RMK RWY16 34007KT 310V020,LTCC,2018-10-28T06:50:00Z,37.87,40.2,15.0,2.0,340,6,,6.21,30.383858,,,,,,TRUE,,,,,CAVOK,,,,,,,,VFR,,,,,,,,,,,,METAR,677.0
LTCE 280650Z 08011KT CAVOK 04/M01 Q1034 NOSIG RMK RWY08R 06010KT RWY26R 08011KT RWY08L 07007KT 050V110,LTCE,2018-10-28T06:50:00Z,39.95,41.17,4.0,-1.0,80,11,,6.21,30.531496,,,,,,TRUE,,,,,CAVOK,,,,,,,,VFR,,,,,,,,,,,,METAR,1758.0
LCEN 280650Z 04005KT 9999 FEW025 21/10 Q1025 NOSIG RMK RWY11 06005KT,LCEN,2018-10-28T06:50:00Z,35.13,33.5,21.0,10.0,40,5,,6.21,30.265747,,,,,,TRUE,,,,,FEW,2500,,,,,,,VFR,,,,,,,,,,,,METAR,91.0
LTCJ 280650Z VRB02KT CAVOK 11/05 Q1029 RMK RWY20 24003KT 180V300,LTCJ,2018-10-28T06:50:00Z,37.93,41.12,11.0,5.0,0,2,,6.21,30.383858,,,,,,,,,,,CAVOK,,,,,,,,VFR,,,,,,,,,,,,METAR,540.0
LTAL 280650Z 32007KT CAVOK 07/04 Q1027,LTAL,2018-10-28T06:50:00Z,41.32,33.8,7.0,4.0,320,7,,6.21,30.324802,,,,,,,,,,,CAVOK,,,,,,,,VFR,,,,,,,,,,,,METAR,1066.0
LTCP 280650Z 15003KT 080V210 CAVOK 15/03 Q1028,LTCP,2018-10-28T06:50:00Z,37.73,38.47,15.0,3.0,150,3,,6.21,30.35433,,,,,,,,,,,CAVOK,,,,,,,,VFR,,,,,,,,,,,,METAR,676.0
LTCN 280650Z 00000KT CAVOK 13/03 Q1029 NOSIG,LTCN,2018-10-28T06:50:00Z,37.53,36.95,13.0,3.0,0,0,,6.21,30.383858,,,,,,TRUE,,,,,CAVOK,,,,,,,,VFR,,,,,,,,,,,,METAR,526.0
LTCM 280650Z 00000KT CAVOK 15/09 Q1025,LTCM,2018-10-28T06:50:00Z,42.02,35.07,15.0,9.0,0,0,,6.21,30.265747,,,,,,,,,,,CAVOK,,,,,,,,VFR,,,,,,,,,,,,METAR,8.0
LTCK 280650Z 34003KT 300V010 CAVOK 09/01 Q1032,LTCK,2018-10-28T06:50:00Z,38.75,41.67,9.0,1.0,340,3,,6.21,30.47244,,,,,,,,,,,CAVOK,,,,,,,,VFR,,,,,,,,,,,,METAR,1266.0
LTCB 280650Z VRB02KT CAVOK 18/07 Q1026,LTCB,2018-10-28T06:50:00Z,39.72,43.03,18.0,7.0,0,2,,6.21,30.295275,,,,,,,,,,,CAVOK,,,,,,,,VFR,,,,,,,,,,,,METAR,1632.0
LTBH 280650Z 17011KT 140V200 CAVOK 20/12 Q1023,LTBH,2018-10-28T06:50:00Z,40.13,26.42,20.0,12.0,170,11,,6.21,30.206694,,,,,,,,,,,CAVOK,,,,,,,,VFR,,,,,,,,,,,,METAR,3.0
LTAS 280650Z 18004KT 150V210 9999 FEW035 13/04 Q1026,LTAS,2018-10-28T06:50:00Z,41.52,32.08,13.0,4.0,180,4,,6.21,30.295275,,,,,,,,,,,FEW,3500,,,,,,,VFR,,,,,,,,,,,,METAR,136.0
LTCR 280650Z 36007KT 330V040 CAVOK 18/03 Q1027,LTCR,2018-10-28T06:50:00Z,37.22,40.63,18.0,3.0,360,7,,6.21,30.324802,,,,,,,,,,,CAVOK,,,,,,,,VFR,,,,,,,,,,,,METAR,527.0
LTCT 280650Z VRB02KT CAVOK 11/01 Q1034,LTCT,2018-10-28T06:50:00Z,39.98,43.87,11.0,1.0,0,2,,6.21,30.531496,,,,,,,,,,,CAVOK,,,,,,,,VFR,,,,,,,,,,,,METAR,946.0
LTCU 280650Z 03011KT CAVOK 13/01 Q1031,LTCU,2018-10-28T06:50:00Z,38.87,40.58,13.0,1.0,30,11,,6.21,30.442913,,,,,,,,,,,CAVOK,,,,,,,,VFR,,,,,,,,,,,,METAR,1061.0
LGAV 280650Z 16006KT 120V190 9999 FEW020 SCT035 21/15 Q1023 NOSIG,LGAV,2018-10-28T06:50:00Z,37.93,23.95,21.0,15.0,160,6,,6.21,30.206694,,,,,,TRUE,,,,,FEW,2000,SCT,3500,,,,,VFR,,,,,,,,,,,,METAR,94.0
LTCW 280650Z 30007KT CAVOK 07/M03 Q1033,LTCW,2018-10-28T06:50:00Z,37.55,44.23,7.0,-3.0,300,7,,6.21,30.501968,,,,,,,,,,,CAVOK,,,,,,,,VFR,,,,,,,,,,,,METAR,1856.0
LTCV 280650Z 32005KT 290V350 CAVOK 16/05 Q1027,LTCV,2018-10-28T06:50:00Z,37.37,42.07,16.0,5.0,320,5,,6.21,30.324802,,,,,,,,,,,CAVOK,,,,,,,,VFR,,,,,,,,,,,,METAR,621.0
LGKR 280650Z 14013KT 9999 SCT020 BKN080 22/16 Q1019 NOSIG,LGKR,2018-10-28T06:50:00Z,39.62,19.92,22.0,16.0,140,13,,6.21,30.088583,,,,,,TRUE,,,,,SCT,2000,BKN,8000,,,,,VFR,,,,,,,,,,,,METAR,2.0
LGIR 280650Z 13006KT 9999 FEW016 21/17 Q1022 NOSIG,LGIR,2018-10-28T06:50:00Z,35.32,25.17,21.0,17.0,130,6,,6.21,30.177166,,,,,,TRUE,,,,,FEW,1600,,,,,,,VFR,,,,,,,,,,,,METAR,39.0
LTFG 280650Z 14004KT CAVOK 19/10 Q1026,LTFG,2018-10-28T06:50:00Z,36.3,32.3,19.0,10.0,140,4,,6.21,30.295275,,,,,,,,,,,CAVOK,,,,,,,,VFR,,,,,,,,,,,,METAR,95.0
EGYP 280650Z 31007KT CAVOK 03/01 Q1008 BLU,EGYP,2018-10-28T06:50:00Z,-51.82,-58.45,3.0,1.0,310,7,,6.21,29.763779,,,,,,,,,,,CAVOK,,,,,,,,VFR,,,,,,,,,,,,METAR,74.0
LGRP 280650Z 13004KT 080V160 9999 FEW018 21/13 Q1024 NOSIG,LGRP,2018-10-28T06:50:00Z,36.4,28.08,21.0,13.0,130,4,,6.21,30.236221,,,,,,TRUE,,,,,FEW,1800,,,,,,,VFR,,,,,,,,,,,,METAR,5.0
LTAI 280650Z 36005KT CAVOK 19/07 Q1026 NOSIG RMK RWY18C 34005KT RWY36R 34006KT 320V020 RWY18L 35005KT 330V030,LTAI,2018-10-28T06:50:00Z,36.9,30.8,19.0,7.0,360,5,,6.21,30.295275,,,,,,TRUE,,,,,CAVOK,,,,,,,,VFR,,,,,,,,,,,,METAR,54.0
LTAF 280650Z 01004KT 330V040 CAVOK 18/06 Q1026 NOSIG RMK RWY23 04004KT 360V080,LTAF,2018-10-28T06:50:00Z,36.97,35.28,18.0,6.0,10,4,,6.21,30.295275,,,,,,TRUE,,,,,CAVOK,,,,,,,,VFR,,,,,,,,,,,,METAR,20.0
LTAC 280650Z VRB02KT CAVOK 05/02 Q1030 NOSIG RMK RWY21L 27003KT 230V310 RWY03L VRB02KT RWY21R 24002KT,LTAC,2018-10-28T06:50:00Z,40.12,32.97,5.0,2.0,0,2,,6.21,30.413385,,,,,,TRUE,,,,,CAVOK,,,,,,,,VFR,,,,,,,,,,,,METAR,949.0
LTAZ 280650Z 12004KT 080V170 CAVOK 07/02 Q1030 RMK RWY29 11003KT 060V160,LTAZ,2018-10-28T06:50:00Z,38.77,34.55,7.0,2.0,120,4,,6.21,30.413385,,,,,,,,,,,CAVOK,,,,,,,,VFR,,-0.3,,,,,,,,,,METAR,945.0
LTAJ 280650Z 36005KT CAVOK 15/03 Q1028 NOSIG RMK RWY10 03007KT,LTAJ,2018-10-28T06:50:00Z,36.95,37.48,15.0,3.0,360,5,,6.21,30.35433,,,,,,TRUE,,,,,CAVOK,,,,,,,,VFR,,,,,,,,,,,,METAR,855.0
LTBA 280650Z 21010KT CAVOK 19/10 Q1024 NOSIG RMK RWY17L 21015KT RWY05 20009KT RWY23 22013KT,LTBA,2018-10-28T06:50:00Z,40.97,28.82,19.0,10.0,210,10,,6.21,30.236221,,,,,,TRUE,,,,,CAVOK,,,,,,,,VFR,,,-1.5,,,,,,,,,METAR,37.0
LTBJ 280650Z 15004KT 120V200 9999 FEW030 SCT200 14/06 Q1026 NOSIG RMK RWY16 17005KT,LTBJ,2018-10-28T06:50:00Z,38.28,27.15,14.0,6.0,150,4,,6.21,30.295275,,,,,,TRUE,,,,,FEW,3000,SCT,20000,,,,,VFR,,,,,,,,,,,,METAR,120.0
LTBR 280650Z VRB01KT 8000 NSC 10/07 Q1026 NOSIG RMK RWY07 VRB02KT,LTBR,2018-10-28T06:50:00Z,40.25,29.57,10.0,7.0,0,1,,4.97,30.295275,,,,,,TRUE,,,,,CLR,,,,,,,,MVFR,,,,,,,,,,,,METAR,232.0
LTCS 280650Z 35011KT CAVOK 13/03 Q1029 RMK RWY22 02010KT,LTCS,2018-10-28T06:50:00Z,37.45,38.9,13.0,3.0,350,11,,6.21,30.383858,,,,,,,,,,,CAVOK,,,,,,,,VFR,,,,,,,,,,,,METAR,825.0
LTCG 280650Z 05003KT 350V090 CAVOK 18/07 Q1027 NOSIG RMK RWY29 VRB02KT,LTCG,2018-10-28T06:50:00Z,41.0,39.8,18.0,7.0,50,3,,6.21,30.324802,,,,,,TRUE,,,,,CAVOK,,,,,,,,VFR,,,,,,,,,,,,METAR,30.0
EGPI 280650Z AUTO 31004KT 250V060 9999 NCD 01/M01 Q1028,EGPI,2018-10-28T06:50:00Z,55.68,-6.25,1.0,-1.0,310,4,,6.21,30.35433,,,TRUE,,,,,,,,CLR,,,,,,,,VFR,,,,,,,,,,,,METAR,18.0
EGPU 280650Z AUTO 05005KT 9999 NCD 03/02 Q1028,EGPU,2018-10-28T06:50:00Z,56.5,-6.87,3.0,2.0,50,5,,6.21,30.35433,,,TRUE,,,,,,,,CLR,,,,,,,,VFR,,,,,,,,,,,,METAR,12.0
MUHG 280650Z 05004KT 7000 VCFG NSC 24/23 Q1015,MUHG,2018-10-28T06:50:00Z,20.77,-76.32,24.0,23.0,50,4,,4.35,29.970472,,,,,,,,,,VCFG,CLR,,,,,,,,MVFR,,,,,,,,,,,,METAR,106.0
MUCC 280650Z 34004KT 9000 SCT020 25/23 Q1016,MUCC,2018-10-28T06:50:00Z,22.47,-78.33,25.0,23.0,340,4,,5.59,30.0,,,,,,,,,,,SCT,2000,,,,,,,VFR,,,,,,,,,,,,METAR,4.0
MUSC 280650Z VRB01KT 8000 FEW020 23/22 Q1016,MUSC,2018-10-28T06:50:00Z,22.5,-79.95,23.0,22.0,0,1,,4.97,30.0,,,,,,,,,,,FEW,2000,,,,,,,MVFR,,,,,,,,,,,,METAR,103.0
MUVR 280650Z 01008KT 8000 SCT020 26/21 Q1017,MUVR,2018-10-28T06:50:00Z,23.03,-81.43,26.0,21.0,10,8,,4.97,30.029528,,,,,,,,,,,SCT,2000,,,,,,,MVFR,,,,,,,,,,,,METAR,65.0
LTBS 280650Z 02006KT 9999 FEW030 17/11 Q1026 BECMG 21012KT,LTBS,2018-10-28T06:50:00Z,36.7,28.77,17.0,11.0,20,6,,6.21,30.295275,,,,,,,,,,,FEW,3000,,,,,,,VFR,,,-1.2,,,,,,,,,METAR,2.0
LTFJ 280650Z 19004KT 150V230 CAVOK 18/06 Q1024 NOSIG RMK RWY24 20003KT,LTFJ,2018-10-28T06:50:00Z,40.9,29.3,18.0,6.0,190,4,,6.21,30.236221,,,,,,TRUE,,,,,CAVOK,,,,,,,,VFR,,,0.3,,,,,,,,,METAR,98.0
LTFE 280650Z 10004KT 070V130 9999 FEW035 17/11 Q1025 NOSIG RMK RWY10 09004KT 050V120,LTFE,2018-10-28T06:50:00Z,37.25,27.67,17.0,11.0,100,4,,6.21,30.265747,,,,,,TRUE,,,,,FEW,3500,,,,,,,VFR,,,,,,,,,,,,METAR,6.0
LTFC 280650Z 17003KT 120V210 9000 NSC 09/04 Q1028 RMK RWY23 16003KT 130V210,LTFC,2018-10-28T06:50:00Z,37.87,30.38,9.0,4.0,170,3,,5.59,30.35433,,,,,,,,,,,CLR,,,,,,,,VFR,,,,,,,,,,,,METAR,864.0
LGBL 280650Z 00000KT CAVOK 18/15 Q1021,LGBL,2018-10-28T06:50:00Z,39.22,22.8,18.0,15.0,0,0,,6.21,30.147638,,,,,,,,,,,CAVOK,,,,,,,,VFR,,,,,,,,,,,,METAR,26.0
OOSH 280650Z AUTO VRB04KT //// 31/24 Q1015,OOSH,2018-10-28T06:50:00Z,24.47,56.62,31.0,24.0,0,4,,,29.970472,,,TRUE,,,,,,,,,,,,,,,,,,,,,,,,,,,,METAR,4.0
MSLP 280650Z 08003KT 020V130 9999 FEW029 FEW037CB SCT043 OVC052 25/24 Q1013 A2993 NOSIG RMK CB LTG S,MSLP,2018-10-28T06:50:00Z,13.43,-89.05,25.0,24.0,80,3,,6.21,29.911417,,,,,,TRUE,,,,,FEW,2900,FEW,3700,SCT,4300,OVC,5200,VFR,,,,,,,,,,,,METAR,25.0
EGXU 280650Z AUTO 33009KT 9999 // NCD 02/01 Q1024,EGXU,2018-10-28T06:50:00Z,54.05,-1.25,2.0,1.0,330,9,,6.21,30.236221,,,TRUE,,,,,,,,CLR,,,,,,,,VFR,,,,,,,,,,,,METAR,16.0
EGXE 280650Z AUTO 34010KT 9999 FEW042/// 04/02 Q1024 RERA,EGXE,2018-10-28T06:50:00Z,54.28,-1.52,4.0,2.0,340,10,,6.21,30.236221,,,TRUE,,,,,,,,FEW,4200,,,,,,,VFR,,,,,,,,,,,,METAR,40.0
EGVP 280650Z AUTO 02016KT 9999 // FEW011/// BKN024/// 05/03 Q1017,EGVP,2018-10-28T06:50:00Z,51.13,-1.57,5.0,3.0,20,16,,6.21,30.029528,,,TRUE,,,,,,,,FEW,1100,BKN,2400,,,,,MVFR,,,,,,,,,,,,METAR,91.0
EGVN 280650Z 03014KT 9999 FEW016 SCT028 BKN034 05/03 Q1019 BLU TEMPO 7000 SHRA SCT013CB BKN020 GRN,EGVN,2018-10-28T06:50:00Z,51.77,-1.58,5.0,3.0,30,14,,6.21,30.088583,,,,,,,,,,,FEW,1600,SCT,2800,BKN,3400,,,VFR,,,,,,,,,,,,METAR,88.0
EGOP 280650Z AUTO 36017KT 9999 // NCD 03/01 Q1022,EGOP,2018-10-28T06:50:00Z,51.72,-4.32,3.0,1.0,360,17,,6.21,30.177166,,,TRUE,,,,,,,,CLR,,,,,,,,VFR,,,,,,,,,,,,METAR,6.0
EGOM 280650Z AUTO 01009KT 9999 NCD 02/01 Q1024,EGOM,2018-10-28T06:50:00Z,55.05,-2.55,2.0,1.0,10,9,,6.21,30.236221,,,TRUE,,,,,,,,CLR,,,,,,,,VFR,,,,,,,,,,,,METAR,325.0
EGYM 280650Z AUTO 35007KT 9999 FEW060/// BKN130/// 05/03 Q1020 RERA,EGYM,2018-10-28T06:50:00Z,52.63,0.57,5.0,3.0,350,7,,6.21,30.11811,,,TRUE,,,,,,,,FEW,6000,BKN,13000,,,,,VFR,,,,,,,,,,,,METAR,23.0
EGYD 280650Z 35010KT 9999 SCT030 04/00 Q1021 BLU,EGYD,2018-10-28T06:50:00Z,53.03,-0.5,4.0,0.0,350,10,,6.21,30.147638,,,,,,,,,,,SCT,3000,,,,,,,VFR,,,,,,,,,,,,METAR,67.0
EGXW 280650Z 01010KT 9999 FEW045 05/02 Q1021 BLU,EGXW,2018-10-28T06:50:00Z,53.18,-0.52,5.0,2.0,10,10,,6.21,30.147638,,,,,,,,,,,FEW,4500,,,,,,,VFR,,,,,,,,,,,,METAR,70.0
EGXV 280650Z AUTO 34003KT //// SCT032/// SCT046/// 05/02 Q1022,EGXV,2018-10-28T06:50:00Z,53.87,-0.45,5.0,2.0,340,3,,,30.177166,,,TRUE,,,,,,,,SCT,3200,SCT,4600,,,,,,,,,,,,,,,,,METAR,6.0
EGXC 280650Z 02009KT 9999 FEW015 06/01 Q1021 BLU,EGXC,2018-10-28T06:50:00Z,53.1,-0.17,6.0,1.0,20,9,,6.21,30.147638,,,,,,,,,,,FEW,1500,,,,,,,VFR,,,,,,,,,,,,METAR,7.0
EGWU 280650Z 03012KT 9999 FEW012 BKN050 06/04 Q1018 BLU TEMPO SCT012 GRN,EGWU,2018-10-28T06:50:00Z,51.55,-0.42,6.0,4.0,30,12,,6.21,30.059055,,,,,,,,,,,FEW,1200,BKN,5000,,,,,VFR,,,,,,,,,,,,METAR,40.0
LGKO 280650Z 14007KT 9999 SCT025 20/11 Q1025,LGKO,2018-10-28T06:50:00Z,36.8,27.08,20.0,11.0,140,7,,6.21,30.265747,,,,,,,,,,,SCT,2500,,,,,,,VFR,,,,,,,,,,,,METAR,125.0
LSMM 280650Z AUTO 05009KT 360V120 6000NDV -RA OVC021 03/01 Q1000 RMK,LSMM,2018-10-28T06:50:00Z,46.75,8.12,3.0,1.0,50,9,,,29.52756,,,TRUE,,,,,,,-RA,OVC,2100,,,,,,,,,,,,,,,,,,,METAR,577.0
LSME 280650Z AUTO 02010KT 360V060 9999NDV OVC016 03/01 Q1001 RMK,LSME,2018-10-28T06:50:00Z,47.1,8.3,3.0,1.0,20,10,,,29.557087,,,TRUE,,,,,,,,OVC,1600,,,,,,,,,,,,,,,,,,,METAR,427.0
LSMD 280650Z AUTO 09007KT 030V140 9999NDV OVC012 03/01 Q1002 RMK,LSMD,2018-10-28T06:50:00Z,47.4,8.65,3.0,1.0,90,7,,,29.586615,,,TRUE,,,,,,,,OVC,1200,,,,,,,,,,,,,,,,,,,METAR,448.0
LSMA 280650Z AUTO 07009KT 030V110 9999NDV -RA OVC012 04/02 Q1001 RMK,LSMA,2018-10-28T06:50:00Z,46.95,8.28,4.0,2.0,70,9,,,29.557087,,,TRUE,,,,,,,-RA,OVC,1200,,,,,,,,,,,,,,,,,,,METAR,444.0
EGHI 280650Z 03012KT 360V060 9999 BKN016 04/02 Q1017,EGHI,2018-10-28T06:50:00Z,50.95,-1.35,4.0,2.0,30,12,,6.21,30.029528,,,,,,,,,,,BKN,1600,,,,,,,MVFR,,,,,,,,,,,,METAR,14.0
EGMD 280650Z AUTO 08024G34KT 9999 FEW028/// BKN033/// BKN039/// 08/05 Q1015,EGMD,2018-10-28T06:50:00Z,50.95,0.92,8.0,5.0,80,24,34,6.21,29.970472,,,TRUE,,,,,,,,FEW,2800,BKN,3300,BKN,3900,,,VFR,,,,,,,,,,,,METAR,3.0
EGDY 280650Z AUTO 01013KT 9999 BKN017/// 04/02 Q1019,EGDY,2018-10-28T06:50:00Z,51.0,-2.62,4.0,2.0,10,13,,6.21,30.088583,,,TRUE,,,,,,,,BKN,1700,,,,,,,MVFR,,,,,,,,,,,,METAR,23.0
EGDR 280650Z AUTO 03016KT 9999 // FEW033/// 05/01 Q1019,EGDR,2018-10-28T06:50:00Z,50.08,-5.25,5.0,1.0,30,16,,6.21,30.088583,,,TRUE,,,,,,,,FEW,3300,,,,,,,VFR,,,,,,,,,,,,METAR,82.0
EGDM 280650Z AUTO 02018KT 9999 BKN010/// BKN034/// 05/03 Q1018,EGDM,2018-10-28T06:50:00Z,51.17,-1.75,5.0,3.0,20,18,,6.21,30.059055,,,TRUE,,,,,,,,BKN,1000,BKN,3400,,,,,MVFR,,,,,,,,,,,,METAR,124.0
MMML 280649Z 08004KT 10SM SKC 24/00 A2994,MMML,2018-10-28T06:49:00Z,32.62,-115.23,24.0,0.0,80,4,,10.0,29.940945,,,,,,,,,,,SKC,,,,,,,,VFR,,,,,,,,,,,,METAR,22.0
KBKL 280649Z AUTO 29014KT 7SM SCT011 OVC016 08/06 A2978 RMK AO2 RAE40 SLP085 P0003 T00780061,KBKL,2018-10-28T06:49:00Z,41.53,-81.67,7.8,6.1,290,14,,7.0,29.778543,1008.5,,TRUE,TRUE,,,,,,,SCT,1100,OVC,1600,,,,,MVFR,,,,,,0.03,,,,,,METAR,184.0
KRYY 280648Z AUTO 25006KT 10SM BKN045 08/07 A3005 RMK AO2 SLP899 T00830072,KRYY,2018-10-28T06:48:00Z,34.02,-84.6,8.3,7.2,250,6,,10.0,30.050198,989.9,,TRUE,TRUE,,,,,,,BKN,4500,,,,,,,VFR,,,,,,,,,,,,METAR,317.0
KJDN 280648Z AUTO 29008KT 01/M03 A3007 RMK AO1 SLP199 T00061033 401441006 $,KJDN,2018-10-28T06:48:00Z,47.33,-106.95,0.6,-3.3,290,8,,,30.070866,1019.9,,TRUE,TRUE,TRUE,,,,,,,,,,,,,,,,,,14.4,-0.6,,,,,,,METAR,801.0
KCQT 280647Z AUTO 00000KT 1 3/4SM BR OVC003 17/16 A3000 RMK AO2 SLP156 T01670156,KCQT,2018-10-28T06:47:00Z,34.02,-118.28,16.7,15.6,0,0,,1.75,30.0,1015.6,,TRUE,TRUE,,,,,,BR,OVC,300,,,,,,,LIFR,,,,,,,,,,,,METAR,56.0
FADY 280647Z 06006KT CAVOK 29/02 Q1023,FADY,2018-10-28T06:47:00Z,-30.67,23.98,29.0,2.0,60,6,,6.21,30.206694,,,,,,,,,,,CAVOK,,,,,,,,VFR,,,,,,,,,,,,SPECI,384.0
MMMY 280646Z 08004KT 15SM SKC 16/14 A3014,MMMY,2018-10-28T06:46:00Z,25.77,-100.08,16.0,14.0,80,4,,15.0,30.138779,,,,,,,,,,,SKC,,,,,,,,VFR,,,,,,,,,,,,METAR,387.0
MMTO 280646Z 00000KT 6SM SCT015 BKN070 11/08 A3044 RMK 8/530 HZY,MMTO,2018-10-28T06:46:00Z,19.35,-99.57,11.0,8.0,0,0,,6.0,30.43996,,,,,,,,,,,SCT,1500,BKN,7000,,,,,VFR,,,,,,,,,,,,METAR,2576.0
KFOZ 280645Z AUTO 36003KT 10SM -RA OVC028 06/05 A2969 RMK AO2 P0003 P0003,KFOZ,2018-10-28T06:45:00Z,47.77,-93.65,6.0,5.0,360,3,,10.0,29.68996,,,TRUE,TRUE,,,,,,-RA,OVC,2800,,,,,,,MVFR,,,,,,0.03,,,,,,METAR,411.0
KMIS 280645Z AUTO 30007KT 10SM CLR 21/15 A3012 RMK A01,KMIS,2018-10-28T06:45:00Z,29.3,-88.85,21.0,15.0,300,7,,10.0,30.121063,,,TRUE,TRUE,,,,,,,CLR,,,,,,,,VFR,,,,,,,,,,,,SPECI,32.0
MMCZ 280645Z 03010KT 7SM SCT015 BKN140 26/24 A3001 RMK 8/530,MMCZ,2018-10-28T06:45:00Z,20.52,-86.92,26.0,24.0,30,10,,7.0,30.008858,,,,,,,,,,,SCT,1500,BKN,14000,,,,,VFR,,,,,,,,,,,,METAR,5.0
LHUD 280645Z 16015KT CAVOK 18/09 Q1010,LHUD,2018-10-28T06:45:00Z,46.25,20.1,18.0,9.0,160,15,,6.21,29.822834,,,,,,,,,,,CAVOK,,,,,,,,VFR,,,,,,,,,,,,METAR,84.0
LHSM 280645Z 30002KT 0200 FG SCT002 OVC060 08/08 Q1006,LHSM,2018-10-28T06:45:00Z,46.68,17.17,8.0,8.0,300,2,,0.12,29.704725,,,,,,,,,,FG,SCT,200,OVC,6000,,,,,LIFR,,,,,,,,,,,,METAR,125.0
LHPR 280645Z VRB01KT 2000 BR NSC 09/09 Q1006 RMK YLO,LHPR,2018-10-28T06:45:00Z,47.63,17.82,9.0,9.0,0,1,,1.24,29.704725,,,,,,,,,,BR,CLR,,,,,,,,IFR,,,,,,,,,,,,METAR,129.0
LHPP 280645Z 17014KT CAVOK 19/07 Q1008,LHPP,2018-10-28T06:45:00Z,45.98,18.23,19.0,7.0,170,14,,6.21,29.763779,,,,,,,,,,,CAVOK,,,,,,,,VFR,,,,,,,,,,,,METAR,305.0
LHPA 280645Z 25002KT 0400 R34/0450V0750D FG OVC002 09/09 Q1006 NOSIG RMK RED,LHPA,2018-10-28T06:45:00Z,47.35,17.5,9.0,9.0,250,2,,0.25,29.704725,,,,,,TRUE,,,,FG,OVC,200,,,,,,,LIFR,,,,,,,,,,,,METAR,148.0
LHDC 280645Z 18013KT CAVOK 17/09 Q1011 NOSIG,LHDC,2018-10-28T06:45:00Z,47.47,21.62,17.0,9.0,180,13,,6.21,29.852362,,,,,,TRUE,,,,,CAVOK,,,,,,,,VFR,,,,,,,,,,,,METAR,112.0
LHBC 280645Z 17010KT CAVOK 18/09 Q1011,LHBC,2018-10-28T06:45:00Z,46.68,21.17,18.0,9.0,170,10,,6.21,29.852362,,,,,,,,,,,CAVOK,,,,,,,,VFR,,,,,,,,,,,,METAR,86.0
KSWF 280645Z 00000KT 3SM BR OVC008 06/06 A2967,KSWF,2018-10-28T06:45:00Z,41.5,-74.08,6.0,6.0,0,0,,3.0,29.66929,,,,,,,,,,BR,OVC,800,,,,,,,IFR,,,,,,,,,,,,METAR,150.0
SBCZ 280645Z 30001KT CAVOK 23/23 Q1011,SBCZ,2018-10-28T06:45:00Z,-7.62,-72.77,23.0,23.0,300,1,,6.21,29.852362,,,,,,,,,,,CAVOK,,,,,,,,VFR,,,,,,,,,,,,SPECI,170.0
LHKE 280645Z 16008KT CAVOK 15/09 Q1009 NOSIG RMK BLU,LHKE,2018-10-28T06:45:00Z,46.92,19.75,15.0,9.0,160,8,,6.21,29.793306,,,,,,TRUE,,,,,CAVOK,,,,,,,,VFR,,,,,,,,,,,,METAR,115.0
LIRP 280645Z 16014KT 9999 FEW020 SCT030 BKN040 21/19 Q0998 TEMPO 20015G27KT,LIRP,2018-10-28T06:45:00Z,43.67,10.37,21.0,19.0,160,14,,6.21,29.468504,,,,,,,,,,,FEW,2000,SCT,3000,BKN,4000,,,VFR,,,1.5,,,,,,,,,METAR,2.0
MMUN 280644Z 01005KT 7SM BKN015TCU 26/22 A3003 RMK 8/200,MMUN,2018-10-28T06:44:00Z,21.02,-86.85,26.0,22.0,10,5,,7.0,30.029528,,,,,,,,,,,BKN,1500,,,,,,,MVFR,,,,,,,,,,,,METAR,10.0
KFSE 280644Z AUTO 31005KT 10SM CLR 03/03 A2977 RMK AO2,KFSE,2018-10-28T06:44:00Z,47.58,-95.77,3.0,3.0,310,5,,10.0,29.769686,,,TRUE,TRUE,,,,,,,CLR,,,,,,,,VFR,,,,,,,,,,,,METAR,389.0
MMGL 280643Z 00000KT 10SM FEW030 17/13 A3023 RMK 8/500,MMGL,2018-10-28T06:43:00Z,20.52,-103.32,17.0,13.0,0,0,,10.0,30.230314,,,,,,,,,,,FEW,3000,,,,,,,VFR,,,,,,,,,,,,METAR,1528.0
MMTJ 280641Z 00000KT 8SM SKC 15/14 A3003 RMK HZY,MMTJ,2018-10-28T06:41:00Z,32.53,-116.97,15.0,14.0,0,0,,8.0,30.029528,,,,,,,,,,,SKC,,,,,,,,VFR,,,,,,,,,,,,METAR,152.0
MMTP 280641Z 00000KT 8SM SCT040 SCT180 24/24 A2991 RMK 8/307,MMTP,2018-10-28T06:41:00Z,14.77,-92.37,24.0,24.0,0,0,,8.0,29.911417,,,,,,,,,,,SCT,4000,SCT,18000,,,,,VFR,,,,,,,,,,,,METAR,29.0
MMSP 280641Z 10005KT 7SM FEW010 BKN020 OVC080 14/11 A3036 RMK 8/57/ LWR SC,MMSP,2018-10-28T06:41:00Z,22.25,-100.93,14.0,11.0,100,5,,7.0,30.360237,,,,,,,,,,,FEW,1000,BKN,2000,OVC,8000,,,MVFR,,,,,,,,,,,,METAR,1903.0
MMPR 280641Z 04002KT 12SM SKC 25/25 A2992,MMPR,2018-10-28T06:41:00Z,20.67,-105.25,25.0,25.0,40,2,,12.0,29.920275,,,,,,,,,,,SKC,,,,,,,,VFR,,,,,,,,,,,,METAR,6.0
MMMM 280641Z 00000KT 6SM BKN025 BKN230 15/13 A3030 RMK 8/502 AC,MMMM,2018-10-28T06:41:00Z,19.85,-101.02,15.0,13.0,0,0,,6.0,30.301182,,,,,,,,,,,BKN,2500,BKN,23000,,,,,MVFR,,,,,,,,,,,,METAR,1833.0
MMAS 280641Z 02003KT 10SM SCT040 SCT100 15/10 A3036 RMK 8/530,MMAS,2018-10-28T06:41:00Z,21.7,-102.32,15.0,10.0,20,3,,10.0,30.360237,,,,,,,,,,,SCT,4000,SCT,10000,,,,,VFR,,,,,,,,,,,,METAR,1863.0
MMMZ 280640Z 04004KT 10SM SKC 23/22 A2994 RMK HZY,MMMZ,2018-10-28T06:40:00Z,23.17,-106.27,23.0,22.0,40,4,,10.0,29.940945,,,,,,,,,,,SKC,,,,,,,,VFR,,,,,,,,,,,,METAR,10.0
MMHO 280640Z 20003KT 10SM SKC 22/15 A2996,MMHO,2018-10-28T06:40:00Z,29.08,-111.05,22.0,15.0,200,3,,10.0,29.958662,,,,,,,,,,,SKC,,,,,,,,VFR,,,,,,,,,,,,METAR,184.0
CWZQ 280640Z AUTO 10034G46KT 04/01 RMK AO1 T00400011,CWZQ,2018-10-28T06:40:00Z,46.53,-61.05,4.0,1.1,100,34,46,,,,,TRUE,TRUE,,,,,,,,,,,,,,,,,,,,,,,,,,,METAR,17.0
SPEC B ,SPEC,2018-10-28T06:40:00Z,,,,,,,,,,,,,,,,,,,,,,,,,,,,,,,,,,,,,,,,SPECI,
FASB 280639Z 12010KT CAVOK 31/M03 Q1020,FASB,2018-10-28T06:39:00Z,-29.68,17.93,31.0,-3.0,120,10,,6.21,30.11811,,,,,,,,,,,CAVOK,,,,,,,,VFR,,,,,,,,,,,,SPECI,813.0
FABM 280635Z 31005KT CAVOK 21/06 Q1030,FABM,2018-10-28T06:35:00Z,-28.25,28.32,21.0,6.0,310,5,,6.21,30.413385,,,,,,,,,,,CAVOK,,,,,,,,VFR,,,,,,,,,,,,SPECI,1682.0
ETSN 280633Z 03006KT 7000 -SNRA FEW004 BKN007 OVC013 01/01 Q1006 RERASN GRN,ETSN,2018-10-28T06:33:00Z,48.72,11.22,1.0,1.0,30,6,,4.35,29.704725,,,,,,,,,,-SN -RA,FEW,400,BKN,700,OVC,1300,,,IFR,,,,,,,,,,,,SPECI,387.0
ETHL 280631Z 05009KT 1500 SN BR FEW002 BKN007 00/M00 Q1005 RESN AMB,ETHL,2018-10-28T06:31:00Z,48.22,9.92,0.0,0.0,50,9,,0.93,29.675198,,,,,,,,,,SN BR,FEW,200,BKN,700,,,,,LIFR,,,,,,,,,,,,SPECI,549.0
VASD 280630Z 04004KT 6000 NSC 32/11 Q1018 NOSIG,VASD,2018-10-28T06:30:00Z,,,32.0,11.0,40,4,,3.73,30.059055,,,,,,TRUE,,,,,CLR,,,,,,,,MVFR,,,,,,,,,,,,METAR,
VISR 280630Z VRB02KT FEW200 4000 FU 18/01 Q1028 NOSIG,VISR,2018-10-28T06:30:00Z,33.97,74.77,18.0,1.0,0,2,,2.49,30.35433,,,,,,TRUE,,,,FU,FEW,20000,,,,,,,IFR,,,,,,,,,,,,METAR,1666.0
VICG 280630Z VRB02KT 6000 SKC 27/13 Q1019 NOSIG,VICG,2018-10-28T06:30:00Z,30.67,76.78,27.0,13.0,0,2,,3.73,30.088583,,,,,,TRUE,,,,,SKC,,,,,,,,MVFR,,,,,,,,,,,,METAR,308.0
VEBI 280630Z 09002KT 5000 HZ SCT020 BKN090 23/18 Q1020,VEBI,2018-10-28T06:30:00Z,25.7,91.98,23.0,18.0,90,2,,3.11,30.11811,,,,,,,,,,HZ,SCT,2000,BKN,9000,,,,,MVFR,,,,,,,,,,,,METAR,887.0
VQPR 280630Z 15011KT 9999 NSC 22/M09 Q1024,VQPR,2018-10-28T06:30:00Z,27.4,89.43,22.0,-9.0,150,11,,6.21,30.236221,,,,,,,,,,,CLR,,,,,,,,VFR,,,,,,,,,,,,METAR,2235.0
VEDG 280630Z 36001KT 3200 HZ FEW020 FEW025 29/20 Q1014 BECMG 3500 HZ,VEDG,2018-10-28T06:30:00Z,23.62,87.25,29.0,20.0,360,1,,1.99,29.940945,,,,,,,,,,HZ,FEW,2000,FEW,2500,,,,,IFR,,,,,,,,,,,,METAR,91.0
VASU 280630Z 05005KT 6000 NSC 37/13 Q1014,VASU,2018-10-28T06:30:00Z,21.12,72.73,37.0,13.0,50,5,,3.73,29.940945,,,,,,,,,,,CLR,,,,,,,,MVFR,,,,,,,,,,,,METAR,5.0
VYMD 280630Z 36003KT 8000 BKN020 FEW025CB FEW120 33/26 Q1013,VYMD,2018-10-28T06:30:00Z,21.7,95.98,33.0,26.0,360,3,,4.97,29.911417,,,,,,,,,,,BKN,2000,FEW,2500,FEW,12000,,,MVFR,,,,,,,,,,,,METAR,91.0
VIPT 280630Z 32005KT 6000 NSC 27/16 Q1017,VIPT,2018-10-28T06:30:00Z,29.03,79.47,27.0,16.0,320,5,,3.73,30.029528,,,,,,,,,,,CLR,,,,,,,,MVFR,,,,,,,,,,,,METAR,234.0
FACV 280629Z 08011KT CAVOK 32/04 Q1020,FACV,2018-10-28T06:29:00Z,-31.5,19.72,32.0,4.0,80,11,,6.21,30.11811,,,,,,,,,,,CAVOK,,,,,,,,VFR,,,,,,,,,,,,SPECI,977.0
CWND 281528Z M01/ RMK 5010 T1007,CWND,2018-10-28T06:24:06Z,69.63,-135.43,-0.7,,,,,,,,,,,,,,,,,,,,,,,,,,,,,,,,,,,,,METAR,12.0
ESOW 280620Z AUTO 36011KT 9999 FEW025/// M01/M05 Q1023,ESOW,2018-10-28T06:20:00Z,59.57,16.62,-1.0,-5.0,360,11,,6.21,30.206694,,,TRUE,,,,,,,,FEW,2500,,,,,,,VFR,,,,,,,,,,,,METAR,31.0
ETSL 280620Z AUTO 01008KT 4300 // ////// 00/00 Q1005 ///,ETSL,2018-10-28T06:20:00Z,48.17,10.87,0.0,0.0,10,8,,2.67,29.675198,,,TRUE,,,,,,,,,,,,,,,,,,,,,,,,,,,,METAR,562.0
ETSI 280620Z AUTO 05009KT 5000 // ////// 01/00 Q1006 ///,ETSI,2018-10-28T06:20:00Z,48.72,11.52,1.0,0.0,50,9,,3.11,29.704725,,,TRUE,,,,,,,,,,,,,,,,,,,,,,,,,,,,METAR,370.0
ETSB 280620Z AUTO 04015KT 8000 // ////// 02/00 Q1009 ///,ETSB,2018-10-28T06:20:00Z,50.17,7.07,2.0,0.0,40,15,,4.97,29.793306,,,TRUE,,,,,,,,,,,,,,,,,,,,,,,,,,,,METAR,486.0
ETNN 280620Z AUTO 06009KT 9999 // ////// 02/00 Q1014 ///,ETNN,2018-10-28T06:20:00Z,50.82,6.67,2.0,0.0,60,9,,6.21,29.940945,,,TRUE,,,,,,,,,,,,,,,,,,,,,,,,,,,,METAR,135.0
ETHN 280620Z 08012KT 7000 -RA BKN005 OVC018 03/02 Q1007 YLO,ETHN,2018-10-28T06:20:00Z,49.38,9.97,3.0,2.0,80,12,,4.35,29.734253,,,,,,,,,,-RA,BKN,500,OVC,1800,,,,,IFR,,,,,,,,,,,,METAR,473.0
ETHA 280620Z AUTO 04012KT //// // ////// 01/01 Q1003 ///,ETHA,2018-10-28T06:20:00Z,47.82,10.87,1.0,1.0,40,12,,,29.616142,,,TRUE,,,,,,,,,,,,,,,,,,,,,,,,,,,,METAR,760.0
ETWM 280620Z AUTO ///03KT 9999 // ////// M01/M02 Q1017 ///,ETWM,2018-10-28T06:20:00Z,52.72,7.33,-1.0,-2.0,,,,6.21,30.029528,,,TRUE,,,,,,,,,,,,,,,,,,,,,,,,,,,,METAR,21.0
ETSH 280620Z 01004KT 9999 BKN006 04/03 Q1013 YLO,ETSH,2018-10-28T06:20:00Z,51.77,13.17,4.0,3.0,10,4,,6.21,29.911417,,,,,,,,,,,BKN,600,,,,,,,IFR,,,,,,,,,,,,METAR,79.0
ETNW 280620Z AUTO 01008KT 4800 // ////// M00/M01 Q1016 ///,ETNW,2018-10-28T06:20:00Z,52.45,9.42,0.0,-1.0,10,8,,2.98,30.0,,,TRUE,,,,,,,,,,,,,,,,,,,,,,,,,,,,METAR,70.0
ETNT 280620Z 07004KT 9999 FEW015 01/M01 Q1018 BLU+,ETNT,2018-10-28T06:20:00Z,53.53,7.67,1.0,-1.0,70,4,,6.21,30.059055,,,,,,,,,,,FEW,1500,,,,,,,VFR,,,,,,,,,,,,METAR,12.0
ETNS 280620Z AUTO 35005KT 8000 // ////// M02/M03 Q1019 ///,ETNS,2018-10-28T06:20:00Z,54.47,9.52,-2.0,-3.0,350,5,,4.97,30.088583,,,TRUE,,,,,,,,,,,,,,,,,,,,,,,,,,,,METAR,25.0
ETNL 280620Z 03006KT 9999 FEW020 BKN043 02/01 Q1017 BLU,ETNL,2018-10-28T06:20:00Z,53.92,12.27,2.0,1.0,30,6,,6.21,30.029528,,,,,,,,,,,FEW,2000,BKN,4300,,,,,VFR,,,,,,,,,,,,METAR,40.0
ETNH 280620Z 34005KT 6000 FEW020 M03/M04 Q1018 WHT,ETNH,2018-10-28T06:20:00Z,54.32,9.55,-3.0,-4.0,340,5,,3.73,30.059055,,,,,,,,,,,FEW,2000,,,,,,,MVFR,,,,,,,,,,,,METAR,17.0
ETMN 280620Z 03006KT 9999 FEW015 00/M00 Q1018 BLU+,ETMN,2018-10-28T06:20:00Z,53.77,8.67,0.0,0.0,30,6,,6.21,30.059055,,,,,,,,,,,FEW,1500,,,,,,,VFR,,,,,,,,,,,,METAR,31.0
ETHS 280620Z 03005KT 8000 MIFG FEW020 BKN260 M00/M01 Q1016 BLU+,ETHS,2018-10-28T06:20:00Z,52.92,10.18,0.0,-1.0,30,5,,4.97,30.0,,,,,,,,,,MIFG,FEW,2000,BKN,26000,,,,,MVFR,,,,,,,,,,,,METAR,88.0
ETHF 280620Z 03006KT 9999 FEW015 BKN020 04/00 Q1013 WHT,ETHF,2018-10-28T06:20:00Z,51.12,9.27,4.0,0.0,30,6,,6.21,29.911417,,,,,,,,,,,FEW,1500,BKN,2000,,,,,MVFR,,,,,,,,,,,,METAR,181.0
ETHC 280620Z 36005KT 9999 BKN250 M00/M01 Q1016 BLU+,ETHC,2018-10-28T06:20:00Z,52.6,10.02,0.0,-1.0,360,5,,6.21,30.0,,,,,,,,,,,BKN,25000,,,,,,,VFR,,,,,,,,,,,,METAR,52.0
ETHB 280620Z AUTO 03004KT 9999 // ////// 01/M00 Q1016 ///,ETHB,2018-10-28T06:20:00Z,52.27,9.07,1.0,0.0,30,4,,6.21,30.0,,,TRUE,,,,,,,,,,,,,,,,,,,,,,,,,,,,METAR,78.0
ETGG 280620Z 03009KT 9999 FEW005 03/02 Q1019 BLU+,ETGG,2018-10-28T06:20:00Z,54.83,9.5,3.0,2.0,30,9,,6.21,30.088583,,,,,,,,,,,FEW,500,,,,,,,VFR,,,,,,,,,,,,METAR,33.0
EDFM 280620Z 36008KT 9999 OVC026 07/03 Q1009,EDFM,2018-10-28T06:20:00Z,49.47,8.52,7.0,3.0,360,8,,6.21,29.793306,,,,,,,,,,,OVC,2600,,,,,,,MVFR,,,,,,,,,,,,METAR,100.0
